{
"type": "FeatureCollection",
"name": "geo_01_特定福祉用具販売",
"crs": { "type": "name", "properties": { "name": "urn:ogc:def:crs:OGC:1.3:CRS84" } },
"features": [
{ "type": "Feature", "properties": { "内容": "株式会社デュオ【特定福祉用具販売】北海道札幌市中央区北３条西１２丁目２番地２", "url2": "https://www.kaigokensaku.mhlw.go.jp/01/index.php?action_kouhyou_detail_004_kani=true&JigyosyoCd=0170204192-00&ServiceCd=410&Type=search" }, "geometry": { "type": "Point", "coordinates": [ 141.338205898695435, 43.063126930236443 ] } },
{ "type": "Feature", "properties": { "内容": "株式会社　伊藤医科器械店【特定福祉用具販売】北海道札幌市中央区北6条西23丁目1-24", "url2": "https://www.kaigokensaku.mhlw.go.jp/01/index.php?action_kouhyou_detail_004_kani=true&JigyosyoCd=0170100366-00&ServiceCd=410&Type=search" }, "geometry": { "type": "Point", "coordinates": [ 141.320932135581984, 43.064416617101962 ] } },
{ "type": "Feature", "properties": { "内容": "ライフサポートせせらぎ【特定福祉用具販売】札幌市中央区南１５条西１９丁目４番１号楽ゆう館ふしみ", "url2": "https://www.kaigokensaku.mhlw.go.jp/01/index.php?action_kouhyou_detail_004_kani=true&JigyosyoCd=0170208284-00&ServiceCd=410&Type=search" }, "geometry": { "type": "Point", "coordinates": [ 141.327685580543175, 43.037483792937799 ] } },
{ "type": "Feature", "properties": { "内容": "ＳＯＭＰＯケア　札幌　福祉用具【特定福祉用具販売】札幌市中央区北11条西14丁目1番17号", "url2": "https://www.kaigokensaku.mhlw.go.jp/01/index.php?action_kouhyou_detail_004_kani=true&JigyosyoCd=0170104665-00&ServiceCd=410&Type=search" }, "geometry": { "type": "Point", "coordinates": [ 141.331829507151241, 43.071859664695921 ] } },
{ "type": "Feature", "properties": { "内容": "パナソニックエイジフリーショップ札幌中央【特定福祉用具販売】北海道札幌市中央区北2条東10丁目93-33", "url2": "https://www.kaigokensaku.mhlw.go.jp/01/index.php?action_kouhyou_detail_004_kani=true&JigyosyoCd=0170104137-00&ServiceCd=410&Type=search" }, "geometry": { "type": "Point", "coordinates": [ 141.372191599999951, 43.0666624 ] } },
{ "type": "Feature", "properties": { "内容": "フランスベッド株式会社　メディカル札幌営業所【特定福祉用具販売】北海道札幌市中央区北１条東８丁目１番４号ホクアイ北１条　１階", "url2": "https://www.kaigokensaku.mhlw.go.jp/01/index.php?action_kouhyou_detail_004_kani=true&JigyosyoCd=0170505887-00&ServiceCd=410&Type=search" }, "geometry": { "type": "Point", "coordinates": [ 141.368203, 43.0650736 ] } },
{ "type": "Feature", "properties": { "内容": "ノースヘルスケアサポート【特定福祉用具販売】北海道札幌市中央区南9条西3丁目10-97札幌KSビル4F", "url2": "https://www.kaigokensaku.mhlw.go.jp/01/index.php?action_kouhyou_detail_004_kani=true&JigyosyoCd=0170105480-00&ServiceCd=410&Type=search" }, "geometry": { "type": "Point", "coordinates": [ 141.35581830000001, 43.0493884 ] } },
{ "type": "Feature", "properties": { "内容": "株式会社ライフプラス【特定福祉用具販売】札幌市中央区南10条西21丁目4番7号", "url2": "https://www.kaigokensaku.mhlw.go.jp/01/index.php?action_kouhyou_detail_004_kani=true&JigyosyoCd=0170506182-00&ServiceCd=410&Type=search" }, "geometry": { "type": "Point", "coordinates": [ 141.326394415664936, 43.044836402354321 ] } },
{ "type": "Feature", "properties": { "内容": "合同会社　樹（福祉用具　いつき）【特定福祉用具販売】札幌市中央区南17条西9丁目2番36号", "url2": "https://www.kaigokensaku.mhlw.go.jp/01/index.php?action_kouhyou_detail_004_kani=true&JigyosyoCd=0170105779-00&ServiceCd=410&Type=search" }, "geometry": { "type": "Point", "coordinates": [ 141.3465587, 43.0367196 ] } },
{ "type": "Feature", "properties": { "内容": "イリーゼ生活サポート札幌【特定福祉用具販売】北海道札幌市北区新琴似4条1丁目1-45イリーゼ新琴似内", "url2": "https://www.kaigokensaku.mhlw.go.jp/01/index.php?action_kouhyou_detail_004_kani=true&JigyosyoCd=0170103774-00&ServiceCd=410&Type=search" }, "geometry": { "type": "Point", "coordinates": [ 141.330378600000017, 43.1052426 ] } },
{ "type": "Feature", "properties": { "内容": "西出福祉サービス札幌【特定福祉用具販売】札幌市北区北３４条西１１丁目４－１５", "url2": "https://www.kaigokensaku.mhlw.go.jp/01/index.php?action_kouhyou_detail_004_kani=true&JigyosyoCd=0170204234-00&ServiceCd=410&Type=search" }, "geometry": { "type": "Point", "coordinates": [ 141.330873, 43.1046455 ] } },
{ "type": "Feature", "properties": { "内容": "介護用品・福祉用具事業所プラスレント【特定福祉用具販売】札幌市北区新琴似５条１４丁目9-14", "url2": "https://www.kaigokensaku.mhlw.go.jp/01/index.php?action_kouhyou_detail_004_kani=true&JigyosyoCd=0170210181-00&ServiceCd=410&Type=search" }, "geometry": { "type": "Point", "coordinates": [ 141.3095936, 43.120027 ] } },
{ "type": "Feature", "properties": { "内容": "株式会社マルベリー　さわやかセンター札幌東【特定福祉用具販売】北海道札幌市北区新川6条20丁目1番1号　Lynx内", "url2": "https://www.kaigokensaku.mhlw.go.jp/01/index.php?action_kouhyou_detail_004_kani=true&JigyosyoCd=0170203517-00&ServiceCd=410&Type=search" }, "geometry": { "type": "Point", "coordinates": [ 141.292183032767952, 43.121138119455033 ] } },
{ "type": "Feature", "properties": { "内容": "アイサポート【特定福祉用具販売】北海道札幌市東区北21条東1丁目3番18号108号室", "url2": "https://www.kaigokensaku.mhlw.go.jp/01/index.php?action_kouhyou_detail_004_kani=true&JigyosyoCd=0170207872-00&ServiceCd=410&Type=search" }, "geometry": { "type": "Point", "coordinates": [ 141.351466699999946, 43.0879676 ] } },
{ "type": "Feature", "properties": { "内容": "株式会社ジェー・シー・アイ札幌支店【特定福祉用具販売】北海道札幌市東区北三十六条東26丁目2-25", "url2": "https://www.kaigokensaku.mhlw.go.jp/01/index.php?action_kouhyou_detail_004_kani=true&JigyosyoCd=0170200356-00&ServiceCd=410&Type=search" }, "geometry": { "type": "Point", "coordinates": [ 141.387972600000012, 43.1038757 ] } },
{ "type": "Feature", "properties": { "内容": "シルバー・サポート・コーポレーション有限会社【特定福祉用具販売】北海道札幌市東区苗穂町4丁目2-6中村ビル　1F", "url2": "https://www.kaigokensaku.mhlw.go.jp/01/index.php?action_kouhyou_detail_004_kani=true&JigyosyoCd=0170200570-00&ServiceCd=410&Type=search" }, "geometry": { "type": "Point", "coordinates": [ 141.384742465820295, 43.075899504626953 ] } },
{ "type": "Feature", "properties": { "内容": "ライフサポートひまわり【特定福祉用具販売】北海道札幌市東区伏古１1条1丁目１番35号", "url2": "https://www.kaigokensaku.mhlw.go.jp/01/index.php?action_kouhyou_detail_004_kani=true&JigyosyoCd=0170200182-00&ServiceCd=410&Type=search" }, "geometry": { "type": "Point", "coordinates": [ 141.393290200000024, 43.0981427 ] } },
{ "type": "Feature", "properties": { "内容": "ダスキンヘルスレント札幌北ステーション【特定福祉用具販売】北海道札幌市東区北34条東22丁目1-35", "url2": "https://www.kaigokensaku.mhlw.go.jp/01/index.php?action_kouhyou_detail_004_kani=true&JigyosyoCd=0170209183-00&ServiceCd=410&Type=search" }, "geometry": { "type": "Point", "coordinates": [ 141.3794763, 43.103597 ] } },
{ "type": "Feature", "properties": { "内容": "ピースケアサポート【特定福祉用具販売】札幌市東区北24条東3丁目1番16号", "url2": "https://www.kaigokensaku.mhlw.go.jp/01/index.php?action_kouhyou_detail_004_kani=true&JigyosyoCd=0170204069-00&ServiceCd=410&Type=search" }, "geometry": { "type": "Point", "coordinates": [ 141.354246120212593, 43.092016313239625 ] } },
{ "type": "Feature", "properties": { "内容": "グッドタイム介護ショップ・札幌東【特定福祉用具販売】札幌市東区北34条東27丁目5番1号", "url2": "https://www.kaigokensaku.mhlw.go.jp/01/index.php?action_kouhyou_detail_004_kani=true&JigyosyoCd=0170208953-00&ServiceCd=410&Type=search" }, "geometry": { "type": "Point", "coordinates": [ 141.3885584, 43.1012562 ] } },
{ "type": "Feature", "properties": { "内容": "グリンケア福祉用具貸与事業所【特定福祉用具販売】札幌市東区本町1条5丁目2-8エクセルフローラ101", "url2": "https://www.kaigokensaku.mhlw.go.jp/01/index.php?action_kouhyou_detail_004_kani=true&JigyosyoCd=0170403059-00&ServiceCd=410&Type=search" }, "geometry": { "type": "Point", "coordinates": [ 141.388549730853072, 43.077323079649837 ] } },
{ "type": "Feature", "properties": { "内容": "パナソニックエイジフリーショップ札幌東【特定福祉用具販売】北海道札幌市東区北７条東６丁目18-21", "url2": "https://www.kaigokensaku.mhlw.go.jp/01/index.php?action_kouhyou_detail_004_kani=true&JigyosyoCd=0170200901-00&ServiceCd=410&Type=search" }, "geometry": { "type": "Point", "coordinates": [ 141.362705799999958, 43.0716588 ] } },
{ "type": "Feature", "properties": { "内容": "有限会社ティージー・サポート【特定福祉用具販売】北海道札幌市東区北20条東21丁目1番17号", "url2": "https://www.kaigokensaku.mhlw.go.jp/01/index.php?action_kouhyou_detail_004_kani=true&JigyosyoCd=0170205033-00&ServiceCd=410&Type=search" }, "geometry": { "type": "Point", "coordinates": [ 141.384172499999977, 43.0875131 ] } },
{ "type": "Feature", "properties": { "内容": "大蔵サポート【特定福祉用具販売】北海道札幌市東区北28条東2丁目2番20号しんふぉに～28", "url2": "https://www.kaigokensaku.mhlw.go.jp/01/index.php?action_kouhyou_detail_004_kani=true&JigyosyoCd=0170205447-00&ServiceCd=410&Type=search" }, "geometry": { "type": "Point", "coordinates": [ 141.351079631858056, 43.096897065789022 ] } },
{ "type": "Feature", "properties": { "内容": "株式会社エンパイアー　ホームヘルスケア事業部札幌営業所【特定福祉用具販売】北海道札幌市東区東苗穂5条2丁目7番14号", "url2": "https://www.kaigokensaku.mhlw.go.jp/01/index.php?action_kouhyou_detail_004_kani=true&JigyosyoCd=0170200109-00&ServiceCd=410&Type=search" }, "geometry": { "type": "Point", "coordinates": [ 141.408944900000051, 43.0899052 ] } },
{ "type": "Feature", "properties": { "内容": "株式会社ハーティワークス【特定福祉用具販売】札幌市白石区流通センター１丁目７番５４号北新ビル1階", "url2": "https://www.kaigokensaku.mhlw.go.jp/01/index.php?action_kouhyou_detail_004_kani=true&JigyosyoCd=0170503072-00&ServiceCd=410&Type=search" }, "geometry": { "type": "Point", "coordinates": [ 141.443268181614712, 43.037655524169985 ] } },
{ "type": "Feature", "properties": { "内容": "CARECREW【特定福祉用具販売】東札幌6条4丁目1-5TRINITE`A2", "url2": "https://www.kaigokensaku.mhlw.go.jp/01/index.php?action_kouhyou_detail_004_kani=true&JigyosyoCd=0170516017-00&ServiceCd=410&Type=search" }, "geometry": { "type": "Point", "coordinates": [ 141.392816299999964, 43.0527885 ] } },
{ "type": "Feature", "properties": { "内容": "パナソニックエイジフリーショップ白石【特定福祉用具販売】北海道札幌市白石区流通センター7丁目8-1", "url2": "https://www.kaigokensaku.mhlw.go.jp/01/index.php?action_kouhyou_detail_004_kani=true&JigyosyoCd=0170514012-00&ServiceCd=410&Type=search" }, "geometry": { "type": "Point", "coordinates": [ 141.45312770000001, 43.0390238 ] } },
{ "type": "Feature", "properties": { "内容": "ライフハンディ株式会社【特定福祉用具販売】北海道札幌市白石区本郷通8丁目北7番1号山口ビル203号", "url2": "https://www.kaigokensaku.mhlw.go.jp/01/index.php?action_kouhyou_detail_004_kani=true&JigyosyoCd=0170516272-00&ServiceCd=410&Type=search" }, "geometry": { "type": "Point", "coordinates": [ 141.415122, 43.041835 ] } },
{ "type": "Feature", "properties": { "内容": "ユニケア【特定福祉用具販売】北海道札幌市白石区米里一条３丁目２番２５号", "url2": "https://www.kaigokensaku.mhlw.go.jp/01/index.php?action_kouhyou_detail_004_kani=true&JigyosyoCd=0170508758-00&ServiceCd=410&Type=search" }, "geometry": { "type": "Point", "coordinates": [ 141.4184712, 43.0745554 ] } },
{ "type": "Feature", "properties": { "内容": "株式会社ＯＰＴＩＯＮ【特定福祉用具販売】北海道札幌市白石区平和通６丁目南３番３号エルフィーネ２階", "url2": "https://www.kaigokensaku.mhlw.go.jp/01/index.php?action_kouhyou_detail_004_kani=true&JigyosyoCd=0170511695-00&ServiceCd=410&Type=search" }, "geometry": { "type": "Point", "coordinates": [ 141.414980823695345, 43.049290354807091 ] } },
{ "type": "Feature", "properties": { "内容": "チーム．さっぽろ【特定福祉用具販売】北海道札幌市白石区中央２条２丁目１－４４２Ｆ", "url2": "https://www.kaigokensaku.mhlw.go.jp/01/index.php?action_kouhyou_detail_004_kani=true&JigyosyoCd=0170515753-00&ServiceCd=410&Type=search" }, "geometry": { "type": "Point", "coordinates": [ 141.394435695106466, 43.057585056872071 ] } },
{ "type": "Feature", "properties": { "内容": "はるのひ【特定福祉用具販売】東米里2189-80", "url2": "https://www.kaigokensaku.mhlw.go.jp/01/index.php?action_kouhyou_detail_004_kani=true&JigyosyoCd=0170515514-00&ServiceCd=410&Type=search" }, "geometry": { "type": "Point", "coordinates": [ 141.437477699999988, 43.0860851 ] } },
{ "type": "Feature", "properties": { "内容": "ダスキンヘルスレント札幌東ステーション【特定福祉用具販売】北海道札幌市白石区栄通11丁目3-18", "url2": "https://www.kaigokensaku.mhlw.go.jp/01/index.php?action_kouhyou_detail_004_kani=true&JigyosyoCd=0170510630-00&ServiceCd=410&Type=search" }, "geometry": { "type": "Point", "coordinates": [ 141.416663223942578, 43.034349001714162 ] } },
{ "type": "Feature", "properties": { "内容": "株式会社ノアコンツェル【特定福祉用具販売】札幌市豊平区平岸７条１４丁目1-32", "url2": "https://www.kaigokensaku.mhlw.go.jp/01/index.php?action_kouhyou_detail_004_kani=true&JigyosyoCd=0170501449-00&ServiceCd=410&Type=search" }, "geometry": { "type": "Point", "coordinates": [ 141.381749101683795, 43.023964005668432 ] } },
{ "type": "Feature", "properties": { "内容": "アクテック株式会社【特定福祉用具販売】北海道札幌市豊平区美園2条3丁目2-25", "url2": "https://www.kaigokensaku.mhlw.go.jp/01/index.php?action_kouhyou_detail_004_kani=true&JigyosyoCd=0170508741-00&ServiceCd=410&Type=search" }, "geometry": { "type": "Point", "coordinates": [ 141.385749799999985, 43.043526 ] } },
{ "type": "Feature", "properties": { "内容": "株式会社マルベリー　さわやかセンター札幌豊平【特定福祉用具販売】北海道札幌市豊平区福住2条10丁目18番1号", "url2": "https://www.kaigokensaku.mhlw.go.jp/01/index.php?action_kouhyou_detail_004_kani=true&JigyosyoCd=0170511414-00&ServiceCd=410&Type=search" }, "geometry": { "type": "Point", "coordinates": [ 141.391470900000058, 43.0033363 ] } },
{ "type": "Feature", "properties": { "内容": "株式会社サンメディック札幌店【特定福祉用具販売】札幌市豊平区月寒東３条８丁目１番５号", "url2": "https://www.kaigokensaku.mhlw.go.jp/01/index.php?action_kouhyou_detail_004_kani=true&JigyosyoCd=0170507016-00&ServiceCd=410&Type=search" }, "geometry": { "type": "Point", "coordinates": [ 141.404751300000044, 43.0325138 ] } },
{ "type": "Feature", "properties": { "内容": "ＤＣＭ西岡店【特定福祉用具販売】北海道札幌市豊平区西岡1条8丁目8-1", "url2": "https://www.kaigokensaku.mhlw.go.jp/01/index.php?action_kouhyou_detail_004_kani=true&JigyosyoCd=0170514533-00&ServiceCd=410&Type=search" }, "geometry": { "type": "Point", "coordinates": [ 141.3794164, 43.0095099 ] } },
{ "type": "Feature", "properties": { "内容": "株式会社ヘルスケアコープ【特定福祉用具販売】札幌市豊平区月寒中央通7丁目6番20号JA月寒中央ビル6階", "url2": "https://www.kaigokensaku.mhlw.go.jp/01/index.php?action_kouhyou_detail_004_kani=true&JigyosyoCd=0170515126-00&ServiceCd=410&Type=search" }, "geometry": { "type": "Point", "coordinates": [ 141.397140900000011, 43.030375 ] } },
{ "type": "Feature", "properties": { "内容": "ブリステージ福祉用具貸与事業所【特定福祉用具販売】北海道札幌市豊平区平岸4条9丁目2-19", "url2": "https://www.kaigokensaku.mhlw.go.jp/01/index.php?action_kouhyou_detail_004_kani=true&JigyosyoCd=0170513717-00&ServiceCd=410&Type=search" }, "geometry": { "type": "Point", "coordinates": [ 141.374122099999965, 43.0326588 ] } },
{ "type": "Feature", "properties": { "内容": "福祉用具笑楽札幌【特定福祉用具販売】北海道札幌市南区石山東７丁目1-10", "url2": "https://www.kaigokensaku.mhlw.go.jp/01/index.php?action_kouhyou_detail_004_kani=true&JigyosyoCd=0170515001-00&ServiceCd=410&Type=search" }, "geometry": { "type": "Point", "coordinates": [ 141.3434758, 42.9549671 ] } },
{ "type": "Feature", "properties": { "内容": "福祉用具の福太郎【特定福祉用具販売】北海道札幌市西区二十四軒３条５丁目４－２０ＴＫグレース", "url2": "https://www.kaigokensaku.mhlw.go.jp/01/index.php?action_kouhyou_detail_004_kani=true&JigyosyoCd=0170404545-00&ServiceCd=410&Type=search" }, "geometry": { "type": "Point", "coordinates": [ 141.309041, 43.0708403 ] } },
{ "type": "Feature", "properties": { "内容": "エア・ウォーター・ライフショリューション株式会社　札幌営業所【特定福祉用具販売】北海道札幌市西区発寒17条13丁目1番70号", "url2": "https://www.kaigokensaku.mhlw.go.jp/01/index.php?action_kouhyou_detail_004_kani=true&JigyosyoCd=0170105787-00&ServiceCd=410&Type=search" }, "geometry": { "type": "Point", "coordinates": [ 141.2909532, 43.110992 ] } },
{ "type": "Feature", "properties": { "内容": "株式会社　特殊衣料【特定福祉用具販売】北海道札幌市西区発寒１４条１４丁目２番４０号", "url2": "https://www.kaigokensaku.mhlw.go.jp/01/index.php?action_kouhyou_detail_004_kani=true&JigyosyoCd=0170400584-00&ServiceCd=410&Type=search" }, "geometry": { "type": "Point", "coordinates": [ 141.280091299999981, 43.1095179 ] } },
{ "type": "Feature", "properties": { "内容": "福祉用具レンタル販売事業所　アクア【特定福祉用具販売】北海道札幌市西区八軒１０条東4丁目2-18アクア八軒東ビル", "url2": "https://www.kaigokensaku.mhlw.go.jp/01/index.php?action_kouhyou_detail_004_kani=true&JigyosyoCd=0170404438-00&ServiceCd=410&Type=search" }, "geometry": { "type": "Point", "coordinates": [ 141.325824631561346, 43.087265680247455 ] } },
{ "type": "Feature", "properties": { "内容": "MOE福祉用具サポートセンター【特定福祉用具販売】北海道札幌市西区山の手1条1丁目3番地MOEBldg", "url2": "https://www.kaigokensaku.mhlw.go.jp/01/index.php?action_kouhyou_detail_004_kani=true&JigyosyoCd=0170406326-00&ServiceCd=410&Type=search" }, "geometry": { "type": "Point", "coordinates": [ 141.304537299999964, 43.0694802 ] } },
{ "type": "Feature", "properties": { "内容": "ご近助デイズ札幌【特定福祉用具販売】北海道札幌市西区発寒六条９丁目１番１０号　２階ペルル宮の沢ビル", "url2": "https://www.kaigokensaku.mhlw.go.jp/01/index.php?action_kouhyou_detail_004_kani=true&JigyosyoCd=0170406243-00&ServiceCd=410&Type=search" }, "geometry": { "type": "Point", "coordinates": [ 141.279092, 43.0882886 ] } },
{ "type": "Feature", "properties": { "内容": "ao福祉用具貸与事業所【特定福祉用具販売】北海道札幌市西区西野八条4丁目3番20号", "url2": "https://www.kaigokensaku.mhlw.go.jp/01/index.php?action_kouhyou_detail_004_kani=true&JigyosyoCd=0170406334-00&ServiceCd=410&Type=search" }, "geometry": { "type": "Point", "coordinates": [ 141.271751200000011, 43.063503 ] } },
{ "type": "Feature", "properties": { "内容": "ＤＣＭ発寒追分通店【特定福祉用具販売】札幌市西区発寒9条14丁目516番地210", "url2": "https://www.kaigokensaku.mhlw.go.jp/01/index.php?action_kouhyou_detail_004_kani=true&JigyosyoCd=0170405526-00&ServiceCd=410&Type=search" }, "geometry": { "type": "Point", "coordinates": [ 141.2710712, 43.1021032 ] } },
{ "type": "Feature", "properties": { "内容": "株式会社輝　かがやきエイド【特定福祉用具販売】北海道札幌市西区八軒6条9丁目1番37号", "url2": "https://www.kaigokensaku.mhlw.go.jp/01/index.php?action_kouhyou_detail_004_kani=true&JigyosyoCd=0170406359-00&ServiceCd=410&Type=search" }, "geometry": { "type": "Point", "coordinates": [ 141.3042787, 43.0948315 ] } },
{ "type": "Feature", "properties": { "内容": "ニック株式会社札幌営業所【特定福祉用具販売】北海道札幌市西区西野３条９丁目１０番４０号", "url2": "https://www.kaigokensaku.mhlw.go.jp/01/index.php?action_kouhyou_detail_004_kani=true&JigyosyoCd=0170200174-00&ServiceCd=410&Type=search" }, "geometry": { "type": "Point", "coordinates": [ 141.270090699999969, 43.0812319 ] } },
{ "type": "Feature", "properties": { "内容": "有限会社　優コーポレーション【特定福祉用具販売】北海道札幌市厚別区厚別西3条1丁目1番35号", "url2": "https://www.kaigokensaku.mhlw.go.jp/01/index.php?action_kouhyou_detail_004_kani=true&JigyosyoCd=0170511554-00&ServiceCd=410&Type=search" }, "geometry": { "type": "Point", "coordinates": [ 141.454107099999987, 43.0472311 ] } },
{ "type": "Feature", "properties": { "内容": "ハーティK【特定福祉用具販売】北海道札幌市厚別区厚別西5条１丁目１０－５", "url2": "https://www.kaigokensaku.mhlw.go.jp/01/index.php?action_kouhyou_detail_004_kani=true&JigyosyoCd=0170512875-00&ServiceCd=410&Type=search" }, "geometry": { "type": "Point", "coordinates": [ 141.4527986, 43.0527646 ] } },
{ "type": "Feature", "properties": { "内容": "弁慶さっぽろ【特定福祉用具販売】札幌市厚別区大谷地西５丁目２－５パスウェイ６７７弐番館", "url2": "https://www.kaigokensaku.mhlw.go.jp/01/index.php?action_kouhyou_detail_004_kani=true&JigyosyoCd=0170504880-00&ServiceCd=410&Type=search" }, "geometry": { "type": "Point", "coordinates": [ 141.454058588252252, 43.019172795540037 ] } },
{ "type": "Feature", "properties": { "内容": "ムラタ【特定福祉用具販売】青葉町9丁目2番7号", "url2": "https://www.kaigokensaku.mhlw.go.jp/01/index.php?action_kouhyou_detail_004_kani=true&JigyosyoCd=0170515555-00&ServiceCd=410&Type=search" }, "geometry": { "type": "Point", "coordinates": [ 141.4783983, 43.0252118 ] } },
{ "type": "Feature", "properties": { "内容": "花福【特定福祉用具販売】北海道札幌市厚別区厚別中央３条６丁目３番１０号", "url2": "https://www.kaigokensaku.mhlw.go.jp/01/index.php?action_kouhyou_detail_004_kani=true&JigyosyoCd=0170512255-00&ServiceCd=410&Type=search" }, "geometry": { "type": "Point", "coordinates": [ 141.473050199999989, 43.0440317 ] } },
{ "type": "Feature", "properties": { "内容": "札幌福祉医療器株式会社【特定福祉用具販売】北海道札幌市厚別区もみじ台南6丁目1-5", "url2": "https://www.kaigokensaku.mhlw.go.jp/01/index.php?action_kouhyou_detail_004_kani=true&JigyosyoCd=0170500409-00&ServiceCd=410&Type=search" }, "geometry": { "type": "Point", "coordinates": [ 141.500954200000024, 43.0250039 ] } },
{ "type": "Feature", "properties": { "内容": "DCM厚別東店【特定福祉用具販売】北海道札幌市厚別区厚別東5条1丁目2－10", "url2": "https://www.kaigokensaku.mhlw.go.jp/01/index.php?action_kouhyou_detail_004_kani=true&JigyosyoCd=0170514541-00&ServiceCd=410&Type=search" }, "geometry": { "type": "Point", "coordinates": [ 141.4755146, 43.0459167 ] } },
{ "type": "Feature", "properties": { "内容": "ニック株式会社　札幌東営業所【特定福祉用具販売】北海道札幌市厚別区大谷地東2-3-30松下ビル1階", "url2": "https://www.kaigokensaku.mhlw.go.jp/01/index.php?action_kouhyou_detail_004_kani=true&JigyosyoCd=0170515548-00&ServiceCd=410&Type=search" }, "geometry": { "type": "Point", "coordinates": [ 141.4525815, 43.0295187 ] } },
{ "type": "Feature", "properties": { "内容": "株式会社　土屋ホームトピア　福祉用具貸与・販売事業所「RAKUKAI」【特定福祉用具販売】北海道札幌市厚別区厚別南1丁目18-1", "url2": "https://www.kaigokensaku.mhlw.go.jp/01/index.php?action_kouhyou_detail_004_kani=true&JigyosyoCd=0170513139-00&ServiceCd=410&Type=search" }, "geometry": { "type": "Point", "coordinates": [ 141.464324, 43.0277 ] } },
{ "type": "Feature", "properties": { "内容": "株式会社フロンティア札幌営業所【特定福祉用具販売】北海道札幌市手稲区曙2条4丁目3-62", "url2": "https://www.kaigokensaku.mhlw.go.jp/01/index.php?action_kouhyou_detail_004_kani=true&JigyosyoCd=0170403521-00&ServiceCd=410&Type=search" }, "geometry": { "type": "Point", "coordinates": [ 141.227224400000068, 43.1314004 ] } },
{ "type": "Feature", "properties": { "内容": "福祉用具家コノイエ札幌【特定福祉用具販売】札幌市手稲区前田1条12丁目2-48VillaClasse手稲北口202", "url2": "https://www.kaigokensaku.mhlw.go.jp/01/index.php?action_kouhyou_detail_004_kani=true&JigyosyoCd=0170405641-00&ServiceCd=410&Type=search" }, "geometry": { "type": "Point", "coordinates": [ 141.2453257, 43.1223658 ] } },
{ "type": "Feature", "properties": { "内容": "パナソニックエイジフリーショップ札幌北野【特定福祉用具販売】北海道札幌市清田区北野3条2丁目13番65号", "url2": "https://www.kaigokensaku.mhlw.go.jp/01/index.php?action_kouhyou_detail_004_kani=true&JigyosyoCd=0170516009-00&ServiceCd=410&Type=search" }, "geometry": { "type": "Point", "coordinates": [ 141.4343711, 43.012094 ] } },
{ "type": "Feature", "properties": { "内容": "ケアセンターがじゅまる札幌【特定福祉用具販売】札幌市清田区北野4条5丁目4－25アクアトピア北野　202号室", "url2": "https://www.kaigokensaku.mhlw.go.jp/01/index.php?action_kouhyou_detail_004_kani=true&JigyosyoCd=0170516041-00&ServiceCd=410&Type=search" }, "geometry": { "type": "Point", "coordinates": [ 141.447254500000014, 43.0128138 ] } },
{ "type": "Feature", "properties": { "内容": "ダスキンヘルスレント札幌南ステーション【特定福祉用具販売】北海道札幌市清田区平岡５条１丁目１－７", "url2": "https://www.kaigokensaku.mhlw.go.jp/01/index.php?action_kouhyou_detail_004_kani=true&JigyosyoCd=0170501688-00&ServiceCd=410&Type=search" }, "geometry": { "type": "Point", "coordinates": [ 141.448323800000026, 43.009293 ] } },
{ "type": "Feature", "properties": { "内容": "株式会社フロンティア　札幌東営業所【特定福祉用具販売】北海道札幌市清田区平岡7条3丁目18-10", "url2": "https://www.kaigokensaku.mhlw.go.jp/01/index.php?action_kouhyou_detail_004_kani=true&JigyosyoCd=0170515480-00&ServiceCd=410&Type=search" }, "geometry": { "type": "Point", "coordinates": [ 141.4573935, 43.0104831 ] } },
{ "type": "Feature", "properties": { "内容": "株式会社　村山防災設備【特定福祉用具販売】函館市　湯川町1丁目１２番１９号", "url2": "https://www.kaigokensaku.mhlw.go.jp/01/index.php?action_kouhyou_detail_004_kani=true&JigyosyoCd=0171402738-00&ServiceCd=410&Type=search" }, "geometry": { "type": "Point", "coordinates": [ 140.781659600000012, 41.7770219 ] } },
{ "type": "Feature", "properties": { "内容": "テーオー・ケアサービス【特定福祉用具販売】函館市北浜町５番１０号", "url2": "https://www.kaigokensaku.mhlw.go.jp/01/index.php?action_kouhyou_detail_004_kani=true&JigyosyoCd=0171401169-00&ServiceCd=410&Type=search" }, "geometry": { "type": "Point", "coordinates": [ 140.727453936245723, 41.797021452885282 ] } },
{ "type": "Feature", "properties": { "内容": "福祉用具フェイバリット【特定福祉用具販売】北海道函館市杉並町12番12号", "url2": "https://www.kaigokensaku.mhlw.go.jp/01/index.php?action_kouhyou_detail_004_kani=true&JigyosyoCd=0171404858-00&ServiceCd=410&Type=search" }, "geometry": { "type": "Point", "coordinates": [ 140.755441100000013, 41.7915333 ] } },
{ "type": "Feature", "properties": { "内容": "介護用品のぱれっと【特定福祉用具販売】北海道函館市宮前町３番６号", "url2": "https://www.kaigokensaku.mhlw.go.jp/01/index.php?action_kouhyou_detail_004_kani=true&JigyosyoCd=0171401466-00&ServiceCd=410&Type=search" }, "geometry": { "type": "Point", "coordinates": [ 140.73964507937626, 41.788158068428046 ] } },
{ "type": "Feature", "properties": { "内容": "テーオーケアサービス【特定福祉用具販売】北海道函館市北浜町５番１０号", "url2": "https://www.kaigokensaku.mhlw.go.jp/01/index.php?action_kouhyou_detail_004_kani=true&JigyosyoCd=0171404296-00&ServiceCd=410&Type=search" }, "geometry": { "type": "Point", "coordinates": [ 140.727481733065787, 41.797051496734696 ] } },
{ "type": "Feature", "properties": { "内容": "クレア福祉用具【特定福祉用具販売】北海道函館市北美原１丁目１０番１５", "url2": "https://www.kaigokensaku.mhlw.go.jp/01/index.php?action_kouhyou_detail_004_kani=true&JigyosyoCd=0171403900-00&ServiceCd=410&Type=search" }, "geometry": { "type": "Point", "coordinates": [ 140.7478011, 41.8265071 ] } },
{ "type": "Feature", "properties": { "内容": "福祉用具販売事業所つくし【特定福祉用具販売】函館市豊川町1番5号", "url2": "https://www.kaigokensaku.mhlw.go.jp/01/index.php?action_kouhyou_detail_004_kani=true&JigyosyoCd=0171401318-00&ServiceCd=410&Type=search" }, "geometry": { "type": "Point", "coordinates": [ 140.720050724536918, 41.763573191419503 ] } },
{ "type": "Feature", "properties": { "内容": "福祉用具ハートＴｏハート【特定福祉用具販売】北海道函館市北浜町5番10号", "url2": "https://www.kaigokensaku.mhlw.go.jp/01/index.php?action_kouhyou_detail_004_kani=true&JigyosyoCd=0171405582-00&ServiceCd=410&Type=search" }, "geometry": { "type": "Point", "coordinates": [ 140.7274722, 41.7970254 ] } },
{ "type": "Feature", "properties": { "内容": "福祉用具翔和【特定福祉用具販売】北海道函館市昭和町２２番地６１", "url2": "https://www.kaigokensaku.mhlw.go.jp/01/index.php?action_kouhyou_detail_004_kani=true&JigyosyoCd=0171405533-00&ServiceCd=410&Type=search" }, "geometry": { "type": "Point", "coordinates": [ 140.726852900000011, 41.8127789 ] } },
{ "type": "Feature", "properties": { "内容": "キャレックス【特定福祉用具販売】北海道函館市金堀町８番２０号", "url2": "https://www.kaigokensaku.mhlw.go.jp/01/index.php?action_kouhyou_detail_004_kani=true&JigyosyoCd=0171405392-00&ServiceCd=410&Type=search" }, "geometry": { "type": "Point", "coordinates": [ 140.7625415, 41.7743139 ] } },
{ "type": "Feature", "properties": { "内容": "ＤＣＭ石川店【特定福祉用具販売】北海道函館市石川町232番42", "url2": "https://www.kaigokensaku.mhlw.go.jp/01/index.php?action_kouhyou_detail_004_kani=true&JigyosyoCd=0171404999-00&ServiceCd=410&Type=search" }, "geometry": { "type": "Point", "coordinates": [ 140.737593491015616, 41.843070740911806 ] } },
{ "type": "Feature", "properties": { "内容": "北海道難病連　函館営業所【特定福祉用具販売】北海道函館市北浜町５番２３号", "url2": "https://www.kaigokensaku.mhlw.go.jp/01/index.php?action_kouhyou_detail_004_kani=true&JigyosyoCd=0171400302-00&ServiceCd=410&Type=search" }, "geometry": { "type": "Point", "coordinates": [ 140.728112099999947, 41.797799 ] } },
{ "type": "Feature", "properties": { "内容": "ダスキンヘルスレント函館ステーション【特定福祉用具販売】北海道函館市石川町180-4", "url2": "https://www.kaigokensaku.mhlw.go.jp/01/index.php?action_kouhyou_detail_004_kani=true&JigyosyoCd=0171404650-00&ServiceCd=410&Type=search" }, "geometry": { "type": "Point", "coordinates": [ 140.7377095, 41.8375064 ] } },
{ "type": "Feature", "properties": { "内容": "あんどワン（＆one）福祉用具事業所【特定福祉用具販売】北海道函館市桔梗町426番地20", "url2": "https://www.kaigokensaku.mhlw.go.jp/01/index.php?action_kouhyou_detail_004_kani=true&JigyosyoCd=0171403132-00&ServiceCd=410&Type=search" }, "geometry": { "type": "Point", "coordinates": [ 142.13435, 42.5857171 ] } },
{ "type": "Feature", "properties": { "内容": "株式会社シルバーリング【特定福祉用具販売】北海道函館市冨岡町３丁目３０－１６", "url2": "https://www.kaigokensaku.mhlw.go.jp/01/index.php?action_kouhyou_detail_004_kani=true&JigyosyoCd=0171402753-00&ServiceCd=410&Type=search" }, "geometry": { "type": "Point", "coordinates": [ 140.750457273016309, 41.81288201415957 ] } },
{ "type": "Feature", "properties": { "内容": "介護用品レンタルここわ【特定福祉用具販売】北海道函館市富岡町1丁目21番14号", "url2": "https://www.kaigokensaku.mhlw.go.jp/01/index.php?action_kouhyou_detail_004_kani=true&JigyosyoCd=0171403983-00&ServiceCd=410&Type=search" }, "geometry": { "type": "Point", "coordinates": [ 140.742396646038543, 41.804896333835615 ] } },
{ "type": "Feature", "properties": { "内容": "株式会社ひより屋【特定福祉用具販売】北海道函館市千歳町１１番６号", "url2": "https://www.kaigokensaku.mhlw.go.jp/01/index.php?action_kouhyou_detail_004_kani=true&JigyosyoCd=0171402415-00&ServiceCd=410&Type=search" }, "geometry": { "type": "Point", "coordinates": [ 140.736848309717516, 41.774466024027376 ] } },
{ "type": "Feature", "properties": { "内容": "株式会社フロンティア函館営業所【特定福祉用具販売】函館市石川町317-6", "url2": "https://www.kaigokensaku.mhlw.go.jp/01/index.php?action_kouhyou_detail_004_kani=true&JigyosyoCd=0171403298-00&ServiceCd=410&Type=search" }, "geometry": { "type": "Point", "coordinates": [ 140.742101400000024, 41.824265800000013 ] } },
{ "type": "Feature", "properties": { "内容": "株式会社ポラリス【特定福祉用具販売】北海道函館市大川町15番22号", "url2": "https://www.kaigokensaku.mhlw.go.jp/01/index.php?action_kouhyou_detail_004_kani=true&JigyosyoCd=0171403256-00&ServiceCd=410&Type=search" }, "geometry": { "type": "Point", "coordinates": [ 140.737534576585404, 41.80026215445897 ] } },
{ "type": "Feature", "properties": { "内容": "株式会社マルベリーさわやかセンター函館【特定福祉用具販売】北海道函館市昭和3丁目35-28", "url2": "https://www.kaigokensaku.mhlw.go.jp/01/index.php?action_kouhyou_detail_004_kani=true&JigyosyoCd=0171402118-00&ServiceCd=410&Type=search" }, "geometry": { "type": "Point", "coordinates": [ 140.734801647204563, 41.824925018660878 ] } },
{ "type": "Feature", "properties": { "内容": "福祉用具販売貸与事業所　フルールハピネスはこだて【特定福祉用具販売】函館市谷地頭町8番27号", "url2": "https://www.kaigokensaku.mhlw.go.jp/01/index.php?action_kouhyou_detail_004_kani=true&JigyosyoCd=0171402282-00&ServiceCd=410&Type=search" }, "geometry": { "type": "Point", "coordinates": [ 140.712118, 41.7529281 ] } },
{ "type": "Feature", "properties": { "内容": "福祉用具販売事業所　クオリティーライズ【特定福祉用具販売】北海道函館市日吉町2丁目27番19号", "url2": "https://www.kaigokensaku.mhlw.go.jp/01/index.php?action_kouhyou_detail_004_kani=true&JigyosyoCd=0171403538-00&ServiceCd=410&Type=search" }, "geometry": { "type": "Point", "coordinates": [ 140.79061937866291, 41.797349854062205 ] } },
{ "type": "Feature", "properties": { "内容": "福祉用具貸与事業所アニー【特定福祉用具販売】北海道函館市中道２丁目１８番１号マンションAI　103号室", "url2": "https://www.kaigokensaku.mhlw.go.jp/01/index.php?action_kouhyou_detail_004_kani=true&JigyosyoCd=0171404445-00&ServiceCd=410&Type=search" }, "geometry": { "type": "Point", "coordinates": [ 140.7628952, 41.8084572 ] } },
{ "type": "Feature", "properties": { "内容": "有限会社　ナースショップふれ愛中島店【特定福祉用具販売】函館市中島町38～1あけぼのマンション1F", "url2": "https://www.kaigokensaku.mhlw.go.jp/01/index.php?action_kouhyou_detail_004_kani=true&JigyosyoCd=0171400328-00&ServiceCd=410&Type=search" }, "geometry": { "type": "Point", "coordinates": [ 140.74308080000003, 41.7875225 ] } },
{ "type": "Feature", "properties": { "内容": "有限会社北海道アピオス【特定福祉用具販売】北海道函館市西桔梗町835番地45", "url2": "https://www.kaigokensaku.mhlw.go.jp/01/index.php?action_kouhyou_detail_004_kani=true&JigyosyoCd=0171400187-00&ServiceCd=410&Type=search" }, "geometry": { "type": "Point", "coordinates": [ 140.723794399999946, 41.8243374 ] } },
{ "type": "Feature", "properties": { "内容": "エア・ウォーター・ライフソリューション株式会社　函館営業所【特定福祉用具販売】北海道函館市西桔梗町589番地45", "url2": "https://www.kaigokensaku.mhlw.go.jp/01/index.php?action_kouhyou_detail_004_kani=true&JigyosyoCd=0171405558-00&ServiceCd=410&Type=search" }, "geometry": { "type": "Point", "coordinates": [ 140.72278510000001, 41.828872 ] } },
{ "type": "Feature", "properties": { "内容": "株式会社ムトウ小樽支店【特定福祉用具販売】北海道小樽市港町4番3号", "url2": "https://www.kaigokensaku.mhlw.go.jp/01/index.php?action_kouhyou_detail_004_kani=true&JigyosyoCd=0172002446-00&ServiceCd=410&Type=search" }, "geometry": { "type": "Point", "coordinates": [ 141.001713600000016, 43.2004636 ] } },
{ "type": "Feature", "properties": { "内容": "株式会社道央ケアセンター【特定福祉用具販売】北海道小樽市稲穂2丁目13番1号道央ケアセンタービル4階", "url2": "https://www.kaigokensaku.mhlw.go.jp/01/index.php?action_kouhyou_detail_004_kani=true&JigyosyoCd=0172000226-00&ServiceCd=410&Type=search" }, "geometry": { "type": "Point", "coordinates": [ 140.996406, 43.1969862 ] } },
{ "type": "Feature", "properties": { "内容": "（株）ｴﾝﾊﾟｲｱｰﾎｰﾑﾍﾙｽｹｱ事業部小樽営業所【特定福祉用具販売】天神1丁目17-25", "url2": "https://www.kaigokensaku.mhlw.go.jp/01/index.php?action_kouhyou_detail_004_kani=true&JigyosyoCd=0172002859-00&ServiceCd=410&Type=search" }, "geometry": { "type": "Point", "coordinates": [ 130.399409, 33.5916163 ] } },
{ "type": "Feature", "properties": { "内容": "パナソニックエイジフリーショップおたる【特定福祉用具販売】北海道小樽市花園１丁目4番1号", "url2": "https://www.kaigokensaku.mhlw.go.jp/01/index.php?action_kouhyou_detail_004_kani=true&JigyosyoCd=0172002404-00&ServiceCd=410&Type=search" }, "geometry": { "type": "Point", "coordinates": [ 140.999080899999967, 43.1940087 ] } },
{ "type": "Feature", "properties": { "内容": "サンスイA&S福祉用具貸与事業所【特定福祉用具販売】北海道小樽市銭函3丁目511-11", "url2": "https://www.kaigokensaku.mhlw.go.jp/01/index.php?action_kouhyou_detail_004_kani=true&JigyosyoCd=0172002651-00&ServiceCd=410&Type=search" }, "geometry": { "type": "Point", "coordinates": [ 141.185049099999986, 43.1423299 ] } },
{ "type": "Feature", "properties": { "内容": "うぇるサプライ小樽営業所【特定福祉用具販売】小樽市長橋4丁目4番7号", "url2": "https://www.kaigokensaku.mhlw.go.jp/01/index.php?action_kouhyou_detail_004_kani=true&JigyosyoCd=0172001430-00&ServiceCd=410&Type=search" }, "geometry": { "type": "Point", "coordinates": [ 140.974770499999977, 43.2095928 ] } },
{ "type": "Feature", "properties": { "内容": "ドラックストアーさとう福祉用具貸与事業所　小樽店【特定福祉用具販売】北海道小樽市花園4丁目18番1号", "url2": "https://www.kaigokensaku.mhlw.go.jp/01/index.php?action_kouhyou_detail_004_kani=true&JigyosyoCd=0172001752-00&ServiceCd=410&Type=search" }, "geometry": { "type": "Point", "coordinates": [ 140.997428721220246, 43.18963772453445 ] } },
{ "type": "Feature", "properties": { "内容": "福祉用具貸与事業所絆【特定福祉用具販売】北海道旭川市永山3条24丁目2-2", "url2": "https://www.kaigokensaku.mhlw.go.jp/01/index.php?action_kouhyou_detail_004_kani=true&JigyosyoCd=0172905978-00&ServiceCd=410&Type=search" }, "geometry": { "type": "Point", "coordinates": [ 142.447716200000059, 43.8175837 ] } },
{ "type": "Feature", "properties": { "内容": "旭川福祉レンタルセンター【特定福祉用具販売】旭川市春光台5条2丁目14-7", "url2": "https://www.kaigokensaku.mhlw.go.jp/01/index.php?action_kouhyou_detail_004_kani=true&JigyosyoCd=0172900714-00&ServiceCd=410&Type=search" }, "geometry": { "type": "Point", "coordinates": [ 142.346284100000048, 43.8203321 ] } },
{ "type": "Feature", "properties": { "内容": "福祉用具オールライト【特定福祉用具販売】北海道旭川市10条通19丁目1-1", "url2": "https://www.kaigokensaku.mhlw.go.jp/01/index.php?action_kouhyou_detail_004_kani=true&JigyosyoCd=0172907859-00&ServiceCd=410&Type=search" }, "geometry": { "type": "Point", "coordinates": [ 142.3811593, 43.7698085 ] } },
{ "type": "Feature", "properties": { "内容": "介護用品のさんた【特定福祉用具販売】北海度旭川市神楽岡5条6丁目4-22旭祥ハイツ１階１号室", "url2": "https://www.kaigokensaku.mhlw.go.jp/01/index.php?action_kouhyou_detail_004_kani=true&JigyosyoCd=0172908410-00&ServiceCd=410&Type=search" }, "geometry": { "type": "Point", "coordinates": [ 142.3736843, 43.7401722 ] } },
{ "type": "Feature", "properties": { "内容": "エア・ウォーター・ライフソリューション株式会社　旭川営業所【特定福祉用具販売】北海道旭川市豊岡5条4丁目1番1号", "url2": "https://www.kaigokensaku.mhlw.go.jp/01/index.php?action_kouhyou_detail_004_kani=true&JigyosyoCd=0172908634-00&ServiceCd=410&Type=search" }, "geometry": { "type": "Point", "coordinates": [ 142.4002807, 43.7611138 ] } },
{ "type": "Feature", "properties": { "内容": "株式会社マルベリーさわやかセンター旭川【特定福祉用具販売】旭川市永山4条8丁目1－32", "url2": "https://www.kaigokensaku.mhlw.go.jp/01/index.php?action_kouhyou_detail_004_kani=true&JigyosyoCd=0172903023-00&ServiceCd=410&Type=search" }, "geometry": { "type": "Point", "coordinates": [ 142.4119432, 43.7942683 ] } },
{ "type": "Feature", "properties": { "内容": "株式会社旭川健生舎【特定福祉用具販売】旭川市1条通11丁目右8号", "url2": "https://www.kaigokensaku.mhlw.go.jp/01/index.php?action_kouhyou_detail_004_kani=true&JigyosyoCd=0172900615-00&ServiceCd=410&Type=search" }, "geometry": { "type": "Point", "coordinates": [ 142.3646526, 43.7637668 ] } },
{ "type": "Feature", "properties": { "内容": "株式会社　厚友会【特定福祉用具販売】旭川市５条通２丁目１６７７番地７", "url2": "https://www.kaigokensaku.mhlw.go.jp/01/index.php?action_kouhyou_detail_004_kani=true&JigyosyoCd=0172900219-00&ServiceCd=410&Type=search" }, "geometry": { "type": "Point", "coordinates": [ 142.353061900000057, 43.7722849 ] } },
{ "type": "Feature", "properties": { "内容": "有限会社　セラ・サービス【特定福祉用具販売】旭川市永山11条2丁目2-12", "url2": "https://www.kaigokensaku.mhlw.go.jp/01/index.php?action_kouhyou_detail_004_kani=true&JigyosyoCd=0172901159-00&ServiceCd=410&Type=search" }, "geometry": { "type": "Point", "coordinates": [ 142.409145769415119, 43.779666136842451 ] } },
{ "type": "Feature", "properties": { "内容": "有限会社ワーク【特定福祉用具販売】北海道旭川市永山２条２丁目５番６号", "url2": "https://www.kaigokensaku.mhlw.go.jp/01/index.php?action_kouhyou_detail_004_kani=true&JigyosyoCd=0172901845-00&ServiceCd=410&Type=search" }, "geometry": { "type": "Point", "coordinates": [ 142.397892299999967, 43.7892016 ] } },
{ "type": "Feature", "properties": { "内容": "DCM宮前店【特定福祉用具販売】北海道旭川市南7条通19丁目2182番地の83", "url2": "https://www.kaigokensaku.mhlw.go.jp/01/index.php?action_kouhyou_detail_004_kani=true&JigyosyoCd=0172908022-00&ServiceCd=410&Type=search" }, "geometry": { "type": "Point", "coordinates": [ 142.3720743, 43.7518795 ] } },
{ "type": "Feature", "properties": { "内容": "ＳＯＭＰＯケア旭川福祉用具【特定福祉用具販売】北海道旭川市宮下通13丁目1200-2", "url2": "https://www.kaigokensaku.mhlw.go.jp/01/index.php?action_kouhyou_detail_004_kani=true&JigyosyoCd=0172907305-00&ServiceCd=410&Type=search" }, "geometry": { "type": "Point", "coordinates": [ 142.366882539172508, 43.762314957056155 ] } },
{ "type": "Feature", "properties": { "内容": "ダスキンヘルスレント旭川ステーション【特定福祉用具販売】北海道旭川市東光１条３丁目１-７", "url2": "https://www.kaigokensaku.mhlw.go.jp/01/index.php?action_kouhyou_detail_004_kani=true&JigyosyoCd=0172903627-00&ServiceCd=410&Type=search" }, "geometry": { "type": "Point", "coordinates": [ 142.396449399999938, 43.7553079 ] } },
{ "type": "Feature", "properties": { "内容": "介護用品販売あるく【特定福祉用具販売】北海道旭川市末広東２条４丁目１番１５号デイサービスあるく末広東内", "url2": "https://www.kaigokensaku.mhlw.go.jp/01/index.php?action_kouhyou_detail_004_kani=true&JigyosyoCd=0172907230-00&ServiceCd=410&Type=search" }, "geometry": { "type": "Point", "coordinates": [ 142.390840976280629, 43.802610080912842 ] } },
{ "type": "Feature", "properties": { "内容": "介護ショップハート【特定福祉用具販売】旭川市東光１条１丁目２番８号一条ケアセンター１Ｆ", "url2": "https://www.kaigokensaku.mhlw.go.jp/01/index.php?action_kouhyou_detail_004_kani=true&JigyosyoCd=0172904864-00&ServiceCd=410&Type=search" }, "geometry": { "type": "Point", "coordinates": [ 142.390128742327875, 43.755802026570144 ] } },
{ "type": "Feature", "properties": { "内容": "株式会社ニッタ【特定福祉用具販売】北海道旭川市豊岡９条２丁目２番６号", "url2": "https://www.kaigokensaku.mhlw.go.jp/01/index.php?action_kouhyou_detail_004_kani=true&JigyosyoCd=0172905770-00&ServiceCd=410&Type=search" }, "geometry": { "type": "Point", "coordinates": [ 142.393098844306337, 43.76782997305596 ] } },
{ "type": "Feature", "properties": { "内容": "株式会社ハピネス　介護ショップ元気サポート【特定福祉用具販売】北海道旭川市永山４条２４丁目３番１４号", "url2": "https://www.kaigokensaku.mhlw.go.jp/01/index.php?action_kouhyou_detail_004_kani=true&JigyosyoCd=0172905580-00&ServiceCd=410&Type=search" }, "geometry": { "type": "Point", "coordinates": [ 142.449194, 43.8169088 ] } },
{ "type": "Feature", "properties": { "内容": "特定福祉用具販売事業所ピープルケア【特定福祉用具販売】北海道旭川市神居2条21丁目８８－６", "url2": "https://www.kaigokensaku.mhlw.go.jp/01/index.php?action_kouhyou_detail_004_kani=true&JigyosyoCd=0172907396-00&ServiceCd=410&Type=search" }, "geometry": { "type": "Point", "coordinates": [ 142.343993299999966, 43.745475 ] } },
{ "type": "Feature", "properties": { "内容": "株式会社　旭川ローザマネキン【特定福祉用具販売】北海道旭川市旭町2条5丁目12-159株式会社旭川ローザマネキン", "url2": "https://www.kaigokensaku.mhlw.go.jp/01/index.php?action_kouhyou_detail_004_kani=true&JigyosyoCd=0172906083-00&ServiceCd=410&Type=search" }, "geometry": { "type": "Point", "coordinates": [ 142.356402500000058, 43.7849002 ] } },
{ "type": "Feature", "properties": { "内容": "ケアサポートセンターあけぼの【特定福祉用具販売】北海道旭川市曙１条６丁目２番１５号", "url2": "https://www.kaigokensaku.mhlw.go.jp/01/index.php?action_kouhyou_detail_004_kani=true&JigyosyoCd=0172906190-00&ServiceCd=410&Type=search" }, "geometry": { "type": "Point", "coordinates": [ 142.340666819187987, 43.770764614081415 ] } },
{ "type": "Feature", "properties": { "内容": "極東警備保障株式会社【特定福祉用具販売】北海道旭川市永山北１条１０丁目１１番１９号極東警備保障株式会社", "url2": "https://www.kaigokensaku.mhlw.go.jp/01/index.php?action_kouhyou_detail_004_kani=true&JigyosyoCd=0172907099-00&ServiceCd=410&Type=search" }, "geometry": { "type": "Point", "coordinates": [ 142.434556499999985, 43.8150722 ] } },
{ "type": "Feature", "properties": { "内容": "セカンドライフ【特定福祉用具販売】北海道旭川市錦町16丁目2965番地51ラフィングA102", "url2": "https://www.kaigokensaku.mhlw.go.jp/01/index.php?action_kouhyou_detail_004_kani=true&JigyosyoCd=0172907016-00&ServiceCd=410&Type=search" }, "geometry": { "type": "Point", "coordinates": [ 142.337589429499758, 43.790667735143842 ] } },
{ "type": "Feature", "properties": { "内容": "福祉用具　あびる【特定福祉用具販売】旭川市永山7条16丁目2番17号", "url2": "https://www.kaigokensaku.mhlw.go.jp/01/index.php?action_kouhyou_detail_004_kani=true&JigyosyoCd=0172908097-00&ServiceCd=410&Type=search" }, "geometry": { "type": "Point", "coordinates": [ 142.433267399999977, 43.802472 ] } },
{ "type": "Feature", "properties": { "内容": "おたすケアいわき【特定福祉用具販売】北海道旭川市３条通３丁目右１号北海道新聞　岩城新聞店　内", "url2": "https://www.kaigokensaku.mhlw.go.jp/01/index.php?action_kouhyou_detail_004_kani=true&JigyosyoCd=0172906950-00&ServiceCd=410&Type=search" }, "geometry": { "type": "Point", "coordinates": [ 142.352842600000031, 43.7695269 ] } },
{ "type": "Feature", "properties": { "内容": "ニック株式会社旭川営業所【特定福祉用具販売】北海道旭川市豊岡4条8丁目2-3", "url2": "https://www.kaigokensaku.mhlw.go.jp/01/index.php?action_kouhyou_detail_004_kani=true&JigyosyoCd=0172904211-00&ServiceCd=410&Type=search" }, "geometry": { "type": "Point", "coordinates": [ 142.416197776043759, 43.759241999339906 ] } },
{ "type": "Feature", "properties": { "内容": "福祉用具事業所まるみ【特定福祉用具販売】北海道旭川市９条通８丁目2486番地の10小里ビル３階", "url2": "https://www.kaigokensaku.mhlw.go.jp/01/index.php?action_kouhyou_detail_004_kani=true&JigyosyoCd=0172908329-00&ServiceCd=410&Type=search" }, "geometry": { "type": "Point", "coordinates": [ 142.365078, 43.7745369 ] } },
{ "type": "Feature", "properties": { "内容": "エア・ウォーター・ライフソリューション株式会社　室蘭営業所【特定福祉用具販売】北海道室蘭市港北町1丁目2-20", "url2": "https://www.kaigokensaku.mhlw.go.jp/01/index.php?action_kouhyou_detail_004_kani=true&JigyosyoCd=0173502360-00&ServiceCd=410&Type=search" }, "geometry": { "type": "Point", "coordinates": [ 140.986082806745912, 42.357894 ] } },
{ "type": "Feature", "properties": { "内容": "みるて【特定福祉用具販売】北海道室蘭市高砂町４丁目３４番１号", "url2": "https://www.kaigokensaku.mhlw.go.jp/01/index.php?action_kouhyou_detail_004_kani=true&JigyosyoCd=0173500117-00&ServiceCd=410&Type=search" }, "geometry": { "type": "Point", "coordinates": [ 141.035584623655268, 42.367800089625071 ] } },
{ "type": "Feature", "properties": { "内容": "福祉用具貸与事業所　くおん【特定福祉用具販売】北海道室蘭市宮の森町4丁目２３番２８号", "url2": "https://www.kaigokensaku.mhlw.go.jp/01/index.php?action_kouhyou_detail_004_kani=true&JigyosyoCd=0173502329-00&ServiceCd=410&Type=search" }, "geometry": { "type": "Point", "coordinates": [ 141.028199, 42.3521821 ] } },
{ "type": "Feature", "properties": { "内容": "福祉用具レンタルのマルキタ室蘭店【特定福祉用具販売】室蘭市中央町3丁目5-12SK室蘭中央ビル1F", "url2": "https://www.kaigokensaku.mhlw.go.jp/01/index.php?action_kouhyou_detail_004_kani=true&JigyosyoCd=0173501347-00&ServiceCd=410&Type=search" }, "geometry": { "type": "Point", "coordinates": [ 140.973301935301237, 42.315565703844648 ] } },
{ "type": "Feature", "properties": { "内容": "株式会社ムトウ釧路支店【特定福祉用具販売】釧路市中園町２番２９号", "url2": "https://www.kaigokensaku.mhlw.go.jp/01/index.php?action_kouhyou_detail_004_kani=true&JigyosyoCd=0174101105-00&ServiceCd=410&Type=search" }, "geometry": { "type": "Point", "coordinates": [ 144.386232974868761, 43.004527966130595 ] } },
{ "type": "Feature", "properties": { "内容": "株式会社　丸カ　片山商店【特定福祉用具販売】北海道釧路市共栄大通１丁目３番４号", "url2": "https://www.kaigokensaku.mhlw.go.jp/01/index.php?action_kouhyou_detail_004_kani=true&JigyosyoCd=0174101048-00&ServiceCd=410&Type=search" }, "geometry": { "type": "Point", "coordinates": [ 144.381835899999942, 42.9932727 ] } },
{ "type": "Feature", "properties": { "内容": "株式会社エンパイアーホームヘルスケア事業部釧路営業所【特定福祉用具販売】釧路市中島町12番30号", "url2": "https://www.kaigokensaku.mhlw.go.jp/01/index.php?action_kouhyou_detail_004_kani=true&JigyosyoCd=0174101089-00&ServiceCd=410&Type=search" }, "geometry": { "type": "Point", "coordinates": [ 144.389121100000011, 42.9993693 ] } },
{ "type": "Feature", "properties": { "内容": "エア・ウォーター・ライフソリューション株式会社　釧路営業所【特定福祉用具販売】北海道釧路市寿4丁目3番10号", "url2": "https://www.kaigokensaku.mhlw.go.jp/01/index.php?action_kouhyou_detail_004_kani=true&JigyosyoCd=0174142919-00&ServiceCd=410&Type=search" }, "geometry": { "type": "Point", "coordinates": [ 144.3720154, 42.9932619 ] } },
{ "type": "Feature", "properties": { "内容": "ＤＣＭ星が浦店【特定福祉用具販売】北海道釧路市星が浦大通２丁目６番36号", "url2": "https://www.kaigokensaku.mhlw.go.jp/01/index.php?action_kouhyou_detail_004_kani=true&JigyosyoCd=0174142620-00&ServiceCd=410&Type=search" }, "geometry": { "type": "Point", "coordinates": [ 144.3244805, 43.01465480000001 ] } },
{ "type": "Feature", "properties": { "内容": "介護ショップホットハート【特定福祉用具販売】北海道釧路市愛国東2丁目1番17号", "url2": "https://www.kaigokensaku.mhlw.go.jp/01/index.php?action_kouhyou_detail_004_kani=true&JigyosyoCd=0174101477-00&ServiceCd=410&Type=search" }, "geometry": { "type": "Point", "coordinates": [ 144.391989291401586, 43.005348456730879 ] } },
{ "type": "Feature", "properties": { "内容": "株式会社フロンティア釧路営業所【特定福祉用具販売】釧路市若竹町１４番１２号", "url2": "https://www.kaigokensaku.mhlw.go.jp/01/index.php?action_kouhyou_detail_004_kani=true&JigyosyoCd=0174101006-00&ServiceCd=410&Type=search" }, "geometry": { "type": "Point", "coordinates": [ 144.377580500000022, 43.001519 ] } },
{ "type": "Feature", "properties": { "内容": "株式会社マルベリーさわやかセンター釧路【特定福祉用具販売】釧路市鳥取大通9丁目4番23号", "url2": "https://www.kaigokensaku.mhlw.go.jp/01/index.php?action_kouhyou_detail_004_kani=true&JigyosyoCd=0174101295-00&ServiceCd=410&Type=search" }, "geometry": { "type": "Point", "coordinates": [ 144.333745, 43.0181577 ] } },
{ "type": "Feature", "properties": { "内容": "株式会社メルプ福祉事業部【特定福祉用具販売】釧路市豊川町１０番２号", "url2": "https://www.kaigokensaku.mhlw.go.jp/01/index.php?action_kouhyou_detail_004_kani=true&JigyosyoCd=0174101030-00&ServiceCd=410&Type=search" }, "geometry": { "type": "Point", "coordinates": [ 144.378768900000068, 43.0090543 ] } },
{ "type": "Feature", "properties": { "内容": "株式会社　釧路ケア企画　介護ショップほほえみ本店【特定福祉用具販売】北海道釧路市昭和南3丁目15番10号", "url2": "https://www.kaigokensaku.mhlw.go.jp/01/index.php?action_kouhyou_detail_004_kani=true&JigyosyoCd=0174101055-00&ServiceCd=410&Type=search" }, "geometry": { "type": "Point", "coordinates": [ 144.357667699999979, 43.0208862 ] } },
{ "type": "Feature", "properties": { "内容": "福祉用具貸与事業所ふるさと【特定福祉用具販売】帯広市白樺16条東5丁目10番地", "url2": "https://www.kaigokensaku.mhlw.go.jp/01/index.php?action_kouhyou_detail_004_kani=true&JigyosyoCd=0174601757-00&ServiceCd=410&Type=search" }, "geometry": { "type": "Point", "coordinates": [ 143.178124499999967, 42.918943 ] } },
{ "type": "Feature", "properties": { "内容": "株式会社加藤家具店【特定福祉用具販売】北海道帯広市西6条南４丁目8番地2", "url2": "https://www.kaigokensaku.mhlw.go.jp/01/index.php?action_kouhyou_detail_004_kani=true&JigyosyoCd=0174602755-00&ServiceCd=410&Type=search" }, "geometry": { "type": "Point", "coordinates": [ 143.194826055276621, 42.926842111678603 ] } },
{ "type": "Feature", "properties": { "内容": "株式会社　ディステリア京屋　福祉事業部【特定福祉用具販売】帯広市西８条南６丁目７番地", "url2": "https://www.kaigokensaku.mhlw.go.jp/01/index.php?action_kouhyou_detail_004_kani=true&JigyosyoCd=0174600999-00&ServiceCd=410&Type=search" }, "geometry": { "type": "Point", "coordinates": [ 143.193049085983262, 42.92419375355739 ] } },
{ "type": "Feature", "properties": { "内容": "帯広ライフケアサービス【特定福祉用具販売】北海道帯広市西16条北１丁目13-99", "url2": "https://www.kaigokensaku.mhlw.go.jp/01/index.php?action_kouhyou_detail_004_kani=true&JigyosyoCd=0174601518-00&ServiceCd=410&Type=search" }, "geometry": { "type": "Point", "coordinates": [ 143.1748835, 42.9343541 ] } },
{ "type": "Feature", "properties": { "内容": "エア・ウォーター・ライフソリューション株式会社帯広営業所【特定福祉用具販売】北海道帯広市西22条南1丁目3番地", "url2": "https://www.kaigokensaku.mhlw.go.jp/01/index.php?action_kouhyou_detail_004_kani=true&JigyosyoCd=0174602987-00&ServiceCd=410&Type=search" }, "geometry": { "type": "Point", "coordinates": [ 143.1315859, 42.9252735 ] } },
{ "type": "Feature", "properties": { "内容": "ＤＣＭ稲田店【特定福祉用具販売】北海道帯広市稲田町南９線西９－１", "url2": "https://www.kaigokensaku.mhlw.go.jp/01/index.php?action_kouhyou_detail_004_kani=true&JigyosyoCd=0174602771-00&ServiceCd=410&Type=search" }, "geometry": { "type": "Point", "coordinates": [ 143.199694599999987, 42.8873385 ] } },
{ "type": "Feature", "properties": { "内容": "サニーサイド福祉用具貸与事業所【特定福祉用具販売】北海道帯広市西8条北5丁目1番地2", "url2": "https://www.kaigokensaku.mhlw.go.jp/01/index.php?action_kouhyou_detail_004_kani=true&JigyosyoCd=0174601815-00&ServiceCd=410&Type=search" }, "geometry": { "type": "Point", "coordinates": [ 141.902578799999986, 43.4967649 ] } },
{ "type": "Feature", "properties": { "内容": "ダスキンヘルスレント十勝ステーション【特定福祉用具販売】北海道帯広市大通南21丁目5番地", "url2": "https://www.kaigokensaku.mhlw.go.jp/01/index.php?action_kouhyou_detail_004_kani=true&JigyosyoCd=0174600775-00&ServiceCd=410&Type=search" }, "geometry": { "type": "Point", "coordinates": [ 143.20689384390252, 42.908360212518993 ] } },
{ "type": "Feature", "properties": { "内容": "福祉用具貸与事業所サトレン【特定福祉用具販売】北海道帯広市西11条南11丁目４番地", "url2": "https://www.kaigokensaku.mhlw.go.jp/01/index.php?action_kouhyou_detail_004_kani=true&JigyosyoCd=0174602516-00&ServiceCd=410&Type=search" }, "geometry": { "type": "Point", "coordinates": [ 143.188719822090206, 42.918528682088805 ] } },
{ "type": "Feature", "properties": { "内容": "株式会社ツーピース【特定福祉用具販売】北海道帯広市西23条南3丁目67番地9", "url2": "https://www.kaigokensaku.mhlw.go.jp/01/index.php?action_kouhyou_detail_004_kani=true&JigyosyoCd=0174602623-00&ServiceCd=410&Type=search" }, "geometry": { "type": "Point", "coordinates": [ 143.124757978774284, 42.913296671289736 ] } },
{ "type": "Feature", "properties": { "内容": "株式会社マルベリー　さわやかセンター帯広【特定福祉用具販売】帯広市西19条南1丁目7番地14", "url2": "https://www.kaigokensaku.mhlw.go.jp/01/index.php?action_kouhyou_detail_004_kani=true&JigyosyoCd=0174601161-00&ServiceCd=410&Type=search" }, "geometry": { "type": "Point", "coordinates": [ 143.156123500000035, 42.9252467 ] } },
{ "type": "Feature", "properties": { "内容": "有限会社メイフとびた福祉用具貸与事業所【特定福祉用具販売】北海道帯広市西5条南28丁目2番地1", "url2": "https://www.kaigokensaku.mhlw.go.jp/01/index.php?action_kouhyou_detail_004_kani=true&JigyosyoCd=0174600171-00&ServiceCd=410&Type=search" }, "geometry": { "type": "Point", "coordinates": [ 143.2005203, 42.8999048 ] } },
{ "type": "Feature", "properties": { "内容": "鈴音介護サービス【特定福祉用具販売】北見市公園１６１－７", "url2": "https://www.kaigokensaku.mhlw.go.jp/01/index.php?action_kouhyou_detail_004_kani=true&JigyosyoCd=0175013085-00&ServiceCd=410&Type=search" }, "geometry": { "type": "Point", "coordinates": [ 143.9089821, 43.8217176 ] } },
{ "type": "Feature", "properties": { "内容": "介護レンタルフィール【特定福祉用具販売】北海道北見市西三輪7丁目6番地", "url2": "https://www.kaigokensaku.mhlw.go.jp/01/index.php?action_kouhyou_detail_004_kani=true&JigyosyoCd=0175012335-00&ServiceCd=410&Type=search" }, "geometry": { "type": "Point", "coordinates": [ 143.832267300000012, 43.7969281 ] } },
{ "type": "Feature", "properties": { "内容": "株式会社ホームセンター坂本福祉用具貸与事業部　AGT【特定福祉用具販売】北海道北見市中央三輪6丁目443番地1", "url2": "https://www.kaigokensaku.mhlw.go.jp/01/index.php?action_kouhyou_detail_004_kani=true&JigyosyoCd=0175012483-00&ServiceCd=410&Type=search" }, "geometry": { "type": "Point", "coordinates": [ 143.853035399999953, 43.7971393 ] } },
{ "type": "Feature", "properties": { "内容": "ダスキンヘルスレント北見ステーション【特定福祉用具販売】北海道北見市卸町１丁目１０番地１", "url2": "https://www.kaigokensaku.mhlw.go.jp/01/index.php?action_kouhyou_detail_004_kani=true&JigyosyoCd=0175000488-00&ServiceCd=410&Type=search" }, "geometry": { "type": "Point", "coordinates": [ 143.836743912820083, 43.804370831321705 ] } },
{ "type": "Feature", "properties": { "内容": "株式会社安全【特定福祉用具販売】北海道北見市光西町172番地", "url2": "https://www.kaigokensaku.mhlw.go.jp/01/index.php?action_kouhyou_detail_004_kani=true&JigyosyoCd=0175000744-00&ServiceCd=410&Type=search" }, "geometry": { "type": "Point", "coordinates": [ 143.866498200000024, 43.798209 ] } },
{ "type": "Feature", "properties": { "内容": "介護ショップいきいき倶楽部さかぐち【特定福祉用具販売】北海道北見市留辺蘂町東町18番地", "url2": "https://www.kaigokensaku.mhlw.go.jp/01/index.php?action_kouhyou_detail_004_kani=true&JigyosyoCd=0175000355-00&ServiceCd=410&Type=search" }, "geometry": { "type": "Point", "coordinates": [ 143.622335900000053, 43.7875035 ] } },
{ "type": "Feature", "properties": { "内容": "家具サロン北装介護レンタル【特定福祉用具販売】北見市東相内町12番地4", "url2": "https://www.kaigokensaku.mhlw.go.jp/01/index.php?action_kouhyou_detail_004_kani=true&JigyosyoCd=0175000447-00&ServiceCd=410&Type=search" }, "geometry": { "type": "Point", "coordinates": [ 143.827228600000012, 43.7995334 ] } },
{ "type": "Feature", "properties": { "内容": "在宅環境サービス株式会社【特定福祉用具販売】北見市東三輪４丁目１６番地３８", "url2": "https://www.kaigokensaku.mhlw.go.jp/01/index.php?action_kouhyou_detail_004_kani=true&JigyosyoCd=0175011980-00&ServiceCd=410&Type=search" }, "geometry": { "type": "Point", "coordinates": [ 143.859151600000018, 43.7966895 ] } },
{ "type": "Feature", "properties": { "内容": "三好メディカル株式会社　福祉用具貸与事業所【特定福祉用具販売】北見市卸町１丁目１０番地５", "url2": "https://www.kaigokensaku.mhlw.go.jp/01/index.php?action_kouhyou_detail_004_kani=true&JigyosyoCd=0175000157-00&ServiceCd=410&Type=search" }, "geometry": { "type": "Point", "coordinates": [ 143.835683499999959, 43.804269 ] } },
{ "type": "Feature", "properties": { "内容": "介護ショップこばやし【特定福祉用具販売】北海道北見市本町５丁目６番１１号", "url2": "https://www.kaigokensaku.mhlw.go.jp/01/index.php?action_kouhyou_detail_004_kani=true&JigyosyoCd=0175000090-00&ServiceCd=410&Type=search" }, "geometry": { "type": "Point", "coordinates": [ 143.891320800000017, 43.8012649 ] } },
{ "type": "Feature", "properties": { "内容": "エア・ウォーター・ライフソリューション株式会社北見営業所【特定福祉用具販売】北海道北見市小泉238番地1", "url2": "https://www.kaigokensaku.mhlw.go.jp/01/index.php?action_kouhyou_detail_004_kani=true&JigyosyoCd=0175013119-00&ServiceCd=410&Type=search" }, "geometry": { "type": "Point", "coordinates": [ 143.9213636, 43.8304352 ] } },
{ "type": "Feature", "properties": { "内容": "株式会社梅川医科器械店　北見営業所【特定福祉用具販売】北海道北見市端野町三区480番地2", "url2": "https://www.kaigokensaku.mhlw.go.jp/01/index.php?action_kouhyou_detail_004_kani=true&JigyosyoCd=0175012913-00&ServiceCd=410&Type=search" }, "geometry": { "type": "Point", "coordinates": [ 143.94070480000002, 43.8513368 ] } },
{ "type": "Feature", "properties": { "内容": "株式会社悠愛介護用品レンタル・販売事業部【特定福祉用具販売】北海道岩見沢市北2条西11丁目2番1号", "url2": "https://www.kaigokensaku.mhlw.go.jp/01/index.php?action_kouhyou_detail_004_kani=true&JigyosyoCd=0175701085-00&ServiceCd=410&Type=search" }, "geometry": { "type": "Point", "coordinates": [ 141.751821, 43.204051 ] } },
{ "type": "Feature", "properties": { "内容": "サウレ福祉用具貸与事業所【特定福祉用具販売】北海道岩見沢市９条西１３丁目１番地１２", "url2": "https://www.kaigokensaku.mhlw.go.jp/01/index.php?action_kouhyou_detail_004_kani=true&JigyosyoCd=0175701234-00&ServiceCd=410&Type=search" }, "geometry": { "type": "Point", "coordinates": [ 141.759050500000058, 43.193192 ] } },
{ "type": "Feature", "properties": { "内容": "株式会社マルベリー　さわやかセンター岩見沢【特定福祉用具販売】北海道岩見沢市大和3条5丁目15", "url2": "https://www.kaigokensaku.mhlw.go.jp/01/index.php?action_kouhyou_detail_004_kani=true&JigyosyoCd=0175700889-00&ServiceCd=410&Type=search" }, "geometry": { "type": "Point", "coordinates": [ 141.745127599999932, 43.1892442 ] } },
{ "type": "Feature", "properties": { "内容": "ふくろうの杜【特定福祉用具販売】北海道岩見沢市西川町５１１番地４", "url2": "https://www.kaigokensaku.mhlw.go.jp/01/index.php?action_kouhyou_detail_004_kani=true&JigyosyoCd=0175700095-00&ServiceCd=410&Type=search" }, "geometry": { "type": "Point", "coordinates": [ 141.74384329999998, 43.2122082 ] } },
{ "type": "Feature", "properties": { "内容": "有限会社北海道環境福祉サービス【特定福祉用具販売】岩見沢市2条東11丁目25-1サービス付き高齢者向け住宅グランドヴィラ～縁～", "url2": "https://www.kaigokensaku.mhlw.go.jp/01/index.php?action_kouhyou_detail_004_kani=true&JigyosyoCd=0175700186-00&ServiceCd=410&Type=search" }, "geometry": { "type": "Point", "coordinates": [ 141.776530300199852, 43.21078415234053 ] } },
{ "type": "Feature", "properties": { "内容": "ニック株式会社　北海道中央営業所【特定福祉用具販売】北海道岩見沢市5条東10丁目2", "url2": "https://www.kaigokensaku.mhlw.go.jp/01/index.php?action_kouhyou_detail_004_kani=true&JigyosyoCd=0175700053-00&ServiceCd=410&Type=search" }, "geometry": { "type": "Point", "coordinates": [ 141.775441, 43.207659600000035 ] } },
{ "type": "Feature", "properties": { "内容": "福祉用具貸与・販売専門店　まち福【特定福祉用具販売】北海道岩見沢市ふじ町１条３丁目３番１８号", "url2": "https://www.kaigokensaku.mhlw.go.jp/01/index.php?action_kouhyou_detail_004_kani=true&JigyosyoCd=0175701317-00&ServiceCd=410&Type=search" }, "geometry": { "type": "Point", "coordinates": [ 141.7536724, 43.1662534 ] } },
{ "type": "Feature", "properties": { "内容": "Ｏｆｆｉｃｅ言の葉【特定福祉用具販売】北海道網走市字天都山１２番地の２１", "url2": "https://www.kaigokensaku.mhlw.go.jp/01/index.php?action_kouhyou_detail_004_kani=true&JigyosyoCd=0175300789-00&ServiceCd=410&Type=search" }, "geometry": { "type": "Point", "coordinates": [ 144.259989300000029, 44.0191663 ] } },
{ "type": "Feature", "properties": { "内容": "介護ショップあばしりこばやし【特定福祉用具販売】網走市桂町5丁目3番1号", "url2": "https://www.kaigokensaku.mhlw.go.jp/01/index.php?action_kouhyou_detail_004_kani=true&JigyosyoCd=0175300318-00&ServiceCd=410&Type=search" }, "geometry": { "type": "Point", "coordinates": [ 144.26901840000005, 44.0096883 ] } },
{ "type": "Feature", "properties": { "内容": "有限会社粟生家具店【特定福祉用具販売】北海道網走市南5条東3丁目7番地", "url2": "https://www.kaigokensaku.mhlw.go.jp/01/index.php?action_kouhyou_detail_004_kani=true&JigyosyoCd=0175300284-00&ServiceCd=410&Type=search" }, "geometry": { "type": "Point", "coordinates": [ 144.2714286, 44.0205362 ] } },
{ "type": "Feature", "properties": { "内容": "株式会社ハートファーマシー　あかね薬局【特定福祉用具販売】北海道留萌市東雲町２丁目４４番地", "url2": "https://www.kaigokensaku.mhlw.go.jp/01/index.php?action_kouhyou_detail_004_kani=true&JigyosyoCd=0176400612-00&ServiceCd=410&Type=search" }, "geometry": { "type": "Point", "coordinates": [ 141.675834500000065, 43.93192 ] } },
{ "type": "Feature", "properties": { "内容": "コスモルモイ福祉用具貸与事業所【特定福祉用具販売】北海道留萌市錦町1丁目4-8中心街ビル", "url2": "https://www.kaigokensaku.mhlw.go.jp/01/index.php?action_kouhyou_detail_004_kani=true&JigyosyoCd=0176400737-00&ServiceCd=410&Type=search" }, "geometry": { "type": "Point", "coordinates": [ 141.6427708, 43.9399664 ] } },
{ "type": "Feature", "properties": { "内容": "株式会社　萌福祉サービス福祉用具貸与事業所【特定福祉用具販売】留萌市開運町１丁目２番１号", "url2": "https://www.kaigokensaku.mhlw.go.jp/01/index.php?action_kouhyou_detail_004_kani=true&JigyosyoCd=0176400018-00&ServiceCd=410&Type=search" }, "geometry": { "type": "Point", "coordinates": [ 141.650036300000011, 43.9391457 ] } },
{ "type": "Feature", "properties": { "内容": "ファミリーケアサポート特定福祉用具販売事業所【特定福祉用具販売】北海道留萌市栄町一丁目５番33号", "url2": "https://www.kaigokensaku.mhlw.go.jp/01/index.php?action_kouhyou_detail_004_kani=true&JigyosyoCd=0176400497-00&ServiceCd=410&Type=search" }, "geometry": { "type": "Point", "coordinates": [ 141.648602799999935, 43.9427703 ] } },
{ "type": "Feature", "properties": { "内容": "エア・ウォーター・ライフソリューション株式会社苫小牧営業所【特定福祉用具販売】北海道苫小牧市若草町1丁目1-21", "url2": "https://www.kaigokensaku.mhlw.go.jp/01/index.php?action_kouhyou_detail_004_kani=true&JigyosyoCd=0173629940-00&ServiceCd=410&Type=search" }, "geometry": { "type": "Point", "coordinates": [ 141.6103333, 42.6401228 ] } },
{ "type": "Feature", "properties": { "内容": "介護ショップ　そら【特定福祉用具販売】北海道苫小牧市しらかば町4丁目22番13号柏マンションC", "url2": "https://www.kaigokensaku.mhlw.go.jp/01/index.php?action_kouhyou_detail_004_kani=true&JigyosyoCd=0173602400-00&ServiceCd=410&Type=search" }, "geometry": { "type": "Point", "coordinates": [ 141.535040900000013, 42.6246136 ] } },
{ "type": "Feature", "properties": { "内容": "株式会社　マルベリー　さわやかセンター苫小牧【特定福祉用具販売】北海道苫小牧市弥生町2丁目12-4", "url2": "https://www.kaigokensaku.mhlw.go.jp/01/index.php?action_kouhyou_detail_004_kani=true&JigyosyoCd=0173601162-00&ServiceCd=410&Type=search" }, "geometry": { "type": "Point", "coordinates": [ 141.5779963, 42.627529 ] } },
{ "type": "Feature", "properties": { "内容": "ダスキンヘルスレント苫小牧ステーション【特定福祉用具販売】苫小牧市明野新町６丁目２８番１６号", "url2": "https://www.kaigokensaku.mhlw.go.jp/01/index.php?action_kouhyou_detail_004_kani=true&JigyosyoCd=0173600792-00&ServiceCd=410&Type=search" }, "geometry": { "type": "Point", "coordinates": [ 141.627591296958911, 42.661279931540129 ] } },
{ "type": "Feature", "properties": { "内容": "福祉用具販売貸与事業所　フルールハピネスとまこまい【特定福祉用具販売】北海道苫小牧市字錦岡443番地443", "url2": "https://www.kaigokensaku.mhlw.go.jp/01/index.php?action_kouhyou_detail_004_kani=true&JigyosyoCd=0173601592-00&ServiceCd=410&Type=search" }, "geometry": { "type": "Point", "coordinates": [ 141.491584900000021, 42.6267757 ] } },
{ "type": "Feature", "properties": { "内容": "株式会社エンパイアー　ホームヘルスケア事業部　苫小牧営業所【特定福祉用具販売】苫小牧市日新町1丁目2番17号", "url2": "https://www.kaigokensaku.mhlw.go.jp/01/index.php?action_kouhyou_detail_004_kani=true&JigyosyoCd=0173600388-00&ServiceCd=410&Type=search" }, "geometry": { "type": "Point", "coordinates": [ 141.545872499999973, 42.6319136 ] } },
{ "type": "Feature", "properties": { "内容": "株式会社マルキタ家具センター【特定福祉用具販売】苫小牧市有明町2丁目7-33", "url2": "https://www.kaigokensaku.mhlw.go.jp/01/index.php?action_kouhyou_detail_004_kani=true&JigyosyoCd=0173600230-00&ServiceCd=410&Type=search" }, "geometry": { "type": "Point", "coordinates": [ 141.551047700000026, 42.6186148 ] } },
{ "type": "Feature", "properties": { "内容": "レンタルサポート　ケイト【特定福祉用具販売】北海道稚内市港1丁目3番8号", "url2": "https://www.kaigokensaku.mhlw.go.jp/01/index.php?action_kouhyou_detail_004_kani=true&JigyosyoCd=0176701084-00&ServiceCd=410&Type=search" }, "geometry": { "type": "Point", "coordinates": [ 141.674353, 45.4087597 ] } },
{ "type": "Feature", "properties": { "内容": "株式会社カブトヤ【特定福祉用具販売】北海道稚内市潮見４丁目３番１７号", "url2": "https://www.kaigokensaku.mhlw.go.jp/01/index.php?action_kouhyou_detail_004_kani=true&JigyosyoCd=0176700060-00&ServiceCd=410&Type=search" }, "geometry": { "type": "Point", "coordinates": [ 141.7047887, 45.3948508 ] } },
{ "type": "Feature", "properties": { "内容": "東洋メディカル株式会社福祉用具販売事業所【特定福祉用具販売】北海道稚内市萩見5丁目1番15号", "url2": "https://www.kaigokensaku.mhlw.go.jp/01/index.php?action_kouhyou_detail_004_kani=true&JigyosyoCd=0176700136-00&ServiceCd=410&Type=search" }, "geometry": { "type": "Point", "coordinates": [ 141.70684719999997, 45.3880377 ] } },
{ "type": "Feature", "properties": { "内容": "株式会社環商事【特定福祉用具販売】北海道美唄市東６条北５丁目３番１号", "url2": "https://www.kaigokensaku.mhlw.go.jp/01/index.php?action_kouhyou_detail_004_kani=true&JigyosyoCd=0176100014-00&ServiceCd=410&Type=search" }, "geometry": { "type": "Point", "coordinates": [ 141.880730200000016, 43.3356429 ] } },
{ "type": "Feature", "properties": { "内容": "有限会社岸本ふとん店【特定福祉用具販売】北海道江別市大麻東町13-9", "url2": "https://www.kaigokensaku.mhlw.go.jp/01/index.php?action_kouhyou_detail_004_kani=true&JigyosyoCd=0171000375-00&ServiceCd=410&Type=search" }, "geometry": { "type": "Point", "coordinates": [ 141.4978714, 43.0792039 ] } },
{ "type": "Feature", "properties": { "内容": "株式会社北海道フォレスト【特定福祉用具販売】北海道江別市大麻東町15番地の5", "url2": "https://www.kaigokensaku.mhlw.go.jp/01/index.php?action_kouhyou_detail_004_kani=true&JigyosyoCd=0171001167-00&ServiceCd=410&Type=search" }, "geometry": { "type": "Point", "coordinates": [ 141.502206379167973, 43.081941166976222 ] } },
{ "type": "Feature", "properties": { "内容": "福祉用具事業所ゆうあい【特定福祉用具販売】北海道江別市中央町31番地の6", "url2": "https://www.kaigokensaku.mhlw.go.jp/01/index.php?action_kouhyou_detail_004_kani=true&JigyosyoCd=0171001902-00&ServiceCd=410&Type=search" }, "geometry": { "type": "Point", "coordinates": [ 141.5195946, 43.1031058 ] } },
{ "type": "Feature", "properties": { "内容": "有限会社丸東ユニバーサルサービス【特定福祉用具販売】北海道江別市牧場町15番地の17", "url2": "https://www.kaigokensaku.mhlw.go.jp/01/index.php?action_kouhyou_detail_004_kani=true&JigyosyoCd=0171000722-00&ServiceCd=410&Type=search" }, "geometry": { "type": "Point", "coordinates": [ 141.5377128, 43.1137989 ] } },
{ "type": "Feature", "properties": { "内容": "福祉用具ｏｎｅ【特定福祉用具販売】大麻東町31-5グループハウス楓内", "url2": "https://www.kaigokensaku.mhlw.go.jp/01/index.php?action_kouhyou_detail_004_kani=true&JigyosyoCd=0171002124-00&ServiceCd=410&Type=search" }, "geometry": { "type": "Point", "coordinates": [ 141.5001074, 43.079739 ] } },
{ "type": "Feature", "properties": { "内容": "えあ・うぉーたーらいふそりゅーしょんかぶしきがいしゃえべつさーびすせんたーふくし【特定福祉用具販売】北海道江別市向ヶ丘49番地6", "url2": "https://www.kaigokensaku.mhlw.go.jp/01/index.php?action_kouhyou_detail_004_kani=true&JigyosyoCd=0171002181-00&ServiceCd=410&Type=search" }, "geometry": { "type": "Point", "coordinates": [ 141.531581100000011, 43.1076299 ] } },
{ "type": "Feature", "properties": { "内容": "アイウェル【特定福祉用具販売】北海道江別市緑町西1丁目25-1", "url2": "https://www.kaigokensaku.mhlw.go.jp/01/index.php?action_kouhyou_detail_004_kani=true&JigyosyoCd=0171002041-00&ServiceCd=410&Type=search" }, "geometry": { "type": "Point", "coordinates": [ 141.5503286, 43.1141772 ] } },
{ "type": "Feature", "properties": { "内容": "株式会社丸キ宮川商店　介護ショップみやかわ【特定福祉用具販売】北海道紋別市本町４丁目２番７号", "url2": "https://www.kaigokensaku.mhlw.go.jp/01/index.php?action_kouhyou_detail_004_kani=true&JigyosyoCd=0175100254-00&ServiceCd=410&Type=search" }, "geometry": { "type": "Point", "coordinates": [ 143.355007806614765, 44.352994475212043 ] } },
{ "type": "Feature", "properties": { "内容": "福祉用具の店うぃず・らいふ【特定福祉用具販売】北海道士別市東５条１１丁目883-11", "url2": "https://www.kaigokensaku.mhlw.go.jp/01/index.php?action_kouhyou_detail_004_kani=true&JigyosyoCd=0173200825-00&ServiceCd=410&Type=search" }, "geometry": { "type": "Point", "coordinates": [ 142.4010872, 44.1716762 ] } },
{ "type": "Feature", "properties": { "内容": "株式会社マルベリーさわやかセンター名寄【特定福祉用具販売】北海道名寄市西10条北2丁目13-17", "url2": "https://www.kaigokensaku.mhlw.go.jp/01/index.php?action_kouhyou_detail_004_kani=true&JigyosyoCd=0173200999-00&ServiceCd=410&Type=search" }, "geometry": { "type": "Point", "coordinates": [ 142.450015300000018, 44.3584401 ] } },
{ "type": "Feature", "properties": { "内容": "藤田産業株式会社福祉事業部【特定福祉用具販売】名寄市西５条南７丁目１５", "url2": "https://www.kaigokensaku.mhlw.go.jp/01/index.php?action_kouhyou_detail_004_kani=true&JigyosyoCd=0173200536-00&ServiceCd=410&Type=search" }, "geometry": { "type": "Point", "coordinates": [ 142.456232300000011, 44.3491997 ] } },
{ "type": "Feature", "properties": { "内容": "株式会社　ヒシサン【特定福祉用具販売】北海道根室市大正町３丁目７番地-", "url2": "https://www.kaigokensaku.mhlw.go.jp/01/index.php?action_kouhyou_detail_004_kani=true&JigyosyoCd=0174200626-00&ServiceCd=410&Type=search" }, "geometry": { "type": "Point", "coordinates": [ 145.585973500000023, 43.3276373 ] } },
{ "type": "Feature", "properties": { "内容": "介護ショップワタナベ福祉用具取扱事業所【特定福祉用具販売】根室市桂木110番地", "url2": "https://www.kaigokensaku.mhlw.go.jp/01/index.php?action_kouhyou_detail_004_kani=true&JigyosyoCd=0174200261-00&ServiceCd=410&Type=search" }, "geometry": { "type": "Point", "coordinates": [ 145.606530900000052, 43.3097219 ] } },
{ "type": "Feature", "properties": { "内容": "フランスベッド株式会社　メディカル千歳営業所【特定福祉用具販売】千歳市北信濃867", "url2": "https://www.kaigokensaku.mhlw.go.jp/01/index.php?action_kouhyou_detail_004_kani=true&JigyosyoCd=0171100522-00&ServiceCd=410&Type=search" }, "geometry": { "type": "Point", "coordinates": [ 141.619874399999958, 42.8430901 ] } },
{ "type": "Feature", "properties": { "内容": "株式会社興栄パートナー【特定福祉用具販売】北海道千歳市富士1丁目1番5号", "url2": "https://www.kaigokensaku.mhlw.go.jp/01/index.php?action_kouhyou_detail_004_kani=true&JigyosyoCd=0171100746-00&ServiceCd=410&Type=search" }, "geometry": { "type": "Point", "coordinates": [ 141.6273966, 42.8360163 ] } },
{ "type": "Feature", "properties": { "内容": "株式会社クリーン開発福祉事業部【特定福祉用具販売】北海道千歳市流通１丁目４番７号", "url2": "https://www.kaigokensaku.mhlw.go.jp/01/index.php?action_kouhyou_detail_004_kani=true&JigyosyoCd=0171100084-00&ServiceCd=410&Type=search" }, "geometry": { "type": "Point", "coordinates": [ 141.677158176621219, 42.821070123599647 ] } },
{ "type": "Feature", "properties": { "内容": "有限会社新富メディカル・サービス【特定福祉用具販売】千歳市柏陽5丁目5番地の3", "url2": "https://www.kaigokensaku.mhlw.go.jp/01/index.php?action_kouhyou_detail_004_kani=true&JigyosyoCd=0171100092-00&ServiceCd=410&Type=search" }, "geometry": { "type": "Point", "coordinates": [ 141.63524910000001, 42.8302505 ] } },
{ "type": "Feature", "properties": { "内容": "西出福祉サービス千歳【特定福祉用具販売】北海道千歳市清流7丁目9番7号", "url2": "https://www.kaigokensaku.mhlw.go.jp/01/index.php?action_kouhyou_detail_004_kani=true&JigyosyoCd=0171101025-00&ServiceCd=410&Type=search" }, "geometry": { "type": "Point", "coordinates": [ 141.6587442402938, 42.847157249090927 ] } },
{ "type": "Feature", "properties": { "内容": "ダスキンヘルスレント千歳ステーション【特定福祉用具販売】千歳市朝日町５丁目１－１", "url2": "https://www.kaigokensaku.mhlw.go.jp/01/index.php?action_kouhyou_detail_004_kani=true&JigyosyoCd=0171100332-00&ServiceCd=410&Type=search" }, "geometry": { "type": "Point", "coordinates": [ 141.653461900000025, 42.8196523 ] } },
{ "type": "Feature", "properties": { "内容": "エア・ウォーター・ライフソリューション株式会社　滝川営業所【特定福祉用具販売】滝川市泉町2丁目８番８号", "url2": "https://www.kaigokensaku.mhlw.go.jp/01/index.php?action_kouhyou_detail_004_kani=true&JigyosyoCd=0177540762-00&ServiceCd=410&Type=search" }, "geometry": { "type": "Point", "coordinates": [ 141.892118300000021, 43.5730944 ] } },
{ "type": "Feature", "properties": { "内容": "西出福祉サービス空知【特定福祉用具販売】北海道滝川市黄金町東３丁目１番８号　西出興業(株)　滝川支店　内", "url2": "https://www.kaigokensaku.mhlw.go.jp/01/index.php?action_kouhyou_detail_004_kani=true&JigyosyoCd=0177500055-00&ServiceCd=410&Type=search" }, "geometry": { "type": "Point", "coordinates": [ 141.917348800000013, 43.5753906 ] } },
{ "type": "Feature", "properties": { "内容": "株式会社マルベリ-さわやかセンタ-空知【特定福祉用具販売】砂川市西7条北22丁目122-9", "url2": "https://www.kaigokensaku.mhlw.go.jp/01/index.php?action_kouhyou_detail_004_kani=true&JigyosyoCd=0177100385-00&ServiceCd=410&Type=search" }, "geometry": { "type": "Point", "coordinates": [ 141.909434795379639, 43.525417367970157 ] } },
{ "type": "Feature", "properties": { "内容": "ふくしようぐはんばいじぎょうしょりんごのさと【特定福祉用具販売】砂川市晴見3条北8丁目3番5号ガーデンりんごの里", "url2": "https://www.kaigokensaku.mhlw.go.jp/01/index.php?action_kouhyou_detail_004_kani=true&JigyosyoCd=0177100310-00&ServiceCd=410&Type=search" }, "geometry": { "type": "Point", "coordinates": [ 141.9253211, 43.4975414 ] } },
{ "type": "Feature", "properties": { "内容": "ケアショップ　エス・エー・シー【特定福祉用具販売】北海道深川市５条１２番９号", "url2": "https://www.kaigokensaku.mhlw.go.jp/01/index.php?action_kouhyou_detail_004_kani=true&JigyosyoCd=0177400694-00&ServiceCd=410&Type=search" }, "geometry": { "type": "Point", "coordinates": [ 142.0483018, 43.7196797 ] } },
{ "type": "Feature", "properties": { "内容": "株式会社　能登家具店【特定福祉用具販売】北海道深川市3条9番地24号", "url2": "https://www.kaigokensaku.mhlw.go.jp/01/index.php?action_kouhyou_detail_004_kani=true&JigyosyoCd=0177400371-00&ServiceCd=410&Type=search" }, "geometry": { "type": "Point", "coordinates": [ 142.043586399999981, 43.7195105 ] } },
{ "type": "Feature", "properties": { "内容": "株式会社富良野タクシー　介護・福祉ショップポピー【特定福祉用具販売】北海道富良野市本町2番3号", "url2": "https://www.kaigokensaku.mhlw.go.jp/01/index.php?action_kouhyou_detail_004_kani=true&JigyosyoCd=0173000092-00&ServiceCd=410&Type=search" }, "geometry": { "type": "Point", "coordinates": [ 142.38828860000001, 43.3469004 ] } },
{ "type": "Feature", "properties": { "内容": "ことぶき商事株式会社【特定福祉用具販売】北海道登別市中登別町２４番地１１８", "url2": "https://www.kaigokensaku.mhlw.go.jp/01/index.php?action_kouhyou_detail_004_kani=true&JigyosyoCd=0173500174-00&ServiceCd=410&Type=search" }, "geometry": { "type": "Point", "coordinates": [ 141.16829830000006, 42.4642577 ] } },
{ "type": "Feature", "properties": { "内容": "株式会社マルベリー　さわやかセンター室蘭登別【特定福祉用具販売】北海道登別市新生町4丁目16-3", "url2": "https://www.kaigokensaku.mhlw.go.jp/01/index.php?action_kouhyou_detail_004_kani=true&JigyosyoCd=0173501958-00&ServiceCd=410&Type=search" }, "geometry": { "type": "Point", "coordinates": [ 141.066569889549243, 42.380977912249634 ] } },
{ "type": "Feature", "properties": { "内容": "株式会社　コスモ商事【特定福祉用具販売】恵庭市恵み野西2丁目3-2", "url2": "https://www.kaigokensaku.mhlw.go.jp/01/index.php?action_kouhyou_detail_004_kani=true&JigyosyoCd=0171200330-00&ServiceCd=410&Type=search" }, "geometry": { "type": "Point", "coordinates": [ 141.576664899999969, 42.9005403 ] } },
{ "type": "Feature", "properties": { "内容": "株式会社マルベリーさわやかセンター恵庭【特定福祉用具販売】恵庭市柏陽町３丁目１３番３号", "url2": "https://www.kaigokensaku.mhlw.go.jp/01/index.php?action_kouhyou_detail_004_kani=true&JigyosyoCd=0171200439-00&ServiceCd=410&Type=search" }, "geometry": { "type": "Point", "coordinates": [ 141.57151829999998, 42.8950602 ] } },
{ "type": "Feature", "properties": { "内容": "株式会社恵み野介護サービス【特定福祉用具販売】恵庭市有明町1丁目8番8号", "url2": "https://www.kaigokensaku.mhlw.go.jp/01/index.php?action_kouhyou_detail_004_kani=true&JigyosyoCd=0171200033-00&ServiceCd=410&Type=search" }, "geometry": { "type": "Point", "coordinates": [ 141.5706144509262, 42.890049463623598 ] } },
{ "type": "Feature", "properties": { "内容": "レンタルサービス湘南【特定福祉用具販売】北海道伊達市松ヶ枝町１５７番１１０", "url2": "https://www.kaigokensaku.mhlw.go.jp/01/index.php?action_kouhyou_detail_004_kani=true&JigyosyoCd=0173700212-00&ServiceCd=410&Type=search" }, "geometry": { "type": "Point", "coordinates": [ 140.883904799999982, 42.4765841 ] } },
{ "type": "Feature", "properties": { "内容": "福祉用具貸与事業所Eはうす札幌【特定福祉用具販売】北海道北広島市西の里北1丁目1番地18", "url2": "https://www.kaigokensaku.mhlw.go.jp/01/index.php?action_kouhyou_detail_004_kani=true&JigyosyoCd=0171301088-00&ServiceCd=410&Type=search" }, "geometry": { "type": "Point", "coordinates": [ 141.5017592, 43.0155404 ] } },
{ "type": "Feature", "properties": { "内容": "福祉用具販売貸与事業所setsu【特定福祉用具販売】北海道北広島市大曲幸町3丁目1番地11", "url2": "https://www.kaigokensaku.mhlw.go.jp/01/index.php?action_kouhyou_detail_004_kani=true&JigyosyoCd=0171300999-00&ServiceCd=410&Type=search" }, "geometry": { "type": "Point", "coordinates": [ 141.4737424, 42.9698482 ] } },
{ "type": "Feature", "properties": { "内容": "福祉用具貸与ぬくもりおたすけ隊【特定福祉用具販売】北海道石狩市花川南9条4丁目86番地サービス付き高齢者向け住宅ぬくもり花川", "url2": "https://www.kaigokensaku.mhlw.go.jp/01/index.php?action_kouhyou_detail_004_kani=true&JigyosyoCd=0177600657-00&ServiceCd=410&Type=search" }, "geometry": { "type": "Point", "coordinates": [ 141.28702340000001, 43.1374818 ] } },
{ "type": "Feature", "properties": { "内容": "NORTHCARE【特定福祉用具販売】北海道石狩市花川南9条4丁目35番地", "url2": "https://www.kaigokensaku.mhlw.go.jp/01/index.php?action_kouhyou_detail_004_kani=true&JigyosyoCd=0177640562-00&ServiceCd=410&Type=search" }, "geometry": { "type": "Point", "coordinates": [ 141.2844619, 43.1379413 ] } },
{ "type": "Feature", "properties": { "内容": "アット福祉用具販売貸与事業所【特定福祉用具販売】石狩市花川南2条3丁目91-2", "url2": "https://www.kaigokensaku.mhlw.go.jp/01/index.php?action_kouhyou_detail_004_kani=true&JigyosyoCd=0177600392-00&ServiceCd=410&Type=search" }, "geometry": { "type": "Point", "coordinates": [ 141.29801180000004, 43.151783200000011 ] } },
{ "type": "Feature", "properties": { "内容": "福祉用具貸与事業所RISE【特定福祉用具販売】北海道石狩市花川北6条2丁目88番地", "url2": "https://www.kaigokensaku.mhlw.go.jp/01/index.php?action_kouhyou_detail_004_kani=true&JigyosyoCd=0177640737-00&ServiceCd=410&Type=search" }, "geometry": { "type": "Point", "coordinates": [ 141.318533699999989, 43.1707586 ] } },
{ "type": "Feature", "properties": { "内容": "合同会社リハビリフォーム【特定福祉用具販売】北海道石狩市花川南1条3丁目126", "url2": "https://www.kaigokensaku.mhlw.go.jp/01/index.php?action_kouhyou_detail_004_kani=true&JigyosyoCd=0177640711-00&ServiceCd=410&Type=search" }, "geometry": { "type": "Point", "coordinates": [ 141.3026925, 43.1532592 ] } },
{ "type": "Feature", "properties": { "内容": "株式会社　サンメディック【特定福祉用具販売】北海道北斗市七重浜2丁目32番34号", "url2": "https://www.kaigokensaku.mhlw.go.jp/01/index.php?action_kouhyou_detail_004_kani=true&JigyosyoCd=0171500440-00&ServiceCd=410&Type=search" }, "geometry": { "type": "Point", "coordinates": [ 140.707711870834572, 41.817528219289535 ] } },
{ "type": "Feature", "properties": { "内容": "ひより屋北斗【特定福祉用具販売】北海道北斗市中央２丁目３番９号", "url2": "https://www.kaigokensaku.mhlw.go.jp/01/index.php?action_kouhyou_detail_004_kani=true&JigyosyoCd=0171502008-00&ServiceCd=410&Type=search" }, "geometry": { "type": "Point", "coordinates": [ 140.6522749, 41.8232128 ] } },
{ "type": "Feature", "properties": { "内容": "有限会社にしむら薬局【特定福祉用具販売】北海道松前郡松前町字松城12番地の１", "url2": "https://www.kaigokensaku.mhlw.go.jp/01/index.php?action_kouhyou_detail_004_kani=true&JigyosyoCd=0141443408-00&ServiceCd=410&Type=search" }, "geometry": { "type": "Point", "coordinates": [ 140.108565499999941, 41.4282116 ] } },
{ "type": "Feature", "properties": { "内容": "有限会社　コーリュウ森営業所【特定福祉用具販売】北海道茅部郡森町字森川町278-55", "url2": "https://www.kaigokensaku.mhlw.go.jp/01/index.php?action_kouhyou_detail_004_kani=true&JigyosyoCd=0171500408-00&ServiceCd=410&Type=search" }, "geometry": { "type": "Point", "coordinates": [ 140.579237400000011, 42.0994846 ] } },
{ "type": "Feature", "properties": { "内容": "株式会社あしすと【特定福祉用具販売】北海道虻田郡倶知安町北４条東１丁目１番地", "url2": "https://www.kaigokensaku.mhlw.go.jp/01/index.php?action_kouhyou_detail_004_kani=true&JigyosyoCd=0172200339-00&ServiceCd=410&Type=search" }, "geometry": { "type": "Point", "coordinates": [ 140.753506099999981, 42.9044539 ] } },
{ "type": "Feature", "properties": { "内容": "有限会社栗林家具店【特定福祉用具販売】北海道岩内郡岩内町字万代19番地の8", "url2": "https://www.kaigokensaku.mhlw.go.jp/01/index.php?action_kouhyou_detail_004_kani=true&JigyosyoCd=0172300261-00&ServiceCd=410&Type=search" }, "geometry": { "type": "Point", "coordinates": [ 140.5164469, 42.982607 ] } },
{ "type": "Feature", "properties": { "内容": "大橋畳家具店福祉用具貸与事業所【特定福祉用具販売】北海道岩内郡岩内町大和2-5", "url2": "https://www.kaigokensaku.mhlw.go.jp/01/index.php?action_kouhyou_detail_004_kani=true&JigyosyoCd=0172300188-00&ServiceCd=410&Type=search" }, "geometry": { "type": "Point", "coordinates": [ 140.509508899999986, 42.9813487 ] } },
{ "type": "Feature", "properties": { "内容": "ドラックストアーさとう福祉用具貸与事業所【特定福祉用具販売】北海道余市郡余市町大川町4丁目77番地1", "url2": "https://www.kaigokensaku.mhlw.go.jp/01/index.php?action_kouhyou_detail_004_kani=true&JigyosyoCd=0172500019-00&ServiceCd=410&Type=search" }, "geometry": { "type": "Point", "coordinates": [ 140.794437580287195, 43.19233274170476 ] } },
{ "type": "Feature", "properties": { "内容": "有限会社山本【特定福祉用具販売】夕張郡長沼町錦町南１丁目1-17", "url2": "https://www.kaigokensaku.mhlw.go.jp/01/index.php?action_kouhyou_detail_004_kani=true&JigyosyoCd=0175800234-00&ServiceCd=410&Type=search" }, "geometry": { "type": "Point", "coordinates": [ 141.69023530000004, 43.0110141 ] } },
{ "type": "Feature", "properties": { "内容": "有限会社丸小旗矢金物店【特定福祉用具販売】北海道夕張郡栗山町栗山町中央２丁目６９番地", "url2": "https://www.kaigokensaku.mhlw.go.jp/01/index.php?action_kouhyou_detail_004_kani=true&JigyosyoCd=0175800168-00&ServiceCd=410&Type=search" }, "geometry": { "type": "Point", "coordinates": [ 141.777430444457991, 43.058554116720003 ] } },
{ "type": "Feature", "properties": { "内容": "有限会社高杉【特定福祉用具販売】北海道夕張郡栗山町中央２丁目189", "url2": "https://www.kaigokensaku.mhlw.go.jp/01/index.php?action_kouhyou_detail_004_kani=true&JigyosyoCd=0175809540-00&ServiceCd=410&Type=search" }, "geometry": { "type": "Point", "coordinates": [ 141.777112799999941, 43.0600955 ] } },
{ "type": "Feature", "properties": { "内容": "株式会社　近藤組【特定福祉用具販売】北海道上川郡和寒町字三笠９９番地", "url2": "https://www.kaigokensaku.mhlw.go.jp/01/index.php?action_kouhyou_detail_004_kani=true&JigyosyoCd=0173200965-00&ServiceCd=410&Type=search" }, "geometry": { "type": "Point", "coordinates": [ 142.41786419999994, 44.021566 ] } },
{ "type": "Feature", "properties": { "内容": "株式会社馬場商店福祉用具貸与事業所【特定福祉用具販売】北海道中川郡美深町大通北２丁目１０番地", "url2": "https://www.kaigokensaku.mhlw.go.jp/01/index.php?action_kouhyou_detail_004_kani=true&JigyosyoCd=0173200247-00&ServiceCd=410&Type=search" }, "geometry": { "type": "Point", "coordinates": [ 142.345266700000025, 44.4835674 ] } },
{ "type": "Feature", "properties": { "内容": "はぼろ調剤薬局【特定福祉用具販売】北海道苫前郡羽幌町栄町103番地47", "url2": "https://www.kaigokensaku.mhlw.go.jp/01/index.php?action_kouhyou_detail_004_kani=true&JigyosyoCd=0146440532-00&ServiceCd=410&Type=search" }, "geometry": { "type": "Point", "coordinates": [ 141.695896229499795, 44.354316935850406 ] } },
{ "type": "Feature", "properties": { "内容": "道北エア・ウォーター株式会社浜頓別プロパンセンター【特定福祉用具販売】北海道枝幸郡浜頓別町智福２丁目２９", "url2": "https://www.kaigokensaku.mhlw.go.jp/01/index.php?action_kouhyou_detail_004_kani=true&JigyosyoCd=0176701076-00&ServiceCd=410&Type=search" }, "geometry": { "type": "Point", "coordinates": [ 142.3563277, 45.1448199 ] } },
{ "type": "Feature", "properties": { "内容": "エア・ウォーター・ライフソリューション株式会社　浜頓別サービスセンター【特定福祉用具販売】北海道枝幸郡浜頓別町智福２丁目２９", "url2": "https://www.kaigokensaku.mhlw.go.jp/01/index.php?action_kouhyou_detail_004_kani=true&JigyosyoCd=0176711182-00&ServiceCd=410&Type=search" }, "geometry": { "type": "Point", "coordinates": [ 142.3563277, 45.1448199 ] } },
{ "type": "Feature", "properties": { "内容": "岩津薬房株式会社【特定福祉用具販売】北海道枝幸郡枝幸町新栄町４７４２番地", "url2": "https://www.kaigokensaku.mhlw.go.jp/01/index.php?action_kouhyou_detail_004_kani=true&JigyosyoCd=0176700177-00&ServiceCd=410&Type=search" }, "geometry": { "type": "Point", "coordinates": [ 142.581524599999966, 44.9403219 ] } },
{ "type": "Feature", "properties": { "内容": "株式会社ナガタ【特定福祉用具販売】北海道斜里郡斜里町文光町48番地２０", "url2": "https://www.kaigokensaku.mhlw.go.jp/01/index.php?action_kouhyou_detail_004_kani=true&JigyosyoCd=0175300516-00&ServiceCd=410&Type=search" }, "geometry": { "type": "Point", "coordinates": [ 144.660315345368986, 43.906000753682434 ] } },
{ "type": "Feature", "properties": { "内容": "有限会社　ウェルネスイシイ【特定福祉用具販売】斜里郡清里町水元町8番地１", "url2": "https://www.kaigokensaku.mhlw.go.jp/01/index.php?action_kouhyou_detail_004_kani=true&JigyosyoCd=0175300144-00&ServiceCd=410&Type=search" }, "geometry": { "type": "Point", "coordinates": [ 144.595470200000022, 43.8397379 ] } },
{ "type": "Feature", "properties": { "内容": "福祉用具ショップ小清水【特定福祉用具販売】北海道斜里郡小清水町字中里263番地", "url2": "https://www.kaigokensaku.mhlw.go.jp/01/index.php?action_kouhyou_detail_004_kani=true&JigyosyoCd=0175300821-00&ServiceCd=410&Type=search" }, "geometry": { "type": "Point", "coordinates": [ 144.4870181, 43.8836881 ] } },
{ "type": "Feature", "properties": { "内容": "有限会社ゆもと【特定福祉用具販売】北海道常呂郡佐呂間町字永代町８９番地", "url2": "https://www.kaigokensaku.mhlw.go.jp/01/index.php?action_kouhyou_detail_004_kani=true&JigyosyoCd=0175400316-00&ServiceCd=410&Type=search" }, "geometry": { "type": "Point", "coordinates": [ 143.775355399999967, 44.0171282 ] } },
{ "type": "Feature", "properties": { "内容": "遠軽町社協福祉用具貸与事業所【特定福祉用具販売】紋別郡遠軽町1条通北1丁目1番地１　遠軽町保健福祉総合センター内", "url2": "https://www.kaigokensaku.mhlw.go.jp/01/index.php?action_kouhyou_detail_004_kani=true&JigyosyoCd=0175400381-00&ServiceCd=410&Type=search" }, "geometry": { "type": "Point", "coordinates": [ 143.52976620000004, 44.0633838 ] } },
{ "type": "Feature", "properties": { "内容": "有限会社フレッシュケアーいわた【特定福祉用具販売】紋別郡興部町字興部109", "url2": "https://www.kaigokensaku.mhlw.go.jp/01/index.php?action_kouhyou_detail_004_kani=true&JigyosyoCd=0175100114-00&ServiceCd=410&Type=search" }, "geometry": { "type": "Point", "coordinates": [ 143.127450555819678, 44.469881312510097 ] } },
{ "type": "Feature", "properties": { "内容": "株式会社ウェル福祉用具貸与販売事業所【特定福祉用具販売】北海道白老郡白老町東町2丁目4番12号白老高齢者複合施設内1階", "url2": "https://www.kaigokensaku.mhlw.go.jp/01/index.php?action_kouhyou_detail_004_kani=true&JigyosyoCd=0173601949-00&ServiceCd=410&Type=search" }, "geometry": { "type": "Point", "coordinates": [ 141.365248699999938, 42.5565965 ] } },
{ "type": "Feature", "properties": { "内容": "げんき福祉用具貸与事業所【特定福祉用具販売】北海道白老郡白老町大町2丁目1番21号", "url2": "https://www.kaigokensaku.mhlw.go.jp/01/index.php?action_kouhyou_detail_004_kani=true&JigyosyoCd=0173600560-00&ServiceCd=410&Type=search" }, "geometry": { "type": "Point", "coordinates": [ 141.3573434, 42.552643 ] } },
{ "type": "Feature", "properties": { "内容": "有限会社　きたはし工房介護部【特定福祉用具販売】北海道勇払郡むかわ町松風1-37", "url2": "https://www.kaigokensaku.mhlw.go.jp/01/index.php?action_kouhyou_detail_004_kani=true&JigyosyoCd=0173600941-00&ServiceCd=410&Type=search" }, "geometry": { "type": "Point", "coordinates": [ 141.928671907511841, 42.575852368285517 ] } },
{ "type": "Feature", "properties": { "内容": "福祉用具レンタル・販売事業所Lifetime【特定福祉用具販売】北海道勇払郡むかわ町花園2丁目45番地神野AP21号", "url2": "https://www.kaigokensaku.mhlw.go.jp/01/index.php?action_kouhyou_detail_004_kani=true&JigyosyoCd=0173629817-00&ServiceCd=410&Type=search" }, "geometry": { "type": "Point", "coordinates": [ 141.9323872, 42.5759197 ] } },
{ "type": "Feature", "properties": { "内容": "福祉用具レンタル・販売事業所GRACE【特定福祉用具販売】北海道沙流郡日高町門別本町６２－１", "url2": "https://www.kaigokensaku.mhlw.go.jp/01/index.php?action_kouhyou_detail_004_kani=true&JigyosyoCd=0173801366-00&ServiceCd=410&Type=search" }, "geometry": { "type": "Point", "coordinates": [ 142.072856800000011, 42.4789168 ] } },
{ "type": "Feature", "properties": { "内容": "有限会社丸勝西村金物店　介護福祉事業部【特定福祉用具販売】北海道新冠郡新冠町字北星町18-9", "url2": "https://www.kaigokensaku.mhlw.go.jp/01/index.php?action_kouhyou_detail_004_kani=true&JigyosyoCd=0173801481-00&ServiceCd=410&Type=search" }, "geometry": { "type": "Point", "coordinates": [ 142.3137428, 42.365444900000014 ] } },
{ "type": "Feature", "properties": { "内容": "有限会社ハマシタ【特定福祉用具販売】浦河郡浦河町築地３丁目４番２号", "url2": "https://www.kaigokensaku.mhlw.go.jp/01/index.php?action_kouhyou_detail_004_kani=true&JigyosyoCd=0173800319-00&ServiceCd=410&Type=search" }, "geometry": { "type": "Point", "coordinates": [ 142.765209199999958, 42.1734791 ] } },
{ "type": "Feature", "properties": { "内容": "福祉ショップべてる【特定福祉用具販売】北海道浦河郡浦河町築地3丁目5番21号", "url2": "https://www.kaigokensaku.mhlw.go.jp/01/index.php?action_kouhyou_detail_004_kani=true&JigyosyoCd=0173801507-00&ServiceCd=410&Type=search" }, "geometry": { "type": "Point", "coordinates": [ 142.765935399999989, 42.1739034 ] } },
{ "type": "Feature", "properties": { "内容": "有限会社　酒井太陽堂薬房【特定福祉用具販売】北海道様似郡様似町大通２丁目１番地", "url2": "https://www.kaigokensaku.mhlw.go.jp/01/index.php?action_kouhyou_detail_004_kani=true&JigyosyoCd=0173800210-00&ServiceCd=410&Type=search" }, "geometry": { "type": "Point", "coordinates": [ 142.935916099999986, 42.1264527 ] } },
{ "type": "Feature", "properties": { "内容": "株式会社丸正藤原商店介護福祉事業部【特定福祉用具販売】北海道日高郡新ひだか町静内緑町７丁目１－２６", "url2": "https://www.kaigokensaku.mhlw.go.jp/01/index.php?action_kouhyou_detail_004_kani=true&JigyosyoCd=0173801127-00&ServiceCd=410&Type=search" }, "geometry": { "type": "Point", "coordinates": [ 142.375141753442449, 42.338146195201887 ] } },
{ "type": "Feature", "properties": { "内容": "株式会社武岡商店　介護福祉事業部【特定福祉用具販売】北海道日高郡新ひだか町静内吉野町１－１－４１", "url2": "https://www.kaigokensaku.mhlw.go.jp/01/index.php?action_kouhyou_detail_004_kani=true&JigyosyoCd=0173800426-00&ServiceCd=410&Type=search" }, "geometry": { "type": "Point", "coordinates": [ 142.366888099999983, 42.3376842 ] } },
{ "type": "Feature", "properties": { "内容": "株式会社静内薬局【特定福祉用具販売】日高郡新ひだか町静内吉野町１丁目1-8", "url2": "https://www.kaigokensaku.mhlw.go.jp/01/index.php?action_kouhyou_detail_004_kani=true&JigyosyoCd=0173801556-00&ServiceCd=410&Type=search" }, "geometry": { "type": "Point", "coordinates": [ 142.3665138, 42.3383708 ] } },
{ "type": "Feature", "properties": { "内容": "株式会社　中村薬局　介護事業部【特定福祉用具販売】北海道日高郡新ひだか町三石港町５９番地", "url2": "https://www.kaigokensaku.mhlw.go.jp/01/index.php?action_kouhyou_detail_004_kani=true&JigyosyoCd=0143840510-00&ServiceCd=410&Type=search" }, "geometry": { "type": "Point", "coordinates": [ 142.550173300000012, 42.250607 ] } },
{ "type": "Feature", "properties": { "内容": "ケアライン合同会社【特定福祉用具販売】北海道河東郡音更町北鈴蘭南5丁目6番地2", "url2": "https://www.kaigokensaku.mhlw.go.jp/01/index.php?action_kouhyou_detail_004_kani=true&JigyosyoCd=0174702142-00&ServiceCd=410&Type=search" }, "geometry": { "type": "Point", "coordinates": [ 143.188151237434454, 42.958209769588017 ] } },
{ "type": "Feature", "properties": { "内容": "有限会社やまぎし　福祉用具貸与事業所【特定福祉用具販売】上川郡清水町本通３丁目１３番地", "url2": "https://www.kaigokensaku.mhlw.go.jp/01/index.php?action_kouhyou_detail_004_kani=true&JigyosyoCd=0174700930-00&ServiceCd=410&Type=search" }, "geometry": { "type": "Point", "coordinates": [ 142.882231700000034, 43.0149723 ] } },
{ "type": "Feature", "properties": { "内容": "介護ショップはなまる【特定福祉用具販売】北海道河西郡芽室町東5条5丁目2番地１", "url2": "https://www.kaigokensaku.mhlw.go.jp/01/index.php?action_kouhyou_detail_004_kani=true&JigyosyoCd=0174701227-00&ServiceCd=410&Type=search" }, "geometry": { "type": "Point", "coordinates": [ 143.054783, 42.9157268 ] } },
{ "type": "Feature", "properties": { "内容": "ダスキンヘルスレント釧路ステーション【特定福祉用具販売】北海道釧路郡釧路町桂２丁目２９－３", "url2": "https://www.kaigokensaku.mhlw.go.jp/01/index.php?action_kouhyou_detail_004_kani=true&JigyosyoCd=0174101071-00&ServiceCd=410&Type=search" }, "geometry": { "type": "Point", "coordinates": [ 144.40094160000001, 43.0055916 ] } },
{ "type": "Feature", "properties": { "内容": "株式会社メルプ福祉事業部東部営業所【特定福祉用具販売】北海道野付郡別海町別海常盤町138", "url2": "https://www.kaigokensaku.mhlw.go.jp/01/index.php?action_kouhyou_detail_004_kani=true&JigyosyoCd=0174200568-00&ServiceCd=410&Type=search" }, "geometry": { "type": "Point", "coordinates": [ 145.122598399999987, 43.3934043 ] } },
{ "type": "Feature", "properties": { "内容": "介護ショップケア太郎【特定福祉用具販売】北海道野付郡別海町別海西本町9ファミリーショップMORIKAWA", "url2": "https://www.kaigokensaku.mhlw.go.jp/01/index.php?action_kouhyou_detail_004_kani=true&JigyosyoCd=0174200550-00&ServiceCd=410&Type=search" }, "geometry": { "type": "Point", "coordinates": [ 145.1247621, 43.3927933 ] } },
{ "type": "Feature", "properties": { "内容": "アズ介護サービス　ファミリア【特定福祉用具販売】北海道標津郡中標津町東5条南1丁目1－1ピアビル1階", "url2": "https://www.kaigokensaku.mhlw.go.jp/01/index.php?action_kouhyou_detail_004_kani=true&JigyosyoCd=0174200501-00&ServiceCd=410&Type=search" }, "geometry": { "type": "Point", "coordinates": [ 144.978577299999984, 43.551143 ] } }
]
}
