{
"type": "FeatureCollection",
"name": "geo_01_介護老人保健施設",
"crs": { "type": "name", "properties": { "name": "urn:ogc:def:crs:OGC:1.3:CRS84" } },
"features": [
{ "type": "Feature", "properties": { "内容": "介護老人保健施設　フォーシーズン山鼻【介護老人保健施設】北海道札幌市中央区南１７条西９丁目１-１３", "url": "https://www.kaigokensaku.mhlw.go.jp/01/index.php?action_kouhyou_detail_004_kani=true&JigyosyoCd=0150180057-00&ServiceCd=520&Type=search", "url2": "http://fourseason.or.jp/" }, "geometry": { "type": "Point", "coordinates": [ 141.346576274868795, 43.037107198070345 ] } },
{ "type": "Feature", "properties": { "内容": "介護老人保健施設けあ・ばんけい【介護老人保健施設】北海道札幌市中央区盤渓232番地7", "url": "https://www.kaigokensaku.mhlw.go.jp/01/index.php?action_kouhyou_detail_004_kani=true&JigyosyoCd=0170103675-00&ServiceCd=520&Type=search", "url2": "http://www.carebankei.jp" }, "geometry": { "type": "Point", "coordinates": [ 141.2772013, 43.0326498 ] } },
{ "type": "Feature", "properties": { "内容": "慈啓会老人保健施設【介護老人保健施設】札幌市中央区旭ヶ丘5丁目6-48", "url": "https://www.kaigokensaku.mhlw.go.jp/01/index.php?action_kouhyou_detail_004_kani=true&JigyosyoCd=0150180032-00&ServiceCd=520&Type=search", "url2": "http://www.sapporojikeikai.or.jp" }, "geometry": { "type": "Point", "coordinates": [ 141.322525199999973, 43.0362424 ] } },
{ "type": "Feature", "properties": { "内容": "老人保健施設　えん【介護老人保健施設】札幌市中央区宮の森１２３８番地１", "url": "https://www.kaigokensaku.mhlw.go.jp/01/index.php?action_kouhyou_detail_004_kani=true&JigyosyoCd=0150180040-00&ServiceCd=520&Type=search", "url2": "http://www.miyanomori-hp.or.jp/" }, "geometry": { "type": "Point", "coordinates": [ 141.287467099999958, 43.0387132 ] } },
{ "type": "Feature", "properties": { "内容": "介護療養型老人保健施設宮の森【介護老人保健施設】北海道札幌市中央区宮の森1237番地1", "url": "https://www.kaigokensaku.mhlw.go.jp/01/index.php?action_kouhyou_detail_004_kani=true&JigyosyoCd=0150180065-00&ServiceCd=520&Type=search", "url2": "http://www.miyanomori-hp.or.jp" }, "geometry": { "type": "Point", "coordinates": [ 141.292137799999978, 43.0570357 ] } },
{ "type": "Feature", "properties": { "内容": "介護老人保健施設札幌北翔館そとこと【介護老人保健施設】札幌市北区屯田９条３丁目３番地２", "url": "https://www.kaigokensaku.mhlw.go.jp/01/index.php?action_kouhyou_detail_004_kani=true&JigyosyoCd=0150280063-00&ServiceCd=520&Type=search", "url2": "http://hokushokai.or.jp/sotokoto/" }, "geometry": { "type": "Point", "coordinates": [ 141.341194500000029, 43.143107 ] } },
{ "type": "Feature", "properties": { "内容": "介護老人保健施設ら・ぱーす【介護老人保健施設】北海道札幌市北区篠路町上篠路6番286", "url": "https://www.kaigokensaku.mhlw.go.jp/01/index.php?action_kouhyou_detail_004_kani=true&JigyosyoCd=0150280097-00&ServiceCd=520&Type=search", "url2": "http://www.teishinkai.jp/lapaz/" }, "geometry": { "type": "Point", "coordinates": [ 141.382314100000031, 43.1303321 ] } },
{ "type": "Feature", "properties": { "内容": "介護老人保健施設　セージュ新ことに【介護老人保健施設】札幌市北区新琴似町787番地2,3介護老人保健施設セージュ新ことに", "url": "https://www.kaigokensaku.mhlw.go.jp/01/index.php?action_kouhyou_detail_004_kani=true&JigyosyoCd=0150280055-00&ServiceCd=520&Type=search", "url2": "http://www.seijyu-shin.jp/" }, "geometry": { "type": "Point", "coordinates": [ 141.295524500000056, 43.130885500000019 ] } },
{ "type": "Feature", "properties": { "内容": "介護老人保健施設　プラットホーム【介護老人保健施設】札幌市北区あいの里２条１丁目２０－１", "url": "https://www.kaigokensaku.mhlw.go.jp/01/index.php?action_kouhyou_detail_004_kani=true&JigyosyoCd=0150280113-00&ServiceCd=520&Type=search", "url2": "http://www.aishinkan.jp/platform" }, "geometry": { "type": "Point", "coordinates": [ 141.385192700000061, 43.1595319 ] } },
{ "type": "Feature", "properties": { "内容": "介護老人保健施設　茨戸アカシアハイツ【介護老人保健施設】札幌市北区東茨戸２条３丁目２番５号", "url": "https://www.kaigokensaku.mhlw.go.jp/01/index.php?action_kouhyou_detail_004_kani=true&JigyosyoCd=0150280014-00&ServiceCd=520&Type=search", "url2": "http://www.keiyu-kai.org" }, "geometry": { "type": "Point", "coordinates": [ 141.358661500000039, 43.163716200000017 ] } },
{ "type": "Feature", "properties": { "内容": "介護老人保健施設　サンビオーズ新琴似【介護老人保健施設】札幌市北区新琴似2条5丁目1-1", "url": "https://www.kaigokensaku.mhlw.go.jp/01/index.php?action_kouhyou_detail_004_kani=true&JigyosyoCd=0150280139-00&ServiceCd=520&Type=search", "url2": "http://www.aoikai.jp/symbiose/" }, "geometry": { "type": "Point", "coordinates": [ 141.32086819999995, 43.1065393 ] } },
{ "type": "Feature", "properties": { "内容": "社会医療法人豊生会　介護老人保健施設ひまわり【介護老人保健施設】札幌市東区東苗穂4条1丁目1-68", "url": "https://www.kaigokensaku.mhlw.go.jp/01/index.php?action_kouhyou_detail_004_kani=true&JigyosyoCd=0150280071-00&ServiceCd=520&Type=search", "url2": "https://www.houseikai.or.jp/himawari/" }, "geometry": { "type": "Point", "coordinates": [ 141.400883459260939, 43.088553766634455 ] } },
{ "type": "Feature", "properties": { "内容": "介護老人保健施設　あすかHOUSE東苗穂【介護老人保健施設】北海道札幌市東区東苗穂６条３丁目１１番５５号", "url": "https://www.kaigokensaku.mhlw.go.jp/01/index.php?action_kouhyou_detail_004_kani=true&JigyosyoCd=0150280121-00&ServiceCd=520&Type=search", "url2": "https://asuka-gp.or.jp/asukahouse/" }, "geometry": { "type": "Point", "coordinates": [ 141.413106749737608, 43.089819232103373 ] } },
{ "type": "Feature", "properties": { "内容": "介護老人保健施設おおぞら【介護老人保健施設】北海道札幌市東区丘珠町167番地10", "url": "https://www.kaigokensaku.mhlw.go.jp/01/index.php?action_kouhyou_detail_004_kani=true&JigyosyoCd=0150280147-00&ServiceCd=520&Type=search", "url2": "https://sapporo-oozora.com/" }, "geometry": { "type": "Point", "coordinates": [ 141.384794, 43.107614599999984 ] } },
{ "type": "Feature", "properties": { "内容": "介護老人保健施設もえれパークサイド【介護老人保健施設】札幌市東区中沼町１０５－４３", "url": "https://www.kaigokensaku.mhlw.go.jp/01/index.php?action_kouhyou_detail_004_kani=true&JigyosyoCd=0150280022-00&ServiceCd=520&Type=search", "url2": "https://www.moereparkside.jp/" }, "geometry": { "type": "Point", "coordinates": [ 141.421330200000057, 43.1287982 ] } },
{ "type": "Feature", "properties": { "内容": "医療法人徳洲会　介護老人保健施設徳洲苑なえぼ【介護老人保健施設】北海道札幌市東区北7条東18丁目2番30号", "url": "https://www.kaigokensaku.mhlw.go.jp/01/index.php?action_kouhyou_detail_004_kani=true&JigyosyoCd=0150280089-00&ServiceCd=520&Type=search", "url2": "http://www.tokushukai.or.jp/hsp/r_naebo/index.html" }, "geometry": { "type": "Point", "coordinates": [ 141.381296, 43.07527 ] } },
{ "type": "Feature", "properties": { "内容": "勤医協老人保健施設柏ヶ丘【介護老人保健施設】札幌市白石区平和通7丁目南5-１勤医協老人保健施設　柏ヶ丘", "url": "https://www.kaigokensaku.mhlw.go.jp/01/index.php?action_kouhyou_detail_004_kani=true&JigyosyoCd=0150380137-00&ServiceCd=520&Type=search", "url2": "http://www.rouken-kashiwa.jp/" }, "geometry": { "type": "Point", "coordinates": [ 141.4172744, 43.0470877 ] } },
{ "type": "Feature", "properties": { "内容": "介護老人保健施設　生きがい【介護老人保健施設】札幌市白石区北郷2条11丁目3番20号", "url": "https://www.kaigokensaku.mhlw.go.jp/01/index.php?action_kouhyou_detail_004_kani=true&JigyosyoCd=0150380103-00&ServiceCd=520&Type=search", "url2": "http://www.kokeikai.com" }, "geometry": { "type": "Point", "coordinates": [ 141.432906099999968, 43.0501965 ] } },
{ "type": "Feature", "properties": { "内容": "介護老人保健施設ぼだい樹【介護老人保健施設】北海道札幌市白石区川下577番地9", "url": "https://www.kaigokensaku.mhlw.go.jp/01/index.php?action_kouhyou_detail_004_kani=true&JigyosyoCd=0150380129-00&ServiceCd=520&Type=search", "url2": "http://www.kyoueikai.or.jp/" }, "geometry": { "type": "Point", "coordinates": [ 141.443173500000057, 43.0676006 ] } },
{ "type": "Feature", "properties": { "内容": "介護老人保健施設コミュニティホーム白石【介護老人保健施設】札幌市白石区本郷通３丁目南１番３５号", "url": "https://www.kaigokensaku.mhlw.go.jp/01/index.php?action_kouhyou_detail_004_kani=true&JigyosyoCd=0150380012-00&ServiceCd=520&Type=search", "url2": "http://www.keijinkai.com/c-shiroishi/" }, "geometry": { "type": "Point", "coordinates": [ 141.404186023942543, 43.045988435506594 ] } },
{ "type": "Feature", "properties": { "内容": "介護老人保健施設　豊平北翔館　豊翔の郷【介護老人保健施設】札幌市豊平区旭町５丁目５－１", "url": "https://www.kaigokensaku.mhlw.go.jp/01/index.php?action_kouhyou_detail_004_kani=true&JigyosyoCd=0150580033-00&ServiceCd=520&Type=search", "url2": "http://www.hokushokai.or.jp" }, "geometry": { "type": "Point", "coordinates": [ 141.366690537434323, 43.044610254465169 ] } },
{ "type": "Feature", "properties": { "内容": "介護老人保健施設　アメニティ西岡【介護老人保健施設】札幌市豊平区西岡４条４丁目１番５号", "url": "https://www.kaigokensaku.mhlw.go.jp/01/index.php?action_kouhyou_detail_004_kani=true&JigyosyoCd=0150380020-00&ServiceCd=520&Type=search", "url2": "http://www.keiwakai.jp/" }, "geometry": { "type": "Point", "coordinates": [ 141.389218033835022, 43.016380760368847 ] } },
{ "type": "Feature", "properties": { "内容": "介護老人保健施設ライフふくまつ【介護老人保健施設】北海道札幌市豊平区西岡４９７－１０", "url": "https://www.kaigokensaku.mhlw.go.jp/01/index.php?action_kouhyou_detail_004_kani=true&JigyosyoCd=0150580090-00&ServiceCd=520&Type=search", "url2": "http://www.keiwakai.jp/" }, "geometry": { "type": "Point", "coordinates": [ 141.369448499999976, 42.989865 ] } },
{ "type": "Feature", "properties": { "内容": "介護老人保健施設　ノテ日本医療だ額リハビリ【介護老人保健施設】月寒東3条11丁目1-55", "url": "https://www.kaigokensaku.mhlw.go.jp/01/index.php?action_kouhyou_detail_004_kani=true&JigyosyoCd=0150580124-00&ServiceCd=520&Type=search", "url2": "https://www.note.or.jp" }, "geometry": { "type": "Point", "coordinates": [ 141.414840492065423, 43.029064430129601 ] } },
{ "type": "Feature", "properties": { "内容": "北海道病院附属介護老人保健施設【介護老人保健施設】札幌市豊平区中の島1条8丁目3番18号", "url": "https://www.kaigokensaku.mhlw.go.jp/01/index.php?action_kouhyou_detail_004_kani=true&JigyosyoCd=0150580017-00&ServiceCd=520&Type=search", "url2": "https://hokkaido.jcho.go.jp/rouken/" }, "geometry": { "type": "Point", "coordinates": [ 141.356083899999931, 43.0257499 ] } },
{ "type": "Feature", "properties": { "内容": "介護老人保健施設　リラコート愛全【介護老人保健施設】札幌市南区川沿13条2丁目4-45", "url": "https://www.kaigokensaku.mhlw.go.jp/01/index.php?action_kouhyou_detail_004_kani=true&JigyosyoCd=0150180016-00&ServiceCd=520&Type=search", "url2": "http://www.aizenkai.or.jp" }, "geometry": { "type": "Point", "coordinates": [ 141.333815800000025, 42.9783848 ] } },
{ "type": "Feature", "properties": { "内容": "介護老人保健施設アートヒルズ【介護老人保健施設】北海道札幌市南区石山８３７番地４７", "url": "https://www.kaigokensaku.mhlw.go.jp/01/index.php?action_kouhyou_detail_004_kani=true&JigyosyoCd=0150380079-00&ServiceCd=520&Type=search", "url2": "http://www.aizenkai.or.jp" }, "geometry": { "type": "Point", "coordinates": [ 141.340671499999985, 42.9588068 ] } },
{ "type": "Feature", "properties": { "内容": "介護老人保健施設　フォーシーズン真駒内【介護老人保健施設】北海道札幌市南区真駒内南町4丁目3番3号", "url": "https://www.kaigokensaku.mhlw.go.jp/01/index.php?action_kouhyou_detail_004_kani=true&JigyosyoCd=0150580025-00&ServiceCd=520&Type=search", "url2": "https://fourseason.or.jp/" }, "geometry": { "type": "Point", "coordinates": [ 141.351908500000036, 42.980674 ] } },
{ "type": "Feature", "properties": { "内容": "介護老人保健施設　フォーシーズン南34条【介護老人保健施設】北海道札幌市南区南34条西10丁目3番35号", "url": "https://www.kaigokensaku.mhlw.go.jp/01/index.php?action_kouhyou_detail_004_kani=true&JigyosyoCd=0150580082-00&ServiceCd=520&Type=search", "url2": "http://fourseason.or.jp/" }, "geometry": { "type": "Point", "coordinates": [ 141.347657799999979, 43.012487 ] } },
{ "type": "Feature", "properties": { "内容": "医療法人　晴生会　介護老人保健施設グラーネ北の沢【介護老人保健施設】北海道札幌市南区北の沢1804番52", "url": "https://www.kaigokensaku.mhlw.go.jp/01/index.php?action_kouhyou_detail_004_kani=true&JigyosyoCd=0150580074-00&ServiceCd=520&Type=search", "url2": "https://www.aoikai.jp/grane/" }, "geometry": { "type": "Point", "coordinates": [ 141.3082306, 43.0079501 ] } },
{ "type": "Feature", "properties": { "内容": "ヴェラス八軒【介護老人保健施設】八軒６条東４丁目4-22", "url": "https://www.kaigokensaku.mhlw.go.jp/01/index.php?action_kouhyou_detail_004_kani=true&JigyosyoCd=0150480127-00&ServiceCd=520&Type=search", "url2": null }, "geometry": { "type": "Point", "coordinates": [ 141.3229213, 43.0837063 ] } },
{ "type": "Feature", "properties": { "内容": "介護老人保健施設セージュ山の手【介護老人保健施設】北海道札幌市西区山の手4条5丁目3-1", "url": "https://www.kaigokensaku.mhlw.go.jp/01/index.php?action_kouhyou_detail_004_kani=true&JigyosyoCd=0150480010-00&ServiceCd=520&Type=search", "url2": "https://www.seijyu-yama.jp/" }, "geometry": { "type": "Point", "coordinates": [ 141.294003500000031, 43.0704561 ] } },
{ "type": "Feature", "properties": { "内容": "介護老人保健施設　エル・クォール平和【介護老人保健施設】札幌市西区平和２条１１丁目２番５号", "url": "https://www.kaigokensaku.mhlw.go.jp/01/index.php?action_kouhyou_detail_004_kani=true&JigyosyoCd=0150480077-00&ServiceCd=520&Type=search", "url2": "http://www.seiwa-kai.or.jp/elqol" }, "geometry": { "type": "Point", "coordinates": [ 141.24383, 43.0567205 ] } },
{ "type": "Feature", "properties": { "内容": "介護老人保健施設ぴあケアさくら【介護老人保健施設】北海道札幌市西区小別沢９７番地", "url": "https://www.kaigokensaku.mhlw.go.jp/01/index.php?action_kouhyou_detail_004_kani=true&JigyosyoCd=0150480085-00&ServiceCd=520&Type=search", "url2": "http://piacare.sub.jp/" }, "geometry": { "type": "Point", "coordinates": [ 141.267377622753912, 43.049061200767269 ] } },
{ "type": "Feature", "properties": { "内容": "介護老人保健施設平和の杜【介護老人保健施設】北海道札幌市西区平和420番地", "url": "https://www.kaigokensaku.mhlw.go.jp/01/index.php?action_kouhyou_detail_004_kani=true&JigyosyoCd=0150480119-00&ServiceCd=520&Type=search", "url2": "https://www.morinokai1001.jp" }, "geometry": { "type": "Point", "coordinates": [ 141.226036673364433, 43.057739993028257 ] } },
{ "type": "Feature", "properties": { "内容": "介護老人保健施設ナーシングヴィラ大谷地【介護老人保健施設】札幌市厚別区大谷地東5丁目7番10号", "url": "https://www.kaigokensaku.mhlw.go.jp/01/index.php?action_kouhyou_detail_004_kani=true&JigyosyoCd=0150380038-00&ServiceCd=520&Type=search", "url2": "http://www.ohyachi-hp.or.jp/villa/" }, "geometry": { "type": "Point", "coordinates": [ 141.457518331144001, 43.022923516784125 ] } },
{ "type": "Feature", "properties": { "内容": "厚別老人保健施設ディ・グリューネン【介護老人保健施設】札幌市厚別区下野幌38-18", "url": "https://www.kaigokensaku.mhlw.go.jp/01/index.php?action_kouhyou_detail_004_kani=true&JigyosyoCd=0150380046-00&ServiceCd=520&Type=search", "url2": "http://www.d-grunen.com" }, "geometry": { "type": "Point", "coordinates": [ 141.502172800000039, 43.039333 ] } },
{ "type": "Feature", "properties": { "内容": "介護老人保健施設あつべつ【介護老人保健施設】札幌市厚別区厚別町山本750番地6号", "url": "https://www.kaigokensaku.mhlw.go.jp/01/index.php?action_kouhyou_detail_004_kani=true&JigyosyoCd=0150380087-00&ServiceCd=520&Type=search", "url2": "https://www.eiwakai.or.jp/" }, "geometry": { "type": "Point", "coordinates": [ 141.462566899999956, 43.0585439 ] } },
{ "type": "Feature", "properties": { "内容": "医療法人徳洲会　介護老人保健施設コスモス【介護老人保健施設】札幌市厚別区厚別町山本１０６３―２８", "url": "https://www.kaigokensaku.mhlw.go.jp/01/index.php?action_kouhyou_detail_004_kani=true&JigyosyoCd=0150380095-00&ServiceCd=520&Type=search", "url2": "http://www.cosmoskaigo.com/" }, "geometry": { "type": "Point", "coordinates": [ 141.460436100000038, 43.0671567 ] } },
{ "type": "Feature", "properties": { "内容": "介護老人保健施設　手稲あんじゅ【介護老人保健施設】札幌市手稲区稲穂5条2丁目6番1号介護老人保健施設　手稲あんじゅ", "url": "https://www.kaigokensaku.mhlw.go.jp/01/index.php?action_kouhyou_detail_004_kani=true&JigyosyoCd=0150480051-00&ServiceCd=520&Type=search", "url2": "http://teinelotuskai.com/" }, "geometry": { "type": "Point", "coordinates": [ 141.227803, 43.1175687 ] } },
{ "type": "Feature", "properties": { "内容": "介護老人保健施設　愛の里【介護老人保健施設】北海道札幌市手稲区西宮の沢1条4丁目14番5号", "url": "https://www.kaigokensaku.mhlw.go.jp/01/index.php?action_kouhyou_detail_004_kani=true&JigyosyoCd=0150480028-00&ServiceCd=520&Type=search", "url2": "http://www.tanakamedical.net/ainosato/index.html" }, "geometry": { "type": "Point", "coordinates": [ 141.2629207, 43.1071152 ] } },
{ "type": "Feature", "properties": { "内容": "介護老人保健施設　ライフほしおき【介護老人保健施設】札幌市手稲区星置1条4丁目2番10号", "url": "https://www.kaigokensaku.mhlw.go.jp/01/index.php?action_kouhyou_detail_004_kani=true&JigyosyoCd=0150480069-00&ServiceCd=520&Type=search", "url2": "http://tenboukai.com/" }, "geometry": { "type": "Point", "coordinates": [ 141.208753600000023, 43.132533 ] } },
{ "type": "Feature", "properties": { "内容": "介護老人保健施設　ほくと【介護老人保健施設】札幌市手稲区手稲山口550番2", "url": "https://www.kaigokensaku.mhlw.go.jp/01/index.php?action_kouhyou_detail_004_kani=true&JigyosyoCd=0150480036-00&ServiceCd=520&Type=search", "url2": "http://www.hokubukai.or.jp/" }, "geometry": { "type": "Point", "coordinates": [ 141.210103, 43.1414931 ] } },
{ "type": "Feature", "properties": { "内容": "介護老人保健施設　清田北翔館　まいあの里【介護老人保健施設】札幌市清田区里塚２条４丁目２番５３号", "url": "https://www.kaigokensaku.mhlw.go.jp/01/index.php?action_kouhyou_detail_004_kani=true&JigyosyoCd=0150580058-00&ServiceCd=520&Type=search", "url2": "http://www.hokushokai.or.jp/maianosato/" }, "geometry": { "type": "Point", "coordinates": [ 141.4638185, 42.9840991 ] } },
{ "type": "Feature", "properties": { "内容": "介護老人保健施設ノテげんきのでる里【介護老人保健施設】札幌市清田区真栄434番地6", "url": "https://www.kaigokensaku.mhlw.go.jp/01/index.php?action_kouhyou_detail_004_kani=true&JigyosyoCd=0150380061-00&ServiceCd=520&Type=search", "url2": "http://www.note.or.jp/facilities/type/02/" }, "geometry": { "type": "Point", "coordinates": [ 141.432748016007963, 42.972576404765874 ] } },
{ "type": "Feature", "properties": { "内容": "医療法人社団　エス・エス・ジェイ　介護老人保健施設　北野の四季【介護老人保健施設】北海道札幌市清田区北野１条２丁目１１番５０号", "url": "https://www.kaigokensaku.mhlw.go.jp/01/index.php?action_kouhyou_detail_004_kani=true&JigyosyoCd=0150380145-00&ServiceCd=520&Type=search", "url2": "http://ssj-h.com/kitanonoshiki/" }, "geometry": { "type": "Point", "coordinates": [ 141.430967199999913, 43.0064899 ] } },
{ "type": "Feature", "properties": { "内容": "介護老人保健施設やわらぎ苑西桔梗【介護老人保健施設】函館市西桔梗町735番地4", "url": "https://www.kaigokensaku.mhlw.go.jp/01/index.php?action_kouhyou_detail_004_kani=true&JigyosyoCd=0151480084-00&ServiceCd=520&Type=search", "url2": "http://www.yawaragikai.com/nishi/" }, "geometry": { "type": "Point", "coordinates": [ 140.716369, 41.8451153 ] } },
{ "type": "Feature", "properties": { "内容": "介護老人保健施設ジョイウェルス桔梗【介護老人保健施設】函館市桔梗町５５７番地", "url": "https://www.kaigokensaku.mhlw.go.jp/01/index.php?action_kouhyou_detail_004_kani=true&JigyosyoCd=0151480035-00&ServiceCd=520&Type=search", "url2": "http://www.seijinkai-mori.jp/" }, "geometry": { "type": "Point", "coordinates": [ 140.752973544180293, 41.860313955936526 ] } },
{ "type": "Feature", "properties": { "内容": "介護老人保健施設　響の杜【介護老人保健施設】北海道函館市陣川町９１番地４", "url": "https://www.kaigokensaku.mhlw.go.jp/01/index.php?action_kouhyou_detail_004_kani=true&JigyosyoCd=0151480050-00&ServiceCd=520&Type=search", "url2": "https://hibikino-mori.jp/" }, "geometry": { "type": "Point", "coordinates": [ 140.786462799999981, 41.8255225 ] } },
{ "type": "Feature", "properties": { "内容": "介護老人保健施設ゆとりろ【介護老人保健施設】北海道函館市宝来町14番27号", "url": "https://www.kaigokensaku.mhlw.go.jp/01/index.php?action_kouhyou_detail_004_kani=true&JigyosyoCd=0151480068-00&ServiceCd=520&Type=search", "url2": "https://takahashi-group.jp/" }, "geometry": { "type": "Point", "coordinates": [ 140.721847499999967, 41.7576472 ] } },
{ "type": "Feature", "properties": { "内容": "介護老人保健施設　グランドサン亀田【介護老人保健施設】北海道函館市石川町191番地4", "url": "https://www.kaigokensaku.mhlw.go.jp/01/index.php?action_kouhyou_detail_004_kani=true&JigyosyoCd=0151480019-00&ServiceCd=520&Type=search", "url2": "http://www.hakodate-kameda-hp.com" }, "geometry": { "type": "Point", "coordinates": [ 140.742888589024318, 41.835844023740442 ] } },
{ "type": "Feature", "properties": { "内容": "介護老人保健施設ロイヤルヒルズ日吉【介護老人保健施設】北海道函館市日吉町4丁目7-81", "url": "https://www.kaigokensaku.mhlw.go.jp/01/index.php?action_kouhyou_detail_004_kani=true&JigyosyoCd=0151480027-00&ServiceCd=520&Type=search", "url2": "http://www.tomita-hospital.or.jp" }, "geometry": { "type": "Point", "coordinates": [ 140.795093800000018, 41.8021869 ] } },
{ "type": "Feature", "properties": { "内容": "介護老人保健施設　もも太郎【介護老人保健施設】函館市赤川町388番地1", "url": "https://www.kaigokensaku.mhlw.go.jp/01/index.php?action_kouhyou_detail_004_kani=true&JigyosyoCd=0151480100-00&ServiceCd=520&Type=search", "url2": "http://momo-taro.koseiin.or.jp/" }, "geometry": { "type": "Point", "coordinates": [ 140.768502099999978, 41.8362957 ] } },
{ "type": "Feature", "properties": { "内容": "介護老人保健施設ケンゆのかわ【介護老人保健施設】北海道函館市湯川町3丁目29番15号", "url": "https://www.kaigokensaku.mhlw.go.jp/01/index.php?action_kouhyou_detail_004_kani=true&JigyosyoCd=0151480043-00&ServiceCd=520&Type=search", "url2": "https://ken-yuno.koseiin.or.jp/" }, "geometry": { "type": "Point", "coordinates": [ 140.791242099999977, 41.783655 ] } },
{ "type": "Feature", "properties": { "内容": "老人保健施設マイトリーおたる【介護老人保健施設】北海道小樽市奥沢１丁目２番２号", "url": "https://www.kaigokensaku.mhlw.go.jp/01/index.php?action_kouhyou_detail_004_kani=true&JigyosyoCd=0152080024-00&ServiceCd=520&Type=search", "url2": "maitori@hkg.odn.ne.jp" }, "geometry": { "type": "Point", "coordinates": [ 141.00594209999997, 43.1828933 ] } },
{ "type": "Feature", "properties": { "内容": "社会福祉法人恩賜財団済生会支部北海道済生会小樽老人保健施設はまなす【介護老人保健施設】小樽市塩谷２丁目１７番２５号", "url": "https://www.kaigokensaku.mhlw.go.jp/01/index.php?action_kouhyou_detail_004_kani=true&JigyosyoCd=0152080032-00&ServiceCd=520&Type=search", "url2": "http://www.saiseikai-otaru.jp/" }, "geometry": { "type": "Point", "coordinates": [ 140.9280903, 43.2077556 ] } },
{ "type": "Feature", "properties": { "内容": "介護老人保健施設　望【介護老人保健施設】小樽市望洋台2丁目30番10号", "url": "https://www.kaigokensaku.mhlw.go.jp/01/index.php?action_kouhyou_detail_004_kani=true&JigyosyoCd=0152080057-00&ServiceCd=520&Type=search", "url2": "http://sayaka-nozomi.skr.jp/" }, "geometry": { "type": "Point", "coordinates": [ 141.037343, 43.1652073 ] } },
{ "type": "Feature", "properties": { "内容": "医療法人社団萌水会　老人保健施設モエズガーデン小樽【介護老人保健施設】北海道小樽市奥沢1丁目2番2号", "url": "https://www.kaigokensaku.mhlw.go.jp/01/index.php?action_kouhyou_detail_004_kani=true&JigyosyoCd=0152080073-00&ServiceCd=520&Type=search", "url2": null }, "geometry": { "type": "Point", "coordinates": [ 141.0057888, 43.1829153 ] } },
{ "type": "Feature", "properties": { "内容": "医療法人勉仁会介護老人保健施設ラポール東小樽【介護老人保健施設】小樽市新光２丁目２９番２号", "url": "https://www.kaigokensaku.mhlw.go.jp/01/index.php?action_kouhyou_detail_004_kani=true&JigyosyoCd=0152080016-00&ServiceCd=520&Type=search", "url2": "http://www.nakagaki-hp.or.jp/" }, "geometry": { "type": "Point", "coordinates": [ 141.05229989999998, 43.1683073 ] } },
{ "type": "Feature", "properties": { "内容": "老人保健施設かたくりの郷【介護老人保健施設】北海道旭川市神楽３条４丁目２番１４号", "url": "https://www.kaigokensaku.mhlw.go.jp/01/index.php?action_kouhyou_detail_004_kani=true&JigyosyoCd=0152980082-00&ServiceCd=520&Type=search", "url2": "http://www.dohoku-kinikyo.or.jp" }, "geometry": { "type": "Point", "coordinates": [ 142.348051700000042, 43.7622248 ] } },
{ "type": "Feature", "properties": { "内容": "介護老人保健施設　フェニックス【介護老人保健施設】旭川市豊岡１３条１丁目１番１７号", "url": "https://www.kaigokensaku.mhlw.go.jp/01/index.php?action_kouhyou_detail_004_kani=true&JigyosyoCd=0152980074-00&ServiceCd=520&Type=search", "url2": "http://www.328181.com" }, "geometry": { "type": "Point", "coordinates": [ 142.390141, 43.7711474 ] } },
{ "type": "Feature", "properties": { "内容": "旭川老人保健施設　ふれあい【介護老人保健施設】旭川市錦町18丁目2150番地", "url": "https://www.kaigokensaku.mhlw.go.jp/01/index.php?action_kouhyou_detail_004_kani=true&JigyosyoCd=0152980017-00&ServiceCd=520&Type=search", "url2": "http://www.keishinkai.jp.net/" }, "geometry": { "type": "Point", "coordinates": [ 142.332359799999949, 43.7916903 ] } },
{ "type": "Feature", "properties": { "内容": "介護老人保健施設旭泉苑【介護老人保健施設】旭川市永山4条6丁目3番24号", "url": "https://www.kaigokensaku.mhlw.go.jp/01/index.php?action_kouhyou_detail_004_kani=true&JigyosyoCd=0152980033-00&ServiceCd=520&Type=search", "url2": "http://kyokuhoukai.or.jp" }, "geometry": { "type": "Point", "coordinates": [ 142.409490799999929, 43.79209070000001 ] } },
{ "type": "Feature", "properties": { "内容": "介護老人保健施設旭泉苑　（ユニット型）【介護老人保健施設】北海道旭川市永山四条6丁目3番24号", "url": "https://www.kaigokensaku.mhlw.go.jp/01/index.php?action_kouhyou_detail_004_kani=true&JigyosyoCd=0152980124-00&ServiceCd=520&Type=search", "url2": "http://kyokuhoukai.or.jp" }, "geometry": { "type": "Point", "coordinates": [ 142.409490799999958, 43.7920907 ] } },
{ "type": "Feature", "properties": { "内容": "介護老人保健施設　ことぶき【介護老人保健施設】旭川市東旭川町上兵村35番地5", "url": "https://www.kaigokensaku.mhlw.go.jp/01/index.php?action_kouhyou_detail_004_kani=true&JigyosyoCd=0152980108-00&ServiceCd=520&Type=search", "url2": "http://www.keisenkai.or.jp" }, "geometry": { "type": "Point", "coordinates": [ 142.439013134393349, 43.779830631975976 ] } },
{ "type": "Feature", "properties": { "内容": "老人保健施設さくら館【介護老人保健施設】旭川市４条西４丁目２番１号", "url": "https://www.kaigokensaku.mhlw.go.jp/01/index.php?action_kouhyou_detail_004_kani=true&JigyosyoCd=0152980058-00&ServiceCd=520&Type=search", "url2": "http://www.keiyukai-group.com/sakurakan" }, "geometry": { "type": "Point", "coordinates": [ 142.3458041, 43.7737345 ] } },
{ "type": "Feature", "properties": { "内容": "老人保健施設　グリーンライフ【介護老人保健施設】北海道旭川市神楽岡１４条７丁目１番１号", "url": "https://www.kaigokensaku.mhlw.go.jp/01/index.php?action_kouhyou_detail_004_kani=true&JigyosyoCd=0152980041-00&ServiceCd=520&Type=search", "url2": "https://sousei-hp.com/greenlife/" }, "geometry": { "type": "Point", "coordinates": [ 142.362476199999946, 43.7348758 ] } },
{ "type": "Feature", "properties": { "内容": "医療法人仁友会　介護老人保健施設みやびの森【介護老人保健施設】北海道旭川市東旭川町下兵村320番18", "url": "https://www.kaigokensaku.mhlw.go.jp/01/index.php?action_kouhyou_detail_004_kani=true&JigyosyoCd=0152980132-00&ServiceCd=520&Type=search", "url2": "https://miyabi.jinyukai.jp/" }, "geometry": { "type": "Point", "coordinates": [ 142.432116800000017, 43.7730937 ] } },
{ "type": "Feature", "properties": { "内容": "老人保健施設愛善ハイツ【介護老人保健施設】北海道旭川市春光台4条11丁目5249番地の2老人保健施設　愛善ハイツ", "url": "https://www.kaigokensaku.mhlw.go.jp/01/index.php?action_kouhyou_detail_004_kani=true&JigyosyoCd=0152980066-00&ServiceCd=520&Type=search", "url2": "http://aizenkai-swc.jp/" }, "geometry": { "type": "Point", "coordinates": [ 142.3719585, 43.8316737 ] } },
{ "type": "Feature", "properties": { "内容": "老人保健施設　サニーヒル【介護老人保健施設】旭川市末広８条６丁目５３０７", "url": "https://www.kaigokensaku.mhlw.go.jp/01/index.php?action_kouhyou_detail_004_kani=true&JigyosyoCd=0152980025-00&ServiceCd=520&Type=search", "url2": "http://www.a-fukushi.or.jp/" }, "geometry": { "type": "Point", "coordinates": [ 142.373348399999941, 43.8196834 ] } },
{ "type": "Feature", "properties": { "内容": "介護老人保健施設エバーグリーンハイツ室蘭【介護老人保健施設】室蘭市八丁平１丁目４９番地", "url": "https://www.kaigokensaku.mhlw.go.jp/01/index.php?action_kouhyou_detail_004_kani=true&JigyosyoCd=0153580014-00&ServiceCd=520&Type=search", "url2": "http://www.seiunkai.jp/" }, "geometry": { "type": "Point", "coordinates": [ 141.00729726190184, 42.367320420717967 ] } },
{ "type": "Feature", "properties": { "内容": "介護老人保健施設憩【介護老人保健施設】北海道室蘭市知利別町１丁目４５番地", "url": "https://www.kaigokensaku.mhlw.go.jp/01/index.php?action_kouhyou_detail_004_kani=true&JigyosyoCd=0153580048-00&ServiceCd=520&Type=search", "url2": "http://www.nshp-muroran.or.jp" }, "geometry": { "type": "Point", "coordinates": [ 141.016285694442786, 42.357813075983906 ] } },
{ "type": "Feature", "properties": { "内容": "老人保健施設　母恋【介護老人保健施設】室蘭市新富町１－５－１３", "url": "https://www.kaigokensaku.mhlw.go.jp/01/index.php?action_kouhyou_detail_004_kani=true&JigyosyoCd=0153580030-00&ServiceCd=520&Type=search", "url2": "http://www.bokoi.jp/rouken/" }, "geometry": { "type": "Point", "coordinates": [ 140.98385410000003, 42.3153169 ] } },
{ "type": "Feature", "properties": { "内容": "介護老人保健施設老健くしろ【介護老人保健施設】北海道釧路市昭和190番地4462", "url": "https://www.kaigokensaku.mhlw.go.jp/01/index.php?action_kouhyou_detail_004_kani=true&JigyosyoCd=0154180012-00&ServiceCd=520&Type=search", "url2": "http://www.hjg.jp" }, "geometry": { "type": "Point", "coordinates": [ 144.355828699999961, 43.032423700000045 ] } },
{ "type": "Feature", "properties": { "内容": "老人保健施設　星が浦【介護老人保健施設】北海道釧路市星が浦大通３丁目９番３５号", "url": "https://www.kaigokensaku.mhlw.go.jp/01/index.php?action_kouhyou_detail_004_kani=true&JigyosyoCd=0154180046-00&ServiceCd=520&Type=search", "url2": "http://www.kojinkai.or.jp" }, "geometry": { "type": "Point", "coordinates": [ 144.316907799999967, 43.0165404 ] } },
{ "type": "Feature", "properties": { "内容": "道東勤医協老人保健施設ケアコートひまわり【介護老人保健施設】北海道釧路市堀川町8番43号", "url": "https://www.kaigokensaku.mhlw.go.jp/01/index.php?action_kouhyou_detail_004_kani=true&JigyosyoCd=0154180020-00&ServiceCd=520&Type=search", "url2": "http://dotokin-kaigo.com/" }, "geometry": { "type": "Point", "coordinates": [ 144.392599307934546, 42.998353644424682 ] } },
{ "type": "Feature", "properties": { "内容": "介護老人保健施設　老健たいよう【介護老人保健施設】北海道釧路市春採７丁目９番８号", "url": "https://www.kaigokensaku.mhlw.go.jp/01/index.php?action_kouhyou_detail_004_kani=true&JigyosyoCd=0154180038-00&ServiceCd=520&Type=search", "url2": "http://www.kushiro-souseikai.com" }, "geometry": { "type": "Point", "coordinates": [ 144.419532, 42.9784487 ] } },
{ "type": "Feature", "properties": { "内容": "介護老人保健施設アメニティ帯広【介護老人保健施設】帯広市西16条北1丁目27番地", "url": "https://www.kaigokensaku.mhlw.go.jp/01/index.php?action_kouhyou_detail_004_kani=true&JigyosyoCd=0154680011-00&ServiceCd=520&Type=search", "url2": "http://toukeikai.or.jp/" }, "geometry": { "type": "Point", "coordinates": [ 143.175817251589905, 42.930858501241588 ] } },
{ "type": "Feature", "properties": { "内容": "十勝勤医協老人保健施設ケアセンター白樺【介護老人保健施設】北海道帯広市白樺１６条西２丁目", "url": "https://www.kaigokensaku.mhlw.go.jp/01/index.php?action_kouhyou_detail_004_kani=true&JigyosyoCd=0154680029-00&ServiceCd=520&Type=search", "url2": "http://www.tokachi-kin-ikyo.or.jp/care-center/index.html" }, "geometry": { "type": "Point", "coordinates": [ 143.17410679220427, 42.918180031584669 ] } },
{ "type": "Feature", "properties": { "内容": "介護老人保健施設ヴィラかいせい【介護老人保健施設】北海道帯広市西22条南2丁目2番地10", "url": "https://www.kaigokensaku.mhlw.go.jp/01/index.php?action_kouhyou_detail_004_kani=true&JigyosyoCd=0154680052-00&ServiceCd=520&Type=search", "url2": "http://www.villa-kaisei.org/" }, "geometry": { "type": "Point", "coordinates": [ 143.131464400000027, 42.9194582 ] } },
{ "type": "Feature", "properties": { "内容": "十勝自立支援センター　介護老人保健施設　かけはし【介護老人保健施設】帯広市稲田町基線2番地1十勝自立支援センター　介護老人保健施設　かけはし", "url": "https://www.kaigokensaku.mhlw.go.jp/01/index.php?action_kouhyou_detail_004_kani=true&JigyosyoCd=0154680045-00&ServiceCd=520&Type=search", "url2": "http://www.hokuto7.or.jp/" }, "geometry": { "type": "Point", "coordinates": [ 143.192774314230292, 42.885560137458818 ] } },
{ "type": "Feature", "properties": { "内容": "介護老人保健施設ケアステーションアンダンテ【介護老人保健施設】北海道帯広市西17条南3丁目24－24", "url": "https://www.kaigokensaku.mhlw.go.jp/01/index.php?action_kouhyou_detail_004_kani=true&JigyosyoCd=0154680037-00&ServiceCd=520&Type=search", "url2": "http://koujyukai.org" }, "geometry": { "type": "Point", "coordinates": [ 143.168980899999951, 42.9179844 ] } },
{ "type": "Feature", "properties": { "内容": "介護老人保健施設いきいき【介護老人保健施設】北見市東相内町172番地80", "url": "https://www.kaigokensaku.mhlw.go.jp/01/index.php?action_kouhyou_detail_004_kani=true&JigyosyoCd=0155080021-00&ServiceCd=520&Type=search", "url2": "http://www.sirakawa-c.com/kyuujinkai/index.html" }, "geometry": { "type": "Point", "coordinates": [ 143.819465199999968, 43.8007554 ] } },
{ "type": "Feature", "properties": { "内容": "介護老人保健施設緑風【介護老人保健施設】北海道北見市緑ヶ丘3丁目29番8号介護老人保健施設緑風", "url": "https://www.kaigokensaku.mhlw.go.jp/01/index.php?action_kouhyou_detail_004_kani=true&JigyosyoCd=0155080047-00&ServiceCd=520&Type=search", "url2": "https://www.keiwafukushi.jp/facilityservice/carehealthfacility/ryokufu/" }, "geometry": { "type": "Point", "coordinates": [ 143.8702591, 43.8246429 ] } },
{ "type": "Feature", "properties": { "内容": "介護老人保健施設さくら【介護老人保健施設】北海道北見市北光280番6", "url": "https://www.kaigokensaku.mhlw.go.jp/01/index.php?action_kouhyou_detail_004_kani=true&JigyosyoCd=0155080039-00&ServiceCd=520&Type=search", "url2": "http://www.mintpia.jp/sakura/" }, "geometry": { "type": "Point", "coordinates": [ 143.867901599999982, 43.7787836 ] } },
{ "type": "Feature", "properties": { "内容": "介護老人保健施設　ゆあみーる【介護老人保健施設】岩見沢市８条西１９丁目８－１", "url": "https://www.kaigokensaku.mhlw.go.jp/01/index.php?action_kouhyou_detail_004_kani=true&JigyosyoCd=0155780034-00&ServiceCd=520&Type=search", "url2": "http://www.iwamizawanouge.com/facilities/index.shtml" }, "geometry": { "type": "Point", "coordinates": [ 141.752543699999933, 43.1910026 ] } },
{ "type": "Feature", "properties": { "内容": "介護老人保健施設　北翔館【介護老人保健施設】北海道岩見沢市１０条西２１丁目２番地", "url": "https://www.kaigokensaku.mhlw.go.jp/01/index.php?action_kouhyou_detail_004_kani=true&JigyosyoCd=0155780026-00&ServiceCd=520&Type=search", "url2": "http://www.hokushokai.or.jp/" }, "geometry": { "type": "Point", "coordinates": [ 141.753164243516494, 43.187651093944964 ] } },
{ "type": "Feature", "properties": { "内容": "北村温泉ナーシングホーム【介護老人保健施設】北海道岩見沢市北村赤川５８６番地６３", "url": "https://www.kaigokensaku.mhlw.go.jp/01/index.php?action_kouhyou_detail_004_kani=true&JigyosyoCd=0155780018-00&ServiceCd=520&Type=search", "url2": "http://www.kitamura-yuai.jp/" }, "geometry": { "type": "Point", "coordinates": [ 141.701321300000018, 43.2603464 ] } },
{ "type": "Feature", "properties": { "内容": "介護老人保健施設あるかさる【介護老人保健施設】網走市桂町4丁目7番11号", "url": "https://www.kaigokensaku.mhlw.go.jp/01/index.php?action_kouhyou_detail_004_kani=true&JigyosyoCd=0155380033-00&ServiceCd=520&Type=search", "url2": null }, "geometry": { "type": "Point", "coordinates": [ 144.270577647885148, 44.012317267123066 ] } },
{ "type": "Feature", "properties": { "内容": "介護老人保健施設いせの里【介護老人保健施設】北海道網走市字潮見１９２番地", "url": "https://www.kaigokensaku.mhlw.go.jp/01/index.php?action_kouhyou_detail_004_kani=true&JigyosyoCd=0155380017-00&ServiceCd=520&Type=search", "url2": "http://www.isenosato.sakura.ne.jp/" }, "geometry": { "type": "Point", "coordinates": [ 144.2691188, 43.9980867 ] } },
{ "type": "Feature", "properties": { "内容": "医療法人社団心優会　介護老人保健施設季実の杜【介護老人保健施設】北海道留萌市開運町１丁目５番1号", "url": "https://www.kaigokensaku.mhlw.go.jp/01/index.php?action_kouhyou_detail_004_kani=true&JigyosyoCd=0156480022-00&ServiceCd=520&Type=search", "url2": "http://www.shinyukai-r.or.jp/" }, "geometry": { "type": "Point", "coordinates": [ 141.648216899999937, 43.94031770000003 ] } },
{ "type": "Feature", "properties": { "内容": "介護老人保健施設ケアライフ王子【介護老人保健施設】苫小牧市若草町３丁目４番８号", "url": "https://www.kaigokensaku.mhlw.go.jp/01/index.php?action_kouhyou_detail_004_kani=true&JigyosyoCd=0153680038-00&ServiceCd=520&Type=search", "url2": "https://ojihosp.or.jp/carelife/" }, "geometry": { "type": "Point", "coordinates": [ 141.604738399999974, 42.63851 ] } },
{ "type": "Feature", "properties": { "内容": "介護老人保健施設ライフスプリング桜木【介護老人保健施設】北海道苫小牧市桜木町2丁目25番1号", "url": "https://www.kaigokensaku.mhlw.go.jp/01/index.php?action_kouhyou_detail_004_kani=true&JigyosyoCd=0153680053-00&ServiceCd=520&Type=search", "url2": "http://www.mc-senjinkai.or.jp/index.html" }, "geometry": { "type": "Point", "coordinates": [ 141.553242949598712, 42.627863347724919 ] } },
{ "type": "Feature", "properties": { "内容": "医療法人社団苫仁会介護療養型老人保健施設かみや【介護老人保健施設】苫小牧桜木町２丁目25番1号", "url": "https://www.kaigokensaku.mhlw.go.jp/01/index.php?action_kouhyou_detail_004_kani=true&JigyosyoCd=0153680087-00&ServiceCd=520&Type=search", "url2": "http://www.mc-senjinkai.or.jp/" }, "geometry": { "type": "Point", "coordinates": [ 141.553838400000018, 42.6281199 ] } },
{ "type": "Feature", "properties": { "内容": "老人保健施設　苫小牧健樹園【介護老人保健施設】苫小牧市澄川町７丁目９番１８号", "url": "https://www.kaigokensaku.mhlw.go.jp/01/index.php?action_kouhyou_detail_004_kani=true&JigyosyoCd=0153680012-00&ServiceCd=520&Type=search", "url2": "http://www.sumikawa-hp.com" }, "geometry": { "type": "Point", "coordinates": [ 141.514112899999986, 42.6238572 ] } },
{ "type": "Feature", "properties": { "内容": "老人保健施設東胆振ケアセンター【介護老人保健施設】北海道苫小牧市字植苗51-156", "url": "https://www.kaigokensaku.mhlw.go.jp/01/index.php?action_kouhyou_detail_004_kani=true&JigyosyoCd=0153680046-00&ServiceCd=520&Type=search", "url2": "http://www.ryokusei.or.jp/" }, "geometry": { "type": "Point", "coordinates": [ 141.720053300000018, 42.7256517 ] } },
{ "type": "Feature", "properties": { "内容": "介護老人保健施設　みどりの苑【介護老人保健施設】北海道苫小牧市松風町2番15号", "url": "https://www.kaigokensaku.mhlw.go.jp/01/index.php?action_kouhyou_detail_004_kani=true&JigyosyoCd=0153680020-00&ServiceCd=520&Type=search", "url2": "http://www.ryokuyoukai.or.jp/midori/" }, "geometry": { "type": "Point", "coordinates": [ 141.560694076330606, 42.638314402152432 ] } },
{ "type": "Feature", "properties": { "内容": "社会医療法人禎心会老人保健施設ら・ぷらーさ【介護老人保健施設】稚内市栄1丁目24番2号", "url": "https://www.kaigokensaku.mhlw.go.jp/01/index.php?action_kouhyou_detail_004_kani=true&JigyosyoCd=0156780017-00&ServiceCd=520&Type=search", "url2": "https://www.teishinkai.jp/laplaza" }, "geometry": { "type": "Point", "coordinates": [ 141.696051196156333, 45.387117392499711 ] } },
{ "type": "Feature", "properties": { "内容": "社会福祉法人渓仁会　介護老人保健施設コミュニティホーム美唄【介護老人保健施設】北海道美唄市東5条南7丁目5番1号", "url": "https://www.kaigokensaku.mhlw.go.jp/01/index.php?action_kouhyou_detail_004_kani=true&JigyosyoCd=0156180028-00&ServiceCd=520&Type=search", "url2": "http://www.keijinkai.com/shafuku/c-bibai/" }, "geometry": { "type": "Point", "coordinates": [ 141.8694375, 43.3181055 ] } },
{ "type": "Feature", "properties": { "内容": "芦別市介護老人保健施設【介護老人保健施設】北海道芦別市本町１４番地", "url": "https://www.kaigokensaku.mhlw.go.jp/01/index.php?action_kouhyou_detail_004_kani=true&JigyosyoCd=0157380015-00&ServiceCd=520&Type=search", "url2": "http://www.ans.co.jp/u/rouken-subaru/" }, "geometry": { "type": "Point", "coordinates": [ 142.1956692, 43.5183024 ] } },
{ "type": "Feature", "properties": { "内容": "介護老人保健施設はるにれ【介護老人保健施設】北海道江別市大麻北町607番地2", "url": "https://www.kaigokensaku.mhlw.go.jp/01/index.php?action_kouhyou_detail_004_kani=true&JigyosyoCd=0151080033-00&ServiceCd=520&Type=search", "url2": "http://www.irryo-harunire.or.jp" }, "geometry": { "type": "Point", "coordinates": [ 141.499348400000031, 43.0891781 ] } },
{ "type": "Feature", "properties": { "内容": "老健のっぽろ【介護老人保健施設】江別市東野幌396番地32", "url": "https://www.kaigokensaku.mhlw.go.jp/01/index.php?action_kouhyou_detail_004_kani=true&JigyosyoCd=0151080041-00&ServiceCd=520&Type=search", "url2": "http://www.nopporo.or.jp/rouken_k/index.html" }, "geometry": { "type": "Point", "coordinates": [ 141.545753600000012, 43.0725671 ] } },
{ "type": "Feature", "properties": { "内容": "老健のっぽろ（ユニット）【介護老人保健施設】江別市東野幌396番地32", "url": "https://www.kaigokensaku.mhlw.go.jp/01/index.php?action_kouhyou_detail_004_kani=true&JigyosyoCd=0151080066-00&ServiceCd=520&Type=search", "url2": "http://www.nopporo.or.jp/rouken_k/index.html" }, "geometry": { "type": "Point", "coordinates": [ 141.545753600000012, 43.0725671 ] } },
{ "type": "Feature", "properties": { "内容": "介護老人保健施設葵の園・江別【介護老人保健施設】北海道江別市大麻南樹町１－１", "url": "https://www.kaigokensaku.mhlw.go.jp/01/index.php?action_kouhyou_detail_004_kani=true&JigyosyoCd=0151080074-00&ServiceCd=520&Type=search", "url2": "https://www.aoikai.jp/ebetsu/" }, "geometry": { "type": "Point", "coordinates": [ 141.502642899999955, 43.0823899 ] } },
{ "type": "Feature", "properties": { "内容": "介護老人保健施設　日本介護江別【介護老人保健施設】北海道江別市大麻元町154番地12", "url": "https://www.kaigokensaku.mhlw.go.jp/01/index.php?action_kouhyou_detail_004_kani=true&JigyosyoCd=0151080082-00&ServiceCd=520&Type=search", "url2": "https://tsushima-group.com/business/agency/" }, "geometry": { "type": "Point", "coordinates": [ 141.497306400000014, 43.0851372 ] } },
{ "type": "Feature", "properties": { "内容": "介護老人保健施設　友愛ナーシングホーム【介護老人保健施設】江別市新栄台46番地の12", "url": "https://www.kaigokensaku.mhlw.go.jp/01/index.php?action_kouhyou_detail_004_kani=true&JigyosyoCd=0151080025-00&ServiceCd=520&Type=search", "url2": "http://www.yuaifukushi/" }, "geometry": { "type": "Point", "coordinates": [ 141.511354200000028, 43.1081016 ] } },
{ "type": "Feature", "properties": { "内容": "介護老人保健施設　博寿苑【介護老人保健施設】北海道赤平市平岸新光町2丁目4番地", "url": "https://www.kaigokensaku.mhlw.go.jp/01/index.php?action_kouhyou_detail_004_kani=true&JigyosyoCd=0157280017-00&ServiceCd=520&Type=search", "url2": "http://www.hakuyukai.or.jp/hakujuen" }, "geometry": { "type": "Point", "coordinates": [ 142.118497774343837, 43.541977831926097 ] } },
{ "type": "Feature", "properties": { "内容": "介護老人保健施設サン・ヒルズ紋別【介護老人保健施設】北海道紋別市花園町5丁目3番7号", "url": "https://www.kaigokensaku.mhlw.go.jp/01/index.php?action_kouhyou_detail_004_kani=true&JigyosyoCd=0155180011-00&ServiceCd=520&Type=search", "url2": "https://suhills.hjk.ne.jp" }, "geometry": { "type": "Point", "coordinates": [ 143.347287400000027, 44.351842800000036 ] } },
{ "type": "Feature", "properties": { "内容": "老人保健施設　ボヌゥール士別【介護老人保健施設】北海道士別市東５条１６丁目３１２９番地１４３", "url": "https://www.kaigokensaku.mhlw.go.jp/01/index.php?action_kouhyou_detail_004_kani=true&JigyosyoCd=0153280011-00&ServiceCd=520&Type=search", "url2": "http://sanai-kai.or.jp/shisetsu_bonheur/" }, "geometry": { "type": "Point", "coordinates": [ 142.403662199999985, 44.1665769 ] } },
{ "type": "Feature", "properties": { "内容": "小規模老人保健施設　ボヌゥール【介護老人保健施設】士別市東6条5丁目1番地", "url": "https://www.kaigokensaku.mhlw.go.jp/01/index.php?action_kouhyou_detail_004_kani=true&JigyosyoCd=0153280037-00&ServiceCd=520&Type=search", "url2": "http://sanai-kai.or.jp/shisetsu_bonheur/satellite/" }, "geometry": { "type": "Point", "coordinates": [ 142.400400799999943, 44.1775783 ] } },
{ "type": "Feature", "properties": { "内容": "介護老人保健施設そよかぜ館【介護老人保健施設】北海道名寄市字緑丘１１番地１５", "url": "https://www.kaigokensaku.mhlw.go.jp/01/index.php?action_kouhyou_detail_004_kani=true&JigyosyoCd=0153280029-00&ServiceCd=520&Type=search", "url2": null }, "geometry": { "type": "Point", "coordinates": [ 142.479042, 44.3434233 ] } },
{ "type": "Feature", "properties": { "内容": "社会福法人根室恵徳会介護老人保健施設セラピーこざくら【介護老人保健施設】北海道根室市西浜町５丁目８９番地１", "url": "https://www.kaigokensaku.mhlw.go.jp/01/index.php?action_kouhyou_detail_004_kani=true&JigyosyoCd=0154280028-00&ServiceCd=520&Type=search", "url2": null }, "geometry": { "type": "Point", "coordinates": [ 145.56558629999995, 43.3143274 ] } },
{ "type": "Feature", "properties": { "内容": "医療法人社団いずみ会　介護老人保健施設　北星館【介護老人保健施設】北海道千歳市清流5丁目1番1号", "url": "https://www.kaigokensaku.mhlw.go.jp/01/index.php?action_kouhyou_detail_004_kani=true&JigyosyoCd=0151180023-00&ServiceCd=520&Type=search", "url2": "https://www.hokusei.or.jp/hokuseikan/index.html" }, "geometry": { "type": "Point", "coordinates": [ 141.658990941139223, 42.84199919863493 ] } },
{ "type": "Feature", "properties": { "内容": "滝川市老人保健施設ナイスケアすずかけ【介護老人保健施設】滝川市江部乙町東13丁目1番60号", "url": "https://www.kaigokensaku.mhlw.go.jp/01/index.php?action_kouhyou_detail_004_kani=true&JigyosyoCd=0157580028-00&ServiceCd=520&Type=search", "url2": "http://www.hokkaido-hukushi.jp/" }, "geometry": { "type": "Point", "coordinates": [ 141.944405706745869, 43.63014617350445 ] } },
{ "type": "Feature", "properties": { "内容": "介護老人保健施設シーザーズ【介護老人保健施設】北海道滝川市栄町3丁目3番16号", "url": "https://www.kaigokensaku.mhlw.go.jp/01/index.php?action_kouhyou_detail_004_kani=true&JigyosyoCd=0117510446-00&ServiceCd=520&Type=search", "url2": "http://caeser.jp/" }, "geometry": { "type": "Point", "coordinates": [ 141.906305721426406, 43.557745300519272 ] } },
{ "type": "Feature", "properties": { "内容": "砂川介護老人保健施設みやかわ【介護老人保健施設】北海道砂川市西3条南10丁目3番1号", "url": "https://www.kaigokensaku.mhlw.go.jp/01/index.php?action_kouhyou_detail_004_kani=true&JigyosyoCd=0157180035-00&ServiceCd=520&Type=search", "url2": "http://sunagawafukushikai.jp/" }, "geometry": { "type": "Point", "coordinates": [ 141.900766699999963, 43.4792803 ] } },
{ "type": "Feature", "properties": { "内容": "介護老人保健施設けんこう・ふらの【介護老人保健施設】北海道富良野市末広町6番17号", "url": "https://www.kaigokensaku.mhlw.go.jp/01/index.php?action_kouhyou_detail_004_kani=true&JigyosyoCd=0153010888-00&ServiceCd=520&Type=search", "url2": "http://kawamura-mgp.or.jp/kenkou-furano/" }, "geometry": { "type": "Point", "coordinates": [ 142.3865085, 43.3403984 ] } },
{ "type": "Feature", "properties": { "内容": "社会福祉法人北海道社会事業協会　介護老人保健施設ふらの【介護老人保健施設】北海道富良野市住吉町１番２５号", "url": "https://www.kaigokensaku.mhlw.go.jp/01/index.php?action_kouhyou_detail_004_kani=true&JigyosyoCd=0153080015-00&ServiceCd=520&Type=search", "url2": "https://ssl.hokushakyo.jp/rouken-furano/" }, "geometry": { "type": "Point", "coordinates": [ 142.393518800000038, 43.3456785 ] } },
{ "type": "Feature", "properties": { "内容": "介護老人保健施設グリーンコート三愛【介護老人保健施設】登別市中登別町２４番地１１３", "url": "https://www.kaigokensaku.mhlw.go.jp/01/index.php?action_kouhyou_detail_004_kani=true&JigyosyoCd=0153580022-00&ServiceCd=520&Type=search", "url2": "http://www.sanai-hospital.or.jp/facility/greencoat_sannai.php" }, "geometry": { "type": "Point", "coordinates": [ 141.168995499999937, 42.4642077 ] } },
{ "type": "Feature", "properties": { "内容": "介護老人保健施設グリーンコート三愛【介護老人保健施設】北海道登別市中登別町24番地113", "url": "https://www.kaigokensaku.mhlw.go.jp/01/index.php?action_kouhyou_detail_004_kani=true&JigyosyoCd=0153580055-00&ServiceCd=520&Type=search", "url2": "http://www.sanai-hospital.or.jp/facility/greencoat_sannai.php" }, "geometry": { "type": "Point", "coordinates": [ 141.168995499999937, 42.4642077 ] } },
{ "type": "Feature", "properties": { "内容": "介護老人保健施設アートライフ恵庭【介護老人保健施設】北海道恵庭市西島松567番地1", "url": "https://www.kaigokensaku.mhlw.go.jp/01/index.php?action_kouhyou_detail_004_kani=true&JigyosyoCd=0151280013-00&ServiceCd=520&Type=search", "url2": "http://www.artlife-eniwa.jp/" }, "geometry": { "type": "Point", "coordinates": [ 141.561765799999989, 42.910288500000014 ] } },
{ "type": "Feature", "properties": { "内容": "社会医療法人北晨会　介護老人保健施設　恵み野ケアサポート【介護老人保健施設】恵庭市恵み野西２丁目３番地４", "url": "https://www.kaigokensaku.mhlw.go.jp/01/index.php?action_kouhyou_detail_004_kani=true&JigyosyoCd=0151280021-00&ServiceCd=520&Type=search", "url2": "http://www.megumino.or.jp/caresupport/cs_top.html" }, "geometry": { "type": "Point", "coordinates": [ 141.577228428836094, 42.899985737345951 ] } },
{ "type": "Feature", "properties": { "内容": "社会医療法人慈恵会　介護老人保健施設　セイント・ヴィレッジ【介護老人保健施設】伊達市舟岡町214番地28", "url": "https://www.kaigokensaku.mhlw.go.jp/01/index.php?action_kouhyou_detail_004_kani=true&JigyosyoCd=0153780044-00&ServiceCd=520&Type=search", "url2": "http://www.jikeikai.or.jp" }, "geometry": { "type": "Point", "coordinates": [ 140.88299297681948, 42.466949959998523 ] } },
{ "type": "Feature", "properties": { "内容": "介護老人保健施設　プライムヘルシータウン湘南【介護老人保健施設】北海道伊達市松ヶ枝町157番地110", "url": "https://www.kaigokensaku.mhlw.go.jp/01/index.php?action_kouhyou_detail_004_kani=true&JigyosyoCd=0153780028-00&ServiceCd=520&Type=search", "url2": "http://www.koseikai-wel.or.jp/" }, "geometry": { "type": "Point", "coordinates": [ 140.883904799999982, 42.4765841 ] } },
{ "type": "Feature", "properties": { "内容": "介護老人保健施設　エスポワール北広島【介護老人保健施設】北広島市輪厚704番地16", "url": "https://www.kaigokensaku.mhlw.go.jp/01/index.php?action_kouhyou_detail_004_kani=true&JigyosyoCd=0151380011-00&ServiceCd=520&Type=search", "url2": "http://www.shojinkai.or.jp" }, "geometry": { "type": "Point", "coordinates": [ 141.507927768647733, 42.944779063409904 ] } },
{ "type": "Feature", "properties": { "内容": "介護老人保健施設オアシス21【介護老人保健施設】北海道石狩市花川南7条5丁目3番地2", "url": "https://www.kaigokensaku.mhlw.go.jp/01/index.php?action_kouhyou_detail_004_kani=true&JigyosyoCd=0157680034-00&ServiceCd=520&Type=search", "url2": "http://kyouseikai.jp/oasis21/" }, "geometry": { "type": "Point", "coordinates": [ 141.2928465, 43.1398317 ] } },
{ "type": "Feature", "properties": { "内容": "介護老人保健施設やわらぎ苑上磯【介護老人保健施設】北斗市追分5丁目3番13号", "url": "https://www.kaigokensaku.mhlw.go.jp/01/index.php?action_kouhyou_detail_004_kani=true&JigyosyoCd=0151580040-00&ServiceCd=520&Type=search", "url2": "http://www.yawaragikai.com/kaigo/k_yawaragien.html" }, "geometry": { "type": "Point", "coordinates": [ 140.695954699999987, 41.8298747 ] } },
{ "type": "Feature", "properties": { "内容": "介護老人保健施設いなほ【介護老人保健施設】北斗市清水川４番地１", "url": "https://www.kaigokensaku.mhlw.go.jp/01/index.php?action_kouhyou_detail_004_kani=true&JigyosyoCd=0151580073-00&ServiceCd=520&Type=search", "url2": "http://yushin-kai.com" }, "geometry": { "type": "Point", "coordinates": [ 140.653318200000058, 41.872607299999984 ] } },
{ "type": "Feature", "properties": { "内容": "介護老人保健施設　愛里苑【介護老人保健施設】北海道石狩郡当別町ビトエ2200番地１", "url": "https://www.kaigokensaku.mhlw.go.jp/01/index.php?action_kouhyou_detail_004_kani=true&JigyosyoCd=0151080058-00&ServiceCd=520&Type=search", "url2": "http://shuyukai.or.jp/group/airien.html" }, "geometry": { "type": "Point", "coordinates": [ 141.433547800000042, 43.1864398 ] } },
{ "type": "Feature", "properties": { "内容": "老人保健施設あかまつの里ななえ【介護老人保健施設】北海道亀田郡七飯町本町４丁目６番１０号", "url": "https://www.kaigokensaku.mhlw.go.jp/01/index.php?action_kouhyou_detail_004_kani=true&JigyosyoCd=0151580024-00&ServiceCd=520&Type=search", "url2": "http://www.ohmura.or.jp/html/akamatsunosato.html" }, "geometry": { "type": "Point", "coordinates": [ 140.69014459999994, 41.8968527 ] } },
{ "type": "Feature", "properties": { "内容": "道南森ロイヤルケアセンター【介護老人保健施設】北海道茅部郡森町字上台町326-117", "url": "https://www.kaigokensaku.mhlw.go.jp/01/index.php?action_kouhyou_detail_004_kani=true&JigyosyoCd=0151580081-00&ServiceCd=520&Type=search", "url2": "https://ims.gr.jp/dounanmori-royal/" }, "geometry": { "type": "Point", "coordinates": [ 140.5681696, 42.1036222 ] } },
{ "type": "Feature", "properties": { "内容": "介護老人保健施設　コミュニティホーム八雲【介護老人保健施設】北海道二海郡八雲町栄町１３番地１", "url": "https://www.kaigokensaku.mhlw.go.jp/01/index.php?action_kouhyou_detail_004_kani=true&JigyosyoCd=0151580032-00&ServiceCd=520&Type=search", "url2": "http://www.keijinkai.com/" }, "geometry": { "type": "Point", "coordinates": [ 140.258662299999969, 42.2562207 ] } },
{ "type": "Feature", "properties": { "内容": "介護老人保健施設　カタセールえさし【介護老人保健施設】北海道檜山郡江差町字尾山町153番地1", "url": "https://www.kaigokensaku.mhlw.go.jp/01/index.php?action_kouhyou_detail_004_kani=true&JigyosyoCd=0151680014-00&ServiceCd=520&Type=search", "url2": "https://www.kei-ai-kai.jp/sasaki-hospital/kataseru_esashi/" }, "geometry": { "type": "Point", "coordinates": [ 140.1440553, 41.8991391 ] } },
{ "type": "Feature", "properties": { "内容": "今金町介護老人保健施設【介護老人保健施設】北海道瀬棚郡今金町字今金１７－２", "url": "https://www.kaigokensaku.mhlw.go.jp/01/index.php?action_kouhyou_detail_004_kani=true&JigyosyoCd=0151780012-00&ServiceCd=520&Type=search", "url2": "http://www.town.imakane.lg.jp/" }, "geometry": { "type": "Point", "coordinates": [ 140.007461199999966, 42.4297362 ] } },
{ "type": "Feature", "properties": { "内容": "介護老人保健施設　湯の里・黒松内【介護老人保健施設】北海道寿都郡黒松内町字黒松内５６５番１１", "url": "https://www.kaigokensaku.mhlw.go.jp/01/index.php?action_kouhyou_detail_004_kani=true&JigyosyoCd=0152180014-00&ServiceCd=520&Type=search", "url2": "http://www.tukusien.or.jp" }, "geometry": { "type": "Point", "coordinates": [ 140.3129454, 42.657696200000011 ] } },
{ "type": "Feature", "properties": { "内容": "ユニット型介護老人保健施設湯の里・黒松内【介護老人保健施設】北海道寿都郡黒松内町字黒松内５６５番地１１", "url": "https://www.kaigokensaku.mhlw.go.jp/01/index.php?action_kouhyou_detail_004_kani=true&JigyosyoCd=0152180022-00&ServiceCd=520&Type=search", "url2": "https://tsukushien.or.jp" }, "geometry": { "type": "Point", "coordinates": [ 140.3129454, 42.657696200000011 ] } },
{ "type": "Feature", "properties": { "内容": "介護老人保険施設　京極【介護老人保健施設】北海道虻田郡京極町字更進780番地2", "url": "https://www.kaigokensaku.mhlw.go.jp/01/index.php?action_kouhyou_detail_004_kani=true&JigyosyoCd=0152280020-00&ServiceCd=520&Type=search", "url2": "https://www.sosekai.or.jp/kyougoku" }, "geometry": { "type": "Point", "coordinates": [ 140.8947096, 42.829976 ] } },
{ "type": "Feature", "properties": { "内容": "介護老人保健施設　麓華苑【介護老人保健施設】北海道虻田郡倶知安町南3条東5丁目1番地2", "url": "https://www.kaigokensaku.mhlw.go.jp/01/index.php?action_kouhyou_detail_004_kani=true&JigyosyoCd=0152280012-00&ServiceCd=520&Type=search", "url2": "http://www.shirakaba-group.jp" }, "geometry": { "type": "Point", "coordinates": [ 140.762161699999979, 42.8994327 ] } },
{ "type": "Feature", "properties": { "内容": "社会福祉法人渓仁会　介護老人保健施設コミュニティホーム岩内【介護老人保健施設】岩内郡岩内町字野束69番地26", "url": "https://www.kaigokensaku.mhlw.go.jp/01/index.php?action_kouhyou_detail_004_kani=true&JigyosyoCd=0152380028-00&ServiceCd=520&Type=search", "url2": "https://www.keijinkai.com/shafuku/c-iwanai/" }, "geometry": { "type": "Point", "coordinates": [ 140.50992640000004, 42.966764200000014 ] } },
{ "type": "Feature", "properties": { "内容": "介護老人保健施設　神恵内ハイツ９９８【介護老人保健施設】古宇郡神恵内村大字神恵内村字大川１１６番地１", "url": "https://www.kaigokensaku.mhlw.go.jp/01/index.php?action_kouhyou_detail_004_kani=true&JigyosyoCd=0152380036-00&ServiceCd=520&Type=search", "url2": null }, "geometry": { "type": "Point", "coordinates": [ 140.450929099999939, 43.1555454 ] } },
{ "type": "Feature", "properties": { "内容": "介護老人保健施設よいち【介護老人保健施設】北海道余市郡余市町山田町201番地5", "url": "https://www.kaigokensaku.mhlw.go.jp/01/index.php?action_kouhyou_detail_004_kani=true&JigyosyoCd=0152580056-00&ServiceCd=520&Type=search", "url2": "https://www.roken-yoichi.com/" }, "geometry": { "type": "Point", "coordinates": [ 140.7807047, 43.1843514 ] } },
{ "type": "Feature", "properties": { "内容": "介護老人保健施設ゆう【介護老人保健施設】空知郡南幌町栄町１丁目１番２０号", "url": "https://www.kaigokensaku.mhlw.go.jp/01/index.php?action_kouhyou_detail_004_kani=true&JigyosyoCd=0155880024-00&ServiceCd=520&Type=search", "url2": "http://yawaragi-info.or.jp" }, "geometry": { "type": "Point", "coordinates": [ 141.653604800000039, 43.0642545 ] } },
{ "type": "Feature", "properties": { "内容": "上砂川町老人保健施設成寿苑【介護老人保健施設】北海道空知郡上砂川町字上砂川２２番地１６", "url": "https://www.kaigokensaku.mhlw.go.jp/01/index.php?action_kouhyou_detail_004_kani=true&JigyosyoCd=0157180027-00&ServiceCd=520&Type=search", "url2": "http://www.town.kamisunagawa.hokkaido.jp/" }, "geometry": { "type": "Point", "coordinates": [ 141.993996278149012, 43.473801478982487 ] } },
{ "type": "Feature", "properties": { "内容": "由仁町介護老人保健施設ひだまり【介護老人保健施設】北海道夕張郡由仁町馬追１番地の１", "url": "https://www.kaigokensaku.mhlw.go.jp/01/index.php?action_kouhyou_detail_004_kani=true&JigyosyoCd=0155880065-00&ServiceCd=520&Type=search", "url2": "https://yuni-clinic.com/" }, "geometry": { "type": "Point", "coordinates": [ 141.780360299999984, 43.0120091 ] } },
{ "type": "Feature", "properties": { "内容": "介護老人保健施設　マオイの里【介護老人保健施設】夕張郡長沼町東5線北4番地", "url": "https://www.kaigokensaku.mhlw.go.jp/01/index.php?action_kouhyou_detail_004_kani=true&JigyosyoCd=0155880032-00&ServiceCd=520&Type=search", "url2": "http://www9.plala.or.jp/maoinosato/public_html/" }, "geometry": { "type": "Point", "coordinates": [ 141.717622099999971, 43.0046107 ] } },
{ "type": "Feature", "properties": { "内容": "長沼町立介護療養型老人保健施設いこい【介護老人保健施設】北海道夕張郡長沼町中央南２丁目２番１号", "url": "https://www.kaigokensaku.mhlw.go.jp/01/index.php?action_kouhyou_detail_004_kani=true&JigyosyoCd=0155880040-00&ServiceCd=520&Type=search", "url2": null }, "geometry": { "type": "Point", "coordinates": [ 141.6931935, 43.0076396 ] } },
{ "type": "Feature", "properties": { "内容": "介護老人保健施設ガーデンハウスくりやま【介護老人保健施設】夕張郡栗山町朝日4丁目9番33号", "url": "https://www.kaigokensaku.mhlw.go.jp/01/index.php?action_kouhyou_detail_004_kani=true&JigyosyoCd=0155880016-00&ServiceCd=520&Type=search", "url2": "http://www.aizenkai.or.jp/" }, "geometry": { "type": "Point", "coordinates": [ 141.795287499999972, 43.0554154 ] } },
{ "type": "Feature", "properties": { "内容": "介護老人保健施設　月形緑苑【介護老人保健施設】北海道樺戸郡月形町８１番７２", "url": "https://www.kaigokensaku.mhlw.go.jp/01/index.php?action_kouhyou_detail_004_kani=true&JigyosyoCd=0156180036-00&ServiceCd=520&Type=search", "url2": "https://www.sanseikai-med.jp/tsukigataryokuen/" }, "geometry": { "type": "Point", "coordinates": [ 141.682119899999947, 43.341457600000012 ] } },
{ "type": "Feature", "properties": { "内容": "妹背牛町老人保健施設　りぶれ【介護老人保健施設】北海道雨竜郡妹背牛町字妹背牛３６１番地２２", "url": "https://www.kaigokensaku.mhlw.go.jp/01/index.php?action_kouhyou_detail_004_kani=true&JigyosyoCd=0157480021-00&ServiceCd=520&Type=search", "url2": null }, "geometry": { "type": "Point", "coordinates": [ 141.954159, 43.6921462 ] } },
{ "type": "Feature", "properties": { "内容": "介護老人保健施設回生苑【介護老人保健施設】北海道上川郡東神楽町東1線2号13番地", "url": "https://www.kaigokensaku.mhlw.go.jp/01/index.php?action_kouhyou_detail_004_kani=true&JigyosyoCd=0153180013-00&ServiceCd=520&Type=search", "url2": "http://www.kai-sei-kai.com/relation/kaiseien/kaiseien.html" }, "geometry": { "type": "Point", "coordinates": [ 142.402255593392965, 43.718673746299466 ] } },
{ "type": "Feature", "properties": { "内容": "介護老人保健施設愛泉苑【介護老人保健施設】上川郡当麻町3条東2丁目1番11号", "url": "https://www.kaigokensaku.mhlw.go.jp/01/index.php?action_kouhyou_detail_004_kani=true&JigyosyoCd=0153180047-00&ServiceCd=520&Type=search", "url2": "http://kyokuhoukai.or.jp" }, "geometry": { "type": "Point", "coordinates": [ 142.507390699999974, 43.8273349 ] } },
{ "type": "Feature", "properties": { "内容": "介護老人保健施設愛泉苑（ユニット型）【介護老人保健施設】上川郡当麻町3条東2丁目1番11号", "url": "https://www.kaigokensaku.mhlw.go.jp/01/index.php?action_kouhyou_detail_004_kani=true&JigyosyoCd=0153180062-00&ServiceCd=520&Type=search", "url2": "http://kyokuhoukai.or.jp" }, "geometry": { "type": "Point", "coordinates": [ 142.507492623942539, 43.82735038020941 ] } },
{ "type": "Feature", "properties": { "内容": "老人保健施設ひだまりの里【介護老人保健施設】上川郡東川町西町８丁目２９番１号", "url": "https://www.kaigokensaku.mhlw.go.jp/01/index.php?action_kouhyou_detail_004_kani=true&JigyosyoCd=0153180021-00&ServiceCd=520&Type=search", "url2": "http://www.a-fukushi.or.jp/" }, "geometry": { "type": "Point", "coordinates": [ 142.47723110000004, 43.7006427 ] } },
{ "type": "Feature", "properties": { "内容": "美瑛町老人保健施設　ほの香【介護老人保健施設】上川郡美瑛町東町３丁目７０１番３", "url": "https://www.kaigokensaku.mhlw.go.jp/01/index.php?action_kouhyou_detail_004_kani=true&JigyosyoCd=0153180039-00&ServiceCd=520&Type=search", "url2": "https://www.biei-jikoukai.or.jp/facility/biei-jikouen/" }, "geometry": { "type": "Point", "coordinates": [ 142.474839458830246, 43.588926002975001 ] } },
{ "type": "Feature", "properties": { "内容": "利尻島老人保健施設【介護老人保健施設】北海道利尻郡利尻富士町鬼脇字金崎332番地", "url": "https://www.kaigokensaku.mhlw.go.jp/01/index.php?action_kouhyou_detail_004_kani=true&JigyosyoCd=0156780033-00&ServiceCd=520&Type=search", "url2": null }, "geometry": { "type": "Point", "coordinates": [ 141.304539100000056, 45.1312708 ] } },
{ "type": "Feature", "properties": { "内容": "社会医療法人　恵和会　介護老人保健施設　アメニティ美幌【介護老人保健施設】北海道網走郡美幌町字仲町2丁目38番地の2", "url": "https://www.kaigokensaku.mhlw.go.jp/01/index.php?action_kouhyou_detail_004_kani=true&JigyosyoCd=0155280019-00&ServiceCd=520&Type=search", "url2": "http://www.keiwakai.jp/amebiho/index.html" }, "geometry": { "type": "Point", "coordinates": [ 144.10517470000002, 43.8326392 ] } },
{ "type": "Feature", "properties": { "内容": "介護老人保健施設きよさと【介護老人保健施設】北海道斜里郡清里町羽衣町３５番地３５", "url": "https://www.kaigokensaku.mhlw.go.jp/01/index.php?action_kouhyou_detail_004_kani=true&JigyosyoCd=0155380025-00&ServiceCd=520&Type=search", "url2": "http://www.town.kiyosato.hokkaido.jp/homepage.nsf/doc/rouken" }, "geometry": { "type": "Point", "coordinates": [ 144.592945699999973, 43.8302609 ] } },
{ "type": "Feature", "properties": { "内容": "介護老人保健施設プライムいくたはら【介護老人保健施設】北海道紋別郡遠軽町生田原伊吹6番地1", "url": "https://www.kaigokensaku.mhlw.go.jp/01/index.php?action_kouhyou_detail_004_kani=true&JigyosyoCd=0155480015-00&ServiceCd=520&Type=search", "url2": "http://koyukai-g.jp/puraimu/" }, "geometry": { "type": "Point", "coordinates": [ 143.530622200000039, 43.9057259 ] } },
{ "type": "Feature", "properties": { "内容": "雄武町立介護老人保健施設ハマナス【介護老人保健施設】北海道紋別郡雄武町字雄武１４８２番地２", "url": "https://www.kaigokensaku.mhlw.go.jp/01/index.php?action_kouhyou_detail_004_kani=true&JigyosyoCd=0155180029-00&ServiceCd=520&Type=search", "url2": "https://www.town.oumu.hokkaido.jp/iryo_kenko_fukushi/omumachikokuhobyoin/index.html" }, "geometry": { "type": "Point", "coordinates": [ 142.956883, 44.582395 ] } },
{ "type": "Feature", "properties": { "内容": "豊浦町介護老人保健施設【介護老人保健施設】北海道虻田郡豊浦町字東雲町16番地１", "url": "https://www.kaigokensaku.mhlw.go.jp/01/index.php?action_kouhyou_detail_004_kani=true&JigyosyoCd=0153780036-00&ServiceCd=520&Type=search", "url2": "http://www.town.toyoura.hokkaido.jp/" }, "geometry": { "type": "Point", "coordinates": [ 140.715848300000061, 42.5831807 ] } },
{ "type": "Feature", "properties": { "内容": "介護老人保健施設　プライムそうべつ【介護老人保健施設】北海道有珠郡壮瞥町字南久保内146番地18", "url": "https://www.kaigokensaku.mhlw.go.jp/01/index.php?action_kouhyou_detail_004_kani=true&JigyosyoCd=0153780010-00&ServiceCd=520&Type=search", "url2": "http://www.koyukai-g.jp/plime-s/" }, "geometry": { "type": "Point", "coordinates": [ 140.9648697, 42.5751098 ] } },
{ "type": "Feature", "properties": { "内容": "介護老人保健施設　そよ風の里【介護老人保健施設】白老郡白老町字竹浦１３４番地5", "url": "https://www.kaigokensaku.mhlw.go.jp/01/index.php?action_kouhyou_detail_004_kani=true&JigyosyoCd=0153680095-00&ServiceCd=520&Type=search", "url2": "https://www.s-tenjyu.org" }, "geometry": { "type": "Point", "coordinates": [ 141.230731699999978, 42.4725334 ] } },
{ "type": "Feature", "properties": { "内容": "日高町立介護老人保健施設門別愛生苑【介護老人保健施設】北海道沙流郡日高町門別本町２９番地の３", "url": "https://www.kaigokensaku.mhlw.go.jp/01/index.php?action_kouhyou_detail_004_kani=true&JigyosyoCd=0153880042-00&ServiceCd=520&Type=search", "url2": null }, "geometry": { "type": "Point", "coordinates": [ 142.069039699999962, 42.4802011 ] } },
{ "type": "Feature", "properties": { "内容": "介護老人保健施設浦河緑苑【介護老人保健施設】北海道浦河郡浦河町字東栄571番3", "url": "https://www.kaigokensaku.mhlw.go.jp/01/index.php?action_kouhyou_detail_004_kani=true&JigyosyoCd=0153880067-00&ServiceCd=520&Type=search", "url2": "http://www.sanseikai-med.jp/urakawaryokuen/" }, "geometry": { "type": "Point", "coordinates": [ 142.694920799999977, 42.1953432 ] } },
{ "type": "Feature", "properties": { "内容": "新ひだか町介護老人保健施設まきば【介護老人保健施設】北海道日高郡新ひだか町静内緑町4丁目5番1号", "url": "https://www.kaigokensaku.mhlw.go.jp/01/index.php?action_kouhyou_detail_004_kani=true&JigyosyoCd=0153880059-00&ServiceCd=520&Type=search", "url2": null }, "geometry": { "type": "Point", "coordinates": [ 142.37503479999998, 42.3384955 ] } },
{ "type": "Feature", "properties": { "内容": "介護老人保健施設とかち【介護老人保健施設】北海道河東郡音更町緑陽台南区2番地6", "url": "https://www.kaigokensaku.mhlw.go.jp/01/index.php?action_kouhyou_detail_004_kani=true&JigyosyoCd=0154780019-00&ServiceCd=520&Type=search", "url2": "https://www.zhi.or.jp/t/" }, "geometry": { "type": "Point", "coordinates": [ 143.198648916671829, 42.963925063034225 ] } },
{ "type": "Feature", "properties": { "内容": "社会福祉法人手稲ロータス会　介護老人保健施設あんじゅ音更【介護老人保健施設】北海道河東郡音更町中鈴蘭元町2番地9", "url": "https://www.kaigokensaku.mhlw.go.jp/01/index.php?action_kouhyou_detail_004_kani=true&JigyosyoCd=0154780068-00&ServiceCd=520&Type=search", "url2": "http://www.teinelotuskai.com/anju.otofuke/" }, "geometry": { "type": "Point", "coordinates": [ 143.190805846032703, 42.95487153804708 ] } },
{ "type": "Feature", "properties": { "内容": "社会医療法人北斗　介護老人保健施設かみしほろ【介護老人保健施設】北海道河東郡上士幌町字上士幌東3線240番73", "url": "https://www.kaigokensaku.mhlw.go.jp/01/index.php?action_kouhyou_detail_004_kani=true&JigyosyoCd=0154780118-00&ServiceCd=520&Type=search", "url2": "https://www.hokuto7.or.jp/kamishihoro/longterm.html" }, "geometry": { "type": "Point", "coordinates": [ 143.296297099999947, 43.2344646 ] } },
{ "type": "Feature", "properties": { "内容": "介護老人保健施設もみじの里【介護老人保健施設】北海道河東郡鹿追町鹿追北２線８番地３３", "url": "https://www.kaigokensaku.mhlw.go.jp/01/index.php?action_kouhyou_detail_004_kani=true&JigyosyoCd=0154780076-00&ServiceCd=520&Type=search", "url2": "http://www2.shikaoi-keiaikai.jp/momiji/" }, "geometry": { "type": "Point", "coordinates": [ 142.9965426, 43.0953774 ] } },
{ "type": "Feature", "properties": { "内容": "介護老人保健施設りらく【介護老人保健施設】河西郡芽室町東芽室南2線16-2", "url": "https://www.kaigokensaku.mhlw.go.jp/01/index.php?action_kouhyou_detail_004_kani=true&JigyosyoCd=0154780035-00&ServiceCd=520&Type=search", "url2": "http://www.riraku.jp" }, "geometry": { "type": "Point", "coordinates": [ 143.093450599999954, 42.9132552 ] } },
{ "type": "Feature", "properties": { "内容": "介護老人保健施設　ケアステーションひかり【介護老人保健施設】広尾郡大樹町字大樹10番地8", "url": "https://www.kaigokensaku.mhlw.go.jp/01/index.php?action_kouhyou_detail_004_kani=true&JigyosyoCd=0154780027-00&ServiceCd=520&Type=search", "url2": "http://koujyukai.info/" }, "geometry": { "type": "Point", "coordinates": [ 143.267089599999963, 42.502128 ] } },
{ "type": "Feature", "properties": { "内容": "社会医療法人博愛会　介護老人保健施設あかしや【介護老人保健施設】北海道中川郡幕別町札内あかしや町42番地10", "url": "https://www.kaigokensaku.mhlw.go.jp/01/index.php?action_kouhyou_detail_004_kani=true&JigyosyoCd=0154780050-00&ServiceCd=520&Type=search", "url2": "http://www.roken-akashiya.org" }, "geometry": { "type": "Point", "coordinates": [ 143.248612699999967, 42.9083281 ] } },
{ "type": "Feature", "properties": { "内容": "池田町小規模介護老人保健施設ぴりか【介護老人保健施設】北海道中川郡池田町字西２条５丁目２５番地", "url": "https://www.kaigokensaku.mhlw.go.jp/01/index.php?action_kouhyou_detail_004_kani=true&JigyosyoCd=0154780092-00&ServiceCd=520&Type=search", "url2": "https://jadecom.or.jp/jadecom.tokachi-ikeda" }, "geometry": { "type": "Point", "coordinates": [ 143.4476138, 42.925858 ] } },
{ "type": "Feature", "properties": { "内容": "介護老人保健施設アメニティ本別【介護老人保健施設】北海道中川郡本別町西美里別6-18", "url": "https://www.kaigokensaku.mhlw.go.jp/01/index.php?action_kouhyou_detail_004_kani=true&JigyosyoCd=0154780043-00&ServiceCd=520&Type=search", "url2": "http://www.toukeikai.or.jp" }, "geometry": { "type": "Point", "coordinates": [ 143.591399564608992, 43.121537579075557 ] } },
{ "type": "Feature", "properties": { "内容": "介護老人保健施設　ナーシングホームコスモス【介護老人保健施設】釧路郡釧路町陸2丁目1番地１０", "url": "https://www.kaigokensaku.mhlw.go.jp/01/index.php?action_kouhyou_detail_004_kani=true&JigyosyoCd=0154380026-00&ServiceCd=520&Type=search", "url2": "https://www.fukikai.com" }, "geometry": { "type": "Point", "coordinates": [ 144.41682, 43.0106144 ] } },
{ "type": "Feature", "properties": { "内容": "厚岸町介護老人保健施設【介護老人保健施設】北海道厚岸郡厚岸町住の江１丁目１番地", "url": "https://www.kaigokensaku.mhlw.go.jp/01/index.php?action_kouhyou_detail_004_kani=true&JigyosyoCd=0154380034-00&ServiceCd=520&Type=search", "url2": "http://www.akkeshi-town.jp/byoin" }, "geometry": { "type": "Point", "coordinates": [ 144.847004299999981, 43.057492 ] } },
{ "type": "Feature", "properties": { "内容": "介護老人保健施設えんれい荘【介護老人保健施設】北海道阿寒郡鶴居村字雪裡原野北２２線西１１番地", "url": "https://www.kaigokensaku.mhlw.go.jp/01/index.php?action_kouhyou_detail_004_kani=true&JigyosyoCd=0154380042-00&ServiceCd=520&Type=search", "url2": "https://www.siseikai.or.jp/enreiso/" }, "geometry": { "type": "Point", "coordinates": [ 144.32603087047778, 43.272681632782017 ] } },
{ "type": "Feature", "properties": { "内容": "別海町老人保健施設すこやか【介護老人保健施設】北海道野付郡別海町別海西本町103番地3", "url": "https://www.kaigokensaku.mhlw.go.jp/01/index.php?action_kouhyou_detail_004_kani=true&JigyosyoCd=0154280010-00&ServiceCd=520&Type=search", "url2": "betsukai.jp/shisetsu/fukushi/sukoyaka/" }, "geometry": { "type": "Point", "coordinates": [ 145.123079, 43.3908907 ] } }
]
}
