{
"type": "FeatureCollection",
"name": "geo_01_特定施設入居者生活介護（有料老人ホーム（サービス付き高齢者向け住宅））",
"crs": { "type": "name", "properties": { "name": "urn:ogc:def:crs:OGC:1.3:CRS84" } },
"features": [
{ "type": "Feature", "properties": { "内容": "サービス付き高齢者向け住宅ウィステリアＮ17【特定施設入居者生活介護（有料老人ホーム（サービス付き高齢者向け住宅））】北海道札幌市北区北17条西3丁目2番1号", "url": "https://www.kaigokensaku.mhlw.go.jp/01/index.php?action_kouhyou_detail_004_kani=true&JigyosyoCd=0170208169-00&ServiceCd=&Type=search", "url2": "http://www.msnw-wis.jp/n17/" }, "geometry": { "type": "Point", "coordinates": [ 141.3479618, 43.0813489 ] } },
{ "type": "Feature", "properties": { "内容": "株式会社ノース・フィール　特定施設入居者生活介護ネオ【特定施設入居者生活介護（有料老人ホーム（サービス付き高齢者向け住宅））】札幌市東区北37条東28丁目6番10号", "url": "https://www.kaigokensaku.mhlw.go.jp/01/index.php?action_kouhyou_detail_004_kani=true&JigyosyoCd=0170201487-00&ServiceCd=&Type=search", "url2": "https://north-feel.jp" }, "geometry": { "type": "Point", "coordinates": [ 141.395189599999981, 43.1040808 ] } },
{ "type": "Feature", "properties": { "内容": "特定施設入居者生活介護　マイラシーク手宮【特定施設入居者生活介護（有料老人ホーム（サービス付き高齢者向け住宅））】北海道小樽市手宮2丁目1-1サービス付き高齢者向け住宅　マイラシーク手宮", "url": "https://www.kaigokensaku.mhlw.go.jp/01/index.php?action_kouhyou_detail_004_kani=true&JigyosyoCd=0172003139-00&ServiceCd=&Type=search", "url2": "https://www.mylachic.chuo-bus.co.jp/temiya/" }, "geometry": { "type": "Point", "coordinates": [ 140.997975700000012, 43.2097087 ] } },
{ "type": "Feature", "properties": { "内容": "特定施設入居者生活介護マイラシーク塩谷【特定施設入居者生活介護（有料老人ホーム（サービス付き高齢者向け住宅））】北海道小樽市塩谷2丁目2番21号", "url": "https://www.kaigokensaku.mhlw.go.jp/01/index.php?action_kouhyou_detail_004_kani=true&JigyosyoCd=0172003121-00&ServiceCd=&Type=search", "url2": "https://www.mylachic.chuo-bus.co.jp/shioya/" }, "geometry": { "type": "Point", "coordinates": [ 140.9429474, 43.2160062 ] } },
{ "type": "Feature", "properties": { "内容": "サービス付き高齢者向け住宅ウィステリア小樽稲穂【特定施設入居者生活介護（有料老人ホーム（サービス付き高齢者向け住宅））】北海道小樽市稲穂1丁目4番2号", "url": "https://www.kaigokensaku.mhlw.go.jp/01/index.php?action_kouhyou_detail_004_kani=true&JigyosyoCd=0172002479-00&ServiceCd=&Type=search", "url2": "http://www.msnw-wis.jp" }, "geometry": { "type": "Point", "coordinates": [ 140.9983125, 43.1950979 ] } },
{ "type": "Feature", "properties": { "内容": "ヴェラス・クオーレ小樽【特定施設入居者生活介護（有料老人ホーム（サービス付き高齢者向け住宅））】北海道小樽市花園１丁目１番９号KGビル", "url": "https://www.kaigokensaku.mhlw.go.jp/01/index.php?action_kouhyou_detail_004_kani=true&JigyosyoCd=0172001448-00&ServiceCd=&Type=search", "url2": "http://www.varus.co.jp/" }, "geometry": { "type": "Point", "coordinates": [ 140.999736399999961, 43.1937087 ] } },
{ "type": "Feature", "properties": { "内容": "ブルーテラス大雪【特定施設入居者生活介護（有料老人ホーム（サービス付き高齢者向け住宅））】北海道旭川市大雪通7丁目506番の16", "url": "https://www.kaigokensaku.mhlw.go.jp/01/index.php?action_kouhyou_detail_004_kani=true&JigyosyoCd=0172907701-00&ServiceCd=&Type=search", "url2": "https://taisetsu.blue-care.net/" }, "geometry": { "type": "Point", "coordinates": [ 142.3897814, 43.7831175 ] } },
{ "type": "Feature", "properties": { "内容": "ブルーテラス神楽【特定施設入居者生活介護（有料老人ホーム（サービス付き高齢者向け住宅））】北海道旭川市神楽2条9丁目2番27号ブルーテラス神楽", "url": "https://www.kaigokensaku.mhlw.go.jp/01/index.php?action_kouhyou_detail_004_kani=true&JigyosyoCd=0172908071-00&ServiceCd=&Type=search", "url2": "https://kagura.blue-care.net" }, "geometry": { "type": "Point", "coordinates": [ 142.356126, 43.7578478 ] } },
{ "type": "Feature", "properties": { "内容": "ふれあいの里　華音【特定施設入居者生活介護（有料老人ホーム（サービス付き高齢者向け住宅））】旭川市4条通17丁目1481－1", "url": "https://www.kaigokensaku.mhlw.go.jp/01/index.php?action_kouhyou_detail_004_kani=true&JigyosyoCd=0172904757-00&ServiceCd=&Type=search", "url2": "http://nisso-fcs.jp/" }, "geometry": { "type": "Point", "coordinates": [ 142.374732, 43.7645087 ] } },
{ "type": "Feature", "properties": { "内容": "介護付有料老人ホーム　さわやか室蘭弐番館【特定施設入居者生活介護（有料老人ホーム（サービス付き高齢者向け住宅））】北海道室蘭市天神町27番12号介護付有料老人ホーム　さわやか室蘭弐番館", "url": "https://www.kaigokensaku.mhlw.go.jp/01/index.php?action_kouhyou_detail_004_kani=true&JigyosyoCd=0173502261-00&ServiceCd=&Type=search", "url2": "http://www.sawayakaclub.jp/murorannibankan/" }, "geometry": { "type": "Point", "coordinates": [ 141.025138700000014, 42.3722162 ] } },
{ "type": "Feature", "properties": { "内容": "ベルラヴィるくる【特定施設入居者生活介護（有料老人ホーム（サービス付き高齢者向け住宅））】帯広市東4条南10丁目15番地", "url": "https://www.kaigokensaku.mhlw.go.jp/01/index.php?action_kouhyou_detail_004_kani=true&JigyosyoCd=0174601336-00&ServiceCd=&Type=search", "url2": "https://www.rukuru.life/" }, "geometry": { "type": "Point", "coordinates": [ 143.211421, 42.9210557 ] } },
{ "type": "Feature", "properties": { "内容": "ケアタウンとてっぽの丘るくる【特定施設入居者生活介護（有料老人ホーム（サービス付き高齢者向け住宅））】北海道帯広市西7条南26丁目13番地1", "url": "https://www.kaigokensaku.mhlw.go.jp/01/index.php?action_kouhyou_detail_004_kani=true&JigyosyoCd=0174601930-00&ServiceCd=&Type=search", "url2": "http://www.rukuru.life" }, "geometry": { "type": "Point", "coordinates": [ 143.197157819712885, 42.901419569893328 ] } },
{ "type": "Feature", "properties": { "内容": "サービス付き高齢者向け住宅オアシス３番館【特定施設入居者生活介護（有料老人ホーム（サービス付き高齢者向け住宅））】北海道岩見沢市２条西５丁目２番地７プライムホームオアシス１・２・３番館", "url": "https://www.kaigokensaku.mhlw.go.jp/01/index.php?action_kouhyou_detail_004_kani=true&JigyosyoCd=0175701192-00&ServiceCd=&Type=search", "url2": "http://www.oasys-care.co.jp" }, "geometry": { "type": "Point", "coordinates": [ 141.761059199999977, 43.2029653 ] } },
{ "type": "Feature", "properties": { "内容": "介護付き高齢者住宅かえん【特定施設入居者生活介護（有料老人ホーム（サービス付き高齢者向け住宅））】北海道岩見沢市6条西13丁目38-1", "url": "https://www.kaigokensaku.mhlw.go.jp/01/index.php?action_kouhyou_detail_004_kani=true&JigyosyoCd=0175701176-00&ServiceCd=&Type=search", "url2": "http://www.clh-kk.com" }, "geometry": { "type": "Point", "coordinates": [ 141.756621, 43.1959272 ] } },
{ "type": "Feature", "properties": { "内容": "混合型特定施設入居者生活介護　明日家の杜【特定施設入居者生活介護（有料老人ホーム（サービス付き高齢者向け住宅））】北海道岩見沢市7条東7丁目2番地４", "url": "https://www.kaigokensaku.mhlw.go.jp/01/index.php?action_kouhyou_detail_004_kani=true&JigyosyoCd=0175701168-00&ServiceCd=&Type=search", "url2": "http://asmo.imm.co.jp" }, "geometry": { "type": "Point", "coordinates": [ 141.776160800000071, 43.2026992 ] } },
{ "type": "Feature", "properties": { "内容": "サービス付き高齢者向け住宅　花・水・木【特定施設入居者生活介護（有料老人ホーム（サービス付き高齢者向け住宅））】北海道網走市字二ツ岩1番地10サービス付き高齢者向け住宅　花・水・木", "url": "https://www.kaigokensaku.mhlw.go.jp/01/index.php?action_kouhyou_detail_004_kani=true&JigyosyoCd=0175300755-00&ServiceCd=&Type=search", "url2": "http://www.takahasi.co.jp" }, "geometry": { "type": "Point", "coordinates": [ 144.258537656483469, 44.049732901382797 ] } },
{ "type": "Feature", "properties": { "内容": "医療法人　讃生会　ありあけ２番館【特定施設入居者生活介護（有料老人ホーム（サービス付き高齢者向け住宅））】北海道網走市字潮見１５７番地２", "url": "https://www.kaigokensaku.mhlw.go.jp/01/index.php?action_kouhyou_detail_004_kani=true&JigyosyoCd=0175300664-00&ServiceCd=&Type=search", "url2": "https:www.sanseikai-med.jp>abashiri" }, "geometry": { "type": "Point", "coordinates": [ 144.2674074, 43.991902699999983 ] } },
{ "type": "Feature", "properties": { "内容": "介護付有料老人ホーム「セントラル表町」【特定施設入居者生活介護（有料老人ホーム（サービス付き高齢者向け住宅））】北海道苫小牧市表町５丁目１１番５号", "url": "https://www.kaigokensaku.mhlw.go.jp/01/index.php?action_kouhyou_detail_004_kani=true&JigyosyoCd=0173602251-00&ServiceCd=&Type=search", "url2": "http://www.friend.or.jp/roujin3/c_omotemati.html" }, "geometry": { "type": "Point", "coordinates": [ 141.598328131213407, 42.639964727305511 ] } },
{ "type": "Feature", "properties": { "内容": "いちい【特定施設入居者生活介護（有料老人ホーム（サービス付き高齢者向け住宅））】北海道苫小牧市青葉町2丁目9番19号", "url": "https://www.kaigokensaku.mhlw.go.jp/01/index.php?action_kouhyou_detail_004_kani=true&JigyosyoCd=0173601808-00&ServiceCd=&Type=search", "url2": "http://www.nisso-fcs.jp/" }, "geometry": { "type": "Point", "coordinates": [ 141.569834918385368, 42.629703144073567 ] } },
{ "type": "Feature", "properties": { "内容": "サービス付き高齢者向け住宅　ふれあいの里わっかない風華【特定施設入居者生活介護（有料老人ホーム（サービス付き高齢者向け住宅））】北海道稚内市中央3丁目6番1号", "url": "https://www.kaigokensaku.mhlw.go.jp/01/index.php?action_kouhyou_detail_004_kani=true&JigyosyoCd=0176700839-00&ServiceCd=&Type=search", "url2": "http://nisso-fcs.jp/" }, "geometry": { "type": "Point", "coordinates": [ 141.677409624893926, 45.416727683456386 ] } },
{ "type": "Feature", "properties": { "内容": "紫苑館【特定施設入居者生活介護（有料老人ホーム（サービス付き高齢者向け住宅））】北海道士別市東1条15丁目3144－166紫苑舘", "url": "https://www.kaigokensaku.mhlw.go.jp/01/index.php?action_kouhyou_detail_004_kani=true&JigyosyoCd=0173200882-00&ServiceCd=&Type=search", "url2": null }, "geometry": { "type": "Point", "coordinates": [ 142.3973128, 44.1670237 ] } },
{ "type": "Feature", "properties": { "内容": "介護付き高齢者住宅ほのか三笠【特定施設入居者生活介護（有料老人ホーム（サービス付き高齢者向け住宅））】北海道三笠市幸町8-2", "url": "https://www.kaigokensaku.mhlw.go.jp/01/index.php?action_kouhyou_detail_004_kani=true&JigyosyoCd=0176000164-00&ServiceCd=&Type=search", "url2": "https://www.clh-kk.com/ikoinosato/" }, "geometry": { "type": "Point", "coordinates": [ 141.875277200000028, 43.245524 ] } },
{ "type": "Feature", "properties": { "内容": "特定施設入居者生活介護　カーサシーザーズ【特定施設入居者生活介護（有料老人ホーム（サービス付き高齢者向け住宅））】滝川市本町1丁目5番27号カーサシーザーズ", "url": "https://www.kaigokensaku.mhlw.go.jp/01/index.php?action_kouhyou_detail_004_kani=true&JigyosyoCd=0177500329-00&ServiceCd=&Type=search", "url2": "http://caeser.jp" }, "geometry": { "type": "Point", "coordinates": [ 141.905400900000018, 43.5590723 ] } },
{ "type": "Feature", "properties": { "内容": "特定施設入居者生活介護カーサシーザーズ３－３【特定施設入居者生活介護（有料老人ホーム（サービス付き高齢者向け住宅））】北海道滝川市栄町3丁目3番16号KANBE　MEDICARE　BLD", "url": "https://www.kaigokensaku.mhlw.go.jp/01/index.php?action_kouhyou_detail_004_kani=true&JigyosyoCd=0177540689-00&ServiceCd=&Type=search", "url2": "http://www.caeser.or.jp/casa/" }, "geometry": { "type": "Point", "coordinates": [ 141.906595399999986, 43.5578697 ] } },
{ "type": "Feature", "properties": { "内容": "介護付高齢者住宅シニアレジデンスじけい【特定施設入居者生活介護（有料老人ホーム（サービス付き高齢者向け住宅））】北海道砂川市西3条南11丁目3番20号", "url": "https://www.kaigokensaku.mhlw.go.jp/01/index.php?action_kouhyou_detail_004_kani=true&JigyosyoCd=0177100716-00&ServiceCd=&Type=search", "url2": "http://sakouju-jikei.com/" }, "geometry": { "type": "Point", "coordinates": [ 141.900503, 43.4774249 ] } },
{ "type": "Feature", "properties": { "内容": "サービス付き高齢者向け住宅すえひろ【特定施設入居者生活介護（有料老人ホーム（サービス付き高齢者向け住宅））】北海道富良野市末広町", "url": "https://www.kaigokensaku.mhlw.go.jp/01/index.php?action_kouhyou_detail_004_kani=true&JigyosyoCd=0173000480-00&ServiceCd=&Type=search", "url2": "http://kawamura-mgp.or.jp/suehiro/" }, "geometry": { "type": "Point", "coordinates": [ 142.385043700000011, 43.3404529 ] } },
{ "type": "Feature", "properties": { "内容": "グッドタイムホーム・登別弐番館【特定施設入居者生活介護（有料老人ホーム（サービス付き高齢者向け住宅））】北海道登別市緑町1丁目１番地6", "url": "https://www.kaigokensaku.mhlw.go.jp/01/index.php?action_kouhyou_detail_004_kani=true&JigyosyoCd=0173502394-00&ServiceCd=&Type=search", "url2": "http://www.goodtimehome.com" }, "geometry": { "type": "Point", "coordinates": [ 141.094952, 42.4008672 ] } },
{ "type": "Feature", "properties": { "内容": "介護付有料老人ホーム悠々【特定施設入居者生活介護（有料老人ホーム（サービス付き高齢者向け住宅））】北海道北広島市輪厚５５８番地１４３", "url": "https://www.kaigokensaku.mhlw.go.jp/01/index.php?action_kouhyou_detail_004_kani=true&JigyosyoCd=0171300460-00&ServiceCd=&Type=search", "url2": "http://www.shojinkai.or.jp/" }, "geometry": { "type": "Point", "coordinates": [ 141.507510799999977, 42.9439553 ] } },
{ "type": "Feature", "properties": { "内容": "ふれあいの里華れん【特定施設入居者生活介護（有料老人ホーム（サービス付き高齢者向け住宅））】北海道北広島市虹ヶ丘７丁目２－３", "url": "https://www.kaigokensaku.mhlw.go.jp/01/index.php?action_kouhyou_detail_004_kani=true&JigyosyoCd=0171300494-00&ServiceCd=&Type=search", "url2": "http://nisso-fcs.jp/" }, "geometry": { "type": "Point", "coordinates": [ 141.487838900000042, 43.0222397 ] } },
{ "type": "Feature", "properties": { "内容": "ハッピーライフ幸縁【特定施設入居者生活介護（有料老人ホーム（サービス付き高齢者向け住宅））】北海道北斗市久根別３丁目４番１９号", "url": "https://www.kaigokensaku.mhlw.go.jp/01/index.php?action_kouhyou_detail_004_kani=true&JigyosyoCd=0171501299-00&ServiceCd=&Type=search", "url2": "https://careandheart.net" }, "geometry": { "type": "Point", "coordinates": [ 140.663316, 41.826921 ] } },
{ "type": "Feature", "properties": { "内容": "特定施設入居者生活介護サービス付き高齢者向け住宅北斗【特定施設入居者生活介護（有料老人ホーム（サービス付き高齢者向け住宅））】北海道北斗市七重浜2丁目37番5号サービス付き高齢者向け住宅北斗", "url": "https://www.kaigokensaku.mhlw.go.jp/01/index.php?action_kouhyou_detail_004_kani=true&JigyosyoCd=0171501596-00&ServiceCd=&Type=search", "url2": "http://hokuto-sakoujyu.com" }, "geometry": { "type": "Point", "coordinates": [ 140.705154599999986, 41.8160209 ] } },
{ "type": "Feature", "properties": { "内容": "サービス付き高齢者向け住宅ほっと【特定施設入居者生活介護（有料老人ホーム（サービス付き高齢者向け住宅））】北斗市本町5丁目16番9号", "url": "https://www.kaigokensaku.mhlw.go.jp/01/index.php?action_kouhyou_detail_004_kani=true&JigyosyoCd=0171501505-00&ServiceCd=&Type=search", "url2": "https://www.hinokikai.jp/" }, "geometry": { "type": "Point", "coordinates": [ 140.645852099999956, 41.8750565 ] } },
{ "type": "Feature", "properties": { "内容": "介護付有料老人ホーム「花つむぎ」【特定施設入居者生活介護（有料老人ホーム（サービス付き高齢者向け住宅））】北海道白老郡白老町東町2丁目4番12号", "url": "https://www.kaigokensaku.mhlw.go.jp/01/index.php?action_kouhyou_detail_004_kani=true&JigyosyoCd=0173602236-00&ServiceCd=&Type=search", "url2": "http://www.douousatou.or.jp/shiraoi/shiraoi_yu_hana.html" }, "geometry": { "type": "Point", "coordinates": [ 141.365322400000053, 42.5565871 ] } },
{ "type": "Feature", "properties": { "内容": "介護付高齢者専用賃貸住宅ピアしらかば【特定施設入居者生活介護（有料老人ホーム（サービス付き高齢者向け住宅））】北海道河東郡音更町木野西通１５丁目５番４", "url": "https://www.kaigokensaku.mhlw.go.jp/01/index.php?action_kouhyou_detail_004_kani=true&JigyosyoCd=0174701144-00&ServiceCd=&Type=search", "url2": "http://www.shirakaba-group.com" }, "geometry": { "type": "Point", "coordinates": [ 143.202816699999971, 42.9661609 ] } },
{ "type": "Feature", "properties": { "内容": "特定施設入居者生活介護つなぐ【特定施設入居者生活介護（有料老人ホーム（サービス付き高齢者向け住宅））】北海道標津郡中標津町西11条南8丁目3番地サービス付き高齢者向け住宅つなぐ", "url": "https://www.kaigokensaku.mhlw.go.jp/01/index.php?action_kouhyou_detail_004_kani=true&JigyosyoCd=0174200691-00&ServiceCd=&Type=search", "url2": "http://tsunagu-care.com/" }, "geometry": { "type": "Point", "coordinates": [ 144.969484100000045, 43.5368305 ] } }
]
}
