{
"type": "FeatureCollection",
"name": "geo_1_4",
"crs": { "type": "name", "properties": { "name": "urn:ogc:def:crs:OGC:1.3:CRS84" } },
"features": [
{ "type": "Feature", "properties": { "ID": 144010000050, "正式名称": "母乳育児相談室　さいとう", "機関区分": 4, "都道府県コード": 1, "市区町村コード": 103, "所在地": "北海道札幌市東区北１０条東２丁目１－２０－４１２", "緯度": 43.074076, "経度": 141.356047, "url": "https://www.iryou.teikyouseido.mhlw.go.jp/znk-web/juminkanja/S2430/initialize?prefCd=01&kikanCd=4010000050&kikanKbn=4", "url2": null, "内容": "母乳育児相談室　さいとう【4:助産院】北海道札幌市東区北１０条東２丁目１－２０－４１２" }, "geometry": { "type": "Point", "coordinates": [ 141.356047, 43.074076 ] } },
{ "type": "Feature", "properties": { "ID": 144010000090, "正式名称": "ありじゅマタニティハウス", "機関区分": 4, "都道府県コード": 1, "市区町村コード": 104, "所在地": "北海道札幌市白石区菊水上町２条１丁目４６－９０リバ－エミール１０１", "緯度": 43.065092, "経度": 141.385676, "url": "https://www.iryou.teikyouseido.mhlw.go.jp/znk-web/juminkanja/S2430/initialize?prefCd=01&kikanCd=4010000090&kikanKbn=4", "url2": "http://www2.ocn.ne.jp", "内容": "ありじゅマタニティハウス【4:助産院】北海道札幌市白石区菊水上町２条１丁目４６－９０リバ－エミール１０１" }, "geometry": { "type": "Point", "coordinates": [ 141.385676, 43.065092 ] } },
{ "type": "Feature", "properties": { "ID": 144010000110, "正式名称": "今井母乳育児相談室", "機関区分": 4, "都道府県コード": 1, "市区町村コード": 110, "所在地": "北海道札幌市清田区平岡４条１丁目６－５", "緯度": 43.004851, "経度": 141.449825, "url": "https://www.iryou.teikyouseido.mhlw.go.jp/znk-web/juminkanja/S2430/initialize?prefCd=01&kikanCd=4010000110&kikanKbn=4", "url2": null, "内容": "今井母乳育児相談室【4:助産院】北海道札幌市清田区平岡４条１丁目６－５" }, "geometry": { "type": "Point", "coordinates": [ 141.449825, 43.004851 ] } },
{ "type": "Feature", "properties": { "ID": 144010000130, "正式名称": "森田母乳育児相談室", "機関区分": 4, "都道府県コード": 1, "市区町村コード": 107, "所在地": "北海道札幌市西区琴似１条６丁目４－１クレアホームズ琴似４０６", "緯度": 43.073949, "経度": 141.301403, "url": "https://www.iryou.teikyouseido.mhlw.go.jp/znk-web/juminkanja/S2430/initialize?prefCd=01&kikanCd=4010000130&kikanKbn=4", "url2": null, "内容": "森田母乳育児相談室【4:助産院】北海道札幌市西区琴似１条６丁目４－１クレアホームズ琴似４０６" }, "geometry": { "type": "Point", "coordinates": [ 141.301403, 43.073949 ] } },
{ "type": "Feature", "properties": { "ID": 144010000150, "正式名称": "医療法人アパンド　助産院マミーズ・ポート", "機関区分": 4, "都道府県コード": 1, "市区町村コード": 102, "所在地": "北海道札幌市北区北３１条西３丁目３－７", "緯度": 43.098321, "経度": 141.343214, "url": "https://www.iryou.teikyouseido.mhlw.go.jp/znk-web/juminkanja/S2430/initialize?prefCd=01&kikanCd=4010000150&kikanKbn=4", "url2": "https://mammysport.com/", "内容": "医療法人アパンド　助産院マミーズ・ポート【4:助産院】北海道札幌市北区北３１条西３丁目３－７" }, "geometry": { "type": "Point", "coordinates": [ 141.343214, 43.098321 ] } },
{ "type": "Feature", "properties": { "ID": 144010000160, "正式名称": "にこにこ母乳相談所", "機関区分": 4, "都道府県コード": 1, "市区町村コード": 233, "所在地": "北海道伊達市梅本町９番地８", "緯度": 42.47187, "経度": 140.87115, "url": "https://www.iryou.teikyouseido.mhlw.go.jp/znk-web/juminkanja/S2430/initialize?prefCd=01&kikanCd=4010000160&kikanKbn=4", "url2": null, "内容": "にこにこ母乳相談所【4:助産院】北海道伊達市梅本町９番地８" }, "geometry": { "type": "Point", "coordinates": [ 140.87115, 42.47187 ] } },
{ "type": "Feature", "properties": { "ID": 144010000220, "正式名称": "助産院あゆる", "機関区分": 4, "都道府県コード": 1, "市区町村コード": 204, "所在地": "北海道旭川市永山８条１５丁目１番２号", "緯度": 43.800155, "経度": 142.432306, "url": "https://www.iryou.teikyouseido.mhlw.go.jp/znk-web/juminkanja/S2430/initialize?prefCd=01&kikanCd=4010000220&kikanKbn=4", "url2": "http://josanin-ayuru.com/", "内容": "助産院あゆる【4:助産院】北海道旭川市永山８条１５丁目１番２号" }, "geometry": { "type": "Point", "coordinates": [ 142.432306, 43.800155 ] } },
{ "type": "Feature", "properties": { "ID": 144010000300, "正式名称": "鈴木助産所", "機関区分": 4, "都道府県コード": 1, "市区町村コード": 206, "所在地": "北海道釧路市鳥取北４丁目１５番１５号", "緯度": 43.0162273, "経度": 144.3509787, "url": "https://www.iryou.teikyouseido.mhlw.go.jp/znk-web/juminkanja/S2430/initialize?prefCd=01&kikanCd=4010000300&kikanKbn=4", "url2": null, "内容": "鈴木助産所【4:助産院】北海道釧路市鳥取北４丁目１５番１５号" }, "geometry": { "type": "Point", "coordinates": [ 144.350978700000013, 43.0162273 ] } },
{ "type": "Feature", "properties": { "ID": 144010000320, "正式名称": "助産院マタニティアイ", "機関区分": 4, "都道府県コード": 1, "市区町村コード": 661, "所在地": "北海道釧路郡釧路町曙１丁目１番１４号", "緯度": 43.01186, "経度": 144.41086, "url": "https://www.iryou.teikyouseido.mhlw.go.jp/znk-web/juminkanja/S2430/initialize?prefCd=01&kikanCd=4010000320&kikanKbn=4", "url2": "http//ma-i946.com/", "内容": "助産院マタニティアイ【4:助産院】北海道釧路郡釧路町曙１丁目１番１４号" }, "geometry": { "type": "Point", "coordinates": [ 144.41086, 43.01186 ] } },
{ "type": "Feature", "properties": { "ID": 144010000350, "正式名称": "母乳育児相談室るここ　小川助産所", "機関区分": 4, "都道府県コード": 1, "市区町村コード": 692, "所在地": "北海道標津郡中標津町西町３丁目４５番地", "緯度": 43.55398, "経度": 144.95872, "url": "https://www.iryou.teikyouseido.mhlw.go.jp/znk-web/juminkanja/S2430/initialize?prefCd=01&kikanCd=4010000350&kikanKbn=4", "url2": "http://lecoco-bonyu.com/", "内容": "母乳育児相談室るここ　小川助産所【4:助産院】北海道標津郡中標津町西町３丁目４５番地" }, "geometry": { "type": "Point", "coordinates": [ 144.95872, 43.55398 ] } },
{ "type": "Feature", "properties": { "ID": 144010000360, "正式名称": "母乳育児相談室ピア", "機関区分": 4, "都道府県コード": 1, "市区町村コード": 543, "所在地": "北海道網走郡美幌町東３条北２丁目１番地２Ｆ", "緯度": 35.959066, "経度": 139.410184, "url": "https://www.iryou.teikyouseido.mhlw.go.jp/znk-web/juminkanja/S2430/initialize?prefCd=01&kikanCd=4010000360&kikanKbn=4", "url2": null, "内容": "母乳育児相談室ピア【4:助産院】北海道網走郡美幌町東３条北２丁目１番地２Ｆ" }, "geometry": { "type": "Point", "coordinates": [ 139.410184, 35.959066 ] } },
{ "type": "Feature", "properties": { "ID": 144010000380, "正式名称": "ひまわり母乳相談所", "機関区分": 4, "都道府県コード": 1, "市区町村コード": 233, "所在地": "北海道伊達市山下町２７１－１３", "緯度": 42.47085, "経度": 140.85742, "url": "https://www.iryou.teikyouseido.mhlw.go.jp/znk-web/juminkanja/S2430/initialize?prefCd=01&kikanCd=4010000380&kikanKbn=4", "url2": null, "内容": "ひまわり母乳相談所【4:助産院】北海道伊達市山下町２７１－１３" }, "geometry": { "type": "Point", "coordinates": [ 140.85742, 42.47085 ] } },
{ "type": "Feature", "properties": { "ID": 144010000440, "正式名称": "助産院「エ・ク・ボ」", "機関区分": 4, "都道府県コード": 1, "市区町村コード": 107, "所在地": "北海道札幌市西区発寒　６条１０丁目１０－３", "緯度": 43.091016, "経度": 141.278352, "url": "https://www.iryou.teikyouseido.mhlw.go.jp/znk-web/juminkanja/S2430/initialize?prefCd=01&kikanCd=4010000440&kikanKbn=4", "url2": "https://ekubo-baby.com", "内容": "助産院「エ・ク・ボ」【4:助産院】北海道札幌市西区発寒　６条１０丁目１０－３" }, "geometry": { "type": "Point", "coordinates": [ 141.278352, 43.091016 ] } },
{ "type": "Feature", "properties": { "ID": 144010000450, "正式名称": "のぐち母乳育児相談室", "機関区分": 4, "都道府県コード": 1, "市区町村コード": 221, "所在地": "北海道名寄市西１０条南９丁目４８－６０", "緯度": 44.346875, "経度": 142.449669, "url": "https://www.iryou.teikyouseido.mhlw.go.jp/znk-web/juminkanja/S2430/initialize?prefCd=01&kikanCd=4010000450&kikanKbn=4", "url2": "http://noguchibonyuikuji.com/", "内容": "のぐち母乳育児相談室【4:助産院】北海道名寄市西１０条南９丁目４８－６０" }, "geometry": { "type": "Point", "coordinates": [ 142.449669, 44.346875 ] } },
{ "type": "Feature", "properties": { "ID": 144010000470, "正式名称": "よしおか母乳相談室", "機関区分": 4, "都道府県コード": 1, "市区町村コード": 631, "所在地": "北海道河東郡音更町南鈴蘭北６丁目５番地１", "緯度": 42.950424, "経度": 143.19801, "url": "https://www.iryou.teikyouseido.mhlw.go.jp/znk-web/juminkanja/S2430/initialize?prefCd=01&kikanCd=4010000470&kikanKbn=4", "url2": null, "内容": "よしおか母乳相談室【4:助産院】北海道河東郡音更町南鈴蘭北６丁目５番地１" }, "geometry": { "type": "Point", "coordinates": [ 143.19801, 42.950424 ] } },
{ "type": "Feature", "properties": { "ID": 144010000480, "正式名称": "母乳育児相談室陽だまり清水助産所", "機関区分": 4, "都道府県コード": 1, "市区町村コード": 204, "所在地": "北海道旭川市神楽岡８条４丁目３番１０号", "緯度": 43.742993, "経度": 142.367426, "url": "https://www.iryou.teikyouseido.mhlw.go.jp/znk-web/juminkanja/S2430/initialize?prefCd=01&kikanCd=4010000480&kikanKbn=4", "url2": null, "内容": "母乳育児相談室陽だまり清水助産所【4:助産院】北海道旭川市神楽岡８条４丁目３番１０号" }, "geometry": { "type": "Point", "coordinates": [ 142.367426, 43.742993 ] } },
{ "type": "Feature", "properties": { "ID": 144010000490, "正式名称": "まーこっこ助産院", "機関区分": 4, "都道府県コード": 1, "市区町村コード": 215, "所在地": "北海道美唄市東４条南１丁目３－６", "緯度": 43.330569, "経度": 141.870819, "url": "https://www.iryou.teikyouseido.mhlw.go.jp/znk-web/juminkanja/S2430/initialize?prefCd=01&kikanCd=4010000490&kikanKbn=4", "url2": null, "内容": "まーこっこ助産院【4:助産院】北海道美唄市東４条南１丁目３－６" }, "geometry": { "type": "Point", "coordinates": [ 141.870819, 43.330569 ] } },
{ "type": "Feature", "properties": { "ID": 144010000530, "正式名称": "つるべ助産院", "機関区分": 4, "都道府県コード": 1, "市区町村コード": 104, "所在地": "北海道札幌市白石区北郷３条２丁目１３－８", "緯度": 43.061716, "経度": 141.410342, "url": "https://www.iryou.teikyouseido.mhlw.go.jp/znk-web/juminkanja/S2430/initialize?prefCd=01&kikanCd=4010000530&kikanKbn=4", "url2": "http//www.ubuya-tsuru.com/", "内容": "つるべ助産院【4:助産院】北海道札幌市白石区北郷３条２丁目１３－８" }, "geometry": { "type": "Point", "coordinates": [ 141.410342, 43.061716 ] } },
{ "type": "Feature", "properties": { "ID": 144010000540, "正式名称": "母乳育児なんでも相談室　おつきさま助産院", "機関区分": 4, "都道府県コード": 1, "市区町村コード": 104, "所在地": "北海道札幌市白石区平和通８丁目北３番３６号", "緯度": 43.048218, "経度": 141.422397, "url": "https://www.iryou.teikyouseido.mhlw.go.jp/znk-web/juminkanja/S2430/initialize?prefCd=01&kikanCd=4010000540&kikanKbn=4", "url2": "http://otsukisama-jyosanin.com/", "内容": "母乳育児なんでも相談室　おつきさま助産院【4:助産院】北海道札幌市白石区平和通８丁目北３番３６号" }, "geometry": { "type": "Point", "coordinates": [ 141.422397, 43.048218 ] } },
{ "type": "Feature", "properties": { "ID": 144010000560, "正式名称": "桶谷式母乳育児相談室りっか助産院", "機関区分": 4, "都道府県コード": 1, "市区町村コード": 101, "所在地": "北海道札幌市中央区中央区", "緯度": 43.057799, "経度": 141.34782, "url": "https://www.iryou.teikyouseido.mhlw.go.jp/znk-web/juminkanja/S2430/initialize?prefCd=01&kikanCd=4010000560&kikanKbn=4", "url2": "http://www.sapporo-bonyu.com", "内容": "桶谷式母乳育児相談室りっか助産院【4:助産院】北海道札幌市中央区中央区" }, "geometry": { "type": "Point", "coordinates": [ 141.34782, 43.057799 ] } },
{ "type": "Feature", "properties": { "ID": 144010000580, "正式名称": "のどか助産院　母乳育児相談室", "機関区分": 4, "都道府県コード": 1, "市区町村コード": 213, "所在地": "北海道苫小牧市拓勇東町２丁目３番２２号", "緯度": 42.667308, "経度": 141.676824, "url": "https://www.iryou.teikyouseido.mhlw.go.jp/znk-web/juminkanja/S2430/initialize?prefCd=01&kikanCd=4010000580&kikanKbn=4", "url2": "https://nodoka-jyosannin.jimdo.com/", "内容": "のどか助産院　母乳育児相談室【4:助産院】北海道苫小牧市拓勇東町２丁目３番２２号" }, "geometry": { "type": "Point", "coordinates": [ 141.676824, 42.667308 ] } },
{ "type": "Feature", "properties": { "ID": 144010000600, "正式名称": "なみうち助産院", "機関区分": 4, "都道府県コード": 1, "市区町村コード": 396, "所在地": "北海道虻田郡真狩村字社８７－１", "緯度": 42.778997, "経度": 140.792176, "url": "https://www.iryou.teikyouseido.mhlw.go.jp/znk-web/juminkanja/S2430/initialize?prefCd=01&kikanCd=4010000600&kikanKbn=4", "url2": "www.mammajo.com", "内容": "なみうち助産院【4:助産院】北海道虻田郡真狩村字社８７－１" }, "geometry": { "type": "Point", "coordinates": [ 140.792176, 42.778997 ] } },
{ "type": "Feature", "properties": { "ID": 144010000620, "正式名称": "たぐち助産院", "機関区分": 4, "都道府県コード": 1, "市区町村コード": 220, "所在地": "北海道士別市東６条１丁目３", "緯度": 44.181836, "経度": 142.399125, "url": "https://www.iryou.teikyouseido.mhlw.go.jp/znk-web/juminkanja/S2430/initialize?prefCd=01&kikanCd=4010000620&kikanKbn=4", "url2": "http://taguchi-josanin.com", "内容": "たぐち助産院【4:助産院】北海道士別市東６条１丁目３" }, "geometry": { "type": "Point", "coordinates": [ 142.399125, 44.181836 ] } },
{ "type": "Feature", "properties": { "ID": 144010000630, "正式名称": "あおま助産院（母乳育児支援）", "機関区分": 4, "都道府県コード": 1, "市区町村コード": 207, "所在地": "北海道帯広市西１９条南４丁目２９番５号", "緯度": 42.9097876, "経度": 143.1538609, "url": "https://www.iryou.teikyouseido.mhlw.go.jp/znk-web/juminkanja/S2430/initialize?prefCd=01&kikanCd=4010000630&kikanKbn=4", "url2": null, "内容": "あおま助産院（母乳育児支援）【4:助産院】北海道帯広市西１９条南４丁目２９番５号" }, "geometry": { "type": "Point", "coordinates": [ 143.153860900000012, 42.9097876 ] } },
{ "type": "Feature", "properties": { "ID": 144010000640, "正式名称": "すみの助産所", "機関区分": 4, "都道府県コード": 1, "市区町村コード": 102, "所在地": "北海道札幌市北区あいの里２条２－９－８", "緯度": 43.161062, "経度": 141.389267, "url": "https://www.iryou.teikyouseido.mhlw.go.jp/znk-web/juminkanja/S2430/initialize?prefCd=01&kikanCd=4010000640&kikanKbn=4", "url2": "sumino-jyosanjyo.com/sp/", "内容": "すみの助産所【4:助産院】北海道札幌市北区あいの里２条２－９－８" }, "geometry": { "type": "Point", "coordinates": [ 141.389267, 43.161062 ] } },
{ "type": "Feature", "properties": { "ID": 144010000700, "正式名称": "母乳育児相談室ゆりかご", "機関区分": 4, "都道府県コード": 1, "市区町村コード": 208, "所在地": "北海道北見市美山町南７丁目４－８３", "緯度": 43.8185862, "経度": 143.8838325, "url": "https://www.iryou.teikyouseido.mhlw.go.jp/znk-web/juminkanja/S2430/initialize?prefCd=01&kikanCd=4010000700&kikanKbn=4", "url2": null, "内容": "母乳育児相談室ゆりかご【4:助産院】北海道北見市美山町南７丁目４－８３" }, "geometry": { "type": "Point", "coordinates": [ 143.883832500000011, 43.8185862 ] } },
{ "type": "Feature", "properties": { "ID": 144010000740, "正式名称": "かさはら母乳育児助産院", "機関区分": 4, "都道府県コード": 1, "市区町村コード": 202, "所在地": "北海道函館市", "緯度": 41.76907, "経度": 140.72815, "url": "https://www.iryou.teikyouseido.mhlw.go.jp/znk-web/juminkanja/S2430/initialize?prefCd=01&kikanCd=4010000740&kikanKbn=4", "url2": "http://www.kasaharabonyuikuji.wix.com/home", "内容": "かさはら母乳育児助産院【4:助産院】北海道函館市" }, "geometry": { "type": "Point", "coordinates": [ 140.72815, 41.76907 ] } },
{ "type": "Feature", "properties": { "ID": 144010000810, "正式名称": "ユキコカンガルー助産院カンガルー産後ケアハウス", "機関区分": 4, "都道府県コード": 1, "市区町村コード": 101, "所在地": "北海道札幌市中央区円山西町２丁目１２－１５", "緯度": 43.044417, "経度": 141.300933, "url": "https://www.iryou.teikyouseido.mhlw.go.jp/znk-web/juminkanja/S2430/initialize?prefCd=01&kikanCd=4010000810&kikanKbn=4", "url2": "kangaroo-midwife.com/", "内容": "ユキコカンガルー助産院カンガルー産後ケアハウス【4:助産院】北海道札幌市中央区円山西町２丁目１２－１５" }, "geometry": { "type": "Point", "coordinates": [ 141.300933, 43.044417 ] } },
{ "type": "Feature", "properties": { "ID": 144010000830, "正式名称": "坂田助産院　母と子のケアルーム", "機関区分": 4, "都道府県コード": 1, "市区町村コード": 108, "所在地": "北海道札幌市厚別区厚別中央３条４丁目１０－７", "緯度": 43.040627, "経度": 141.467161, "url": "https://www.iryou.teikyouseido.mhlw.go.jp/znk-web/juminkanja/S2430/initialize?prefCd=01&kikanCd=4010000830&kikanKbn=4", "url2": null, "内容": "坂田助産院　母と子のケアルーム【4:助産院】北海道札幌市厚別区厚別中央３条４丁目１０－７" }, "geometry": { "type": "Point", "coordinates": [ 141.467161, 43.040627 ] } },
{ "type": "Feature", "properties": { "ID": 144010000870, "正式名称": "助産院　はぐくみ", "機関区分": 4, "都道府県コード": 1, "市区町村コード": 224, "所在地": "北海道千歳市", "緯度": 42.823032, "経度": 141.6478, "url": "https://www.iryou.teikyouseido.mhlw.go.jp/znk-web/juminkanja/S2430/initialize?prefCd=01&kikanCd=4010000870&kikanKbn=4", "url2": null, "内容": "助産院　はぐくみ【4:助産院】北海道千歳市" }, "geometry": { "type": "Point", "coordinates": [ 141.6478, 42.823032 ] } },
{ "type": "Feature", "properties": { "ID": 144010000880, "正式名称": "小野母乳育児相談室（小野助産所）", "機関区分": 4, "都道府県コード": 1, "市区町村コード": 206, "所在地": "北海道釧路市昭和中央２－２２－１", "緯度": 35.784983, "経度": 139.428467, "url": "https://www.iryou.teikyouseido.mhlw.go.jp/znk-web/juminkanja/S2430/initialize?prefCd=01&kikanCd=4010000880&kikanKbn=4", "url2": null, "内容": "小野母乳育児相談室（小野助産所）【4:助産院】北海道釧路市昭和中央２－２２－１" }, "geometry": { "type": "Point", "coordinates": [ 139.428467, 35.784983 ] } },
{ "type": "Feature", "properties": { "ID": 144010000890, "正式名称": "助産院Ｈｕｇねっと", "機関区分": 4, "都道府県コード": 1, "市区町村コード": 217, "所在地": "北海道江別市文京台１４－３４", "緯度": 43.063384, "経度": 141.496613, "url": "https://www.iryou.teikyouseido.mhlw.go.jp/znk-web/juminkanja/S2430/initialize?prefCd=01&kikanCd=4010000890&kikanKbn=4", "url2": "https://www.jhug.net", "内容": "助産院Ｈｕｇねっと【4:助産院】北海道江別市文京台１４－３４" }, "geometry": { "type": "Point", "coordinates": [ 141.496613, 43.063384 ] } },
{ "type": "Feature", "properties": { "ID": 144010000930, "正式名称": "産後ケア助産院マーノ", "機関区分": 4, "都道府県コード": 1, "市区町村コード": 202, "所在地": "北海道函館市美原３丁目５９番７号", "緯度": 41.824643, "経度": 140.745321, "url": "https://www.iryou.teikyouseido.mhlw.go.jp/znk-web/juminkanja/S2430/initialize?prefCd=01&kikanCd=4010000930&kikanKbn=4", "url2": "https://35jyosanin-mano.amebaownd.com", "内容": "産後ケア助産院マーノ【4:助産院】北海道函館市美原３丁目５９番７号" }, "geometry": { "type": "Point", "coordinates": [ 140.745321, 41.824643 ] } },
{ "type": "Feature", "properties": { "ID": 144010000950, "正式名称": "いろはな助産院", "機関区分": 4, "都道府県コード": 1, "市区町村コード": 107, "所在地": "北海道札幌市西区山の手２条１丁目２－２２", "緯度": 43.07088, "経度": 141.301212, "url": "https://www.iryou.teikyouseido.mhlw.go.jp/znk-web/juminkanja/S2430/initialize?prefCd=01&kikanCd=4010000950&kikanKbn=4", "url2": "https://irohana1006.wixsite.com/website", "内容": "いろはな助産院【4:助産院】北海道札幌市西区山の手２条１丁目２－２２" }, "geometry": { "type": "Point", "coordinates": [ 141.301212, 43.07088 ] } },
{ "type": "Feature", "properties": { "ID": 144010000960, "正式名称": "ととねっこ助産院", "機関区分": 4, "都道府県コード": 1, "市区町村コード": 217, "所在地": "北海道江別市あけぼの町５４番地の２", "緯度": 43.0992573, "経度": 141.576338, "url": "https://www.iryou.teikyouseido.mhlw.go.jp/znk-web/juminkanja/S2430/initialize?prefCd=01&kikanCd=4010000960&kikanKbn=4", "url2": "https://totonecco.com", "内容": "ととねっこ助産院【4:助産院】北海道江別市あけぼの町５４番地の２" }, "geometry": { "type": "Point", "coordinates": [ 141.576338, 43.0992573 ] } },
{ "type": "Feature", "properties": { "ID": 144010000980, "正式名称": "ＰＡＬ（パル）出張専門助産院", "機関区分": 4, "都道府県コード": 1, "市区町村コード": 109, "所在地": "北海道札幌市手稲区富丘３条５丁目３－４０", "緯度": 43.110632, "経度": 141.246879, "url": "https://www.iryou.teikyouseido.mhlw.go.jp/znk-web/juminkanja/S2430/initialize?prefCd=01&kikanCd=4010000980&kikanKbn=4", "url2": null, "内容": "ＰＡＬ（パル）出張専門助産院【4:助産院】北海道札幌市手稲区富丘３条５丁目３－４０" }, "geometry": { "type": "Point", "coordinates": [ 141.246879, 43.110632 ] } },
{ "type": "Feature", "properties": { "ID": 144010001030, "正式名称": "産前産後ケア　マナ助産院", "機関区分": 4, "都道府県コード": 1, "市区町村コード": 224, "所在地": "北海道千歳市みどり台南１丁目７－１", "緯度": 42.856254, "経度": 141.619613, "url": "https://www.iryou.teikyouseido.mhlw.go.jp/znk-web/juminkanja/S2430/initialize?prefCd=01&kikanCd=4010001030&kikanKbn=4", "url2": "https://manajosanin.com", "内容": "産前産後ケア　マナ助産院【4:助産院】北海道千歳市みどり台南１丁目７－１" }, "geometry": { "type": "Point", "coordinates": [ 141.619613, 42.856254 ] } },
{ "type": "Feature", "properties": { "ID": 144010001040, "正式名称": "堤式円山母乳相談処", "機関区分": 4, "都道府県コード": 1, "市区町村コード": 101, "所在地": "北海道札幌市中央区北３条西２３丁目１－６クオーレ円山１０６", "緯度": 43.060501, "経度": 141.3213354, "url": "https://www.iryou.teikyouseido.mhlw.go.jp/znk-web/juminkanja/S2430/initialize?prefCd=01&kikanCd=4010001040&kikanKbn=4", "url2": "http://maruyama-soudan2021.com", "内容": "堤式円山母乳相談処【4:助産院】北海道札幌市中央区北３条西２３丁目１－６クオーレ円山１０６" }, "geometry": { "type": "Point", "coordinates": [ 141.3213354, 43.060501 ] } },
{ "type": "Feature", "properties": { "ID": 144010001060, "正式名称": "とっと助産院", "機関区分": 4, "都道府県コード": 1, "市区町村コード": 101, "所在地": "北海道札幌市中央区旭ヶ丘２丁目２－７", "緯度": 43.04015, "経度": 141.32148, "url": "https://www.iryou.teikyouseido.mhlw.go.jp/znk-web/juminkanja/S2430/initialize?prefCd=01&kikanCd=4010001060&kikanKbn=4", "url2": "http://www.midwifemap.com/tottojyosan/mysite/", "内容": "とっと助産院【4:助産院】北海道札幌市中央区旭ヶ丘２丁目２－７" }, "geometry": { "type": "Point", "coordinates": [ 141.32148, 43.04015 ] } },
{ "type": "Feature", "properties": { "ID": 144010001070, "正式名称": "助産院　ハイジア", "機関区分": 4, "都道府県コード": 1, "市区町村コード": 106, "所在地": "北海道札幌市南区真駒内柏丘５丁目１０－８０", "緯度": 42.9879364, "経度": 141.3434297, "url": "https://www.iryou.teikyouseido.mhlw.go.jp/znk-web/juminkanja/S2430/initialize?prefCd=01&kikanCd=4010001070&kikanKbn=4", "url2": "https://haijia2013.com/", "内容": "助産院　ハイジア【4:助産院】北海道札幌市南区真駒内柏丘５丁目１０－８０" }, "geometry": { "type": "Point", "coordinates": [ 141.3434297, 42.9879364 ] } },
{ "type": "Feature", "properties": { "ID": 144010001110, "正式名称": "かみかわ助産院", "機関区分": 4, "都道府県コード": 1, "市区町村コード": 208, "所在地": "北海道北見市中央三輪６丁目４３４番地２２", "緯度": 43.7954, "経度": 143.85526, "url": "https://www.iryou.teikyouseido.mhlw.go.jp/znk-web/juminkanja/S2430/initialize?prefCd=01&kikanCd=4010001110&kikanKbn=4", "url2": null, "内容": "かみかわ助産院【4:助産院】北海道北見市中央三輪６丁目４３４番地２２" }, "geometry": { "type": "Point", "coordinates": [ 143.85526, 43.7954 ] } },
{ "type": "Feature", "properties": { "ID": 144010001120, "正式名称": "まりあ母乳育児相談室", "機関区分": 4, "都道府県コード": 1, "市区町村コード": 221, "所在地": "北海道名寄市風連町", "緯度": 44.27822, "経度": 142.42305, "url": "https://www.iryou.teikyouseido.mhlw.go.jp/znk-web/juminkanja/S2430/initialize?prefCd=01&kikanCd=4010001120&kikanKbn=4", "url2": null, "内容": "まりあ母乳育児相談室【4:助産院】北海道名寄市風連町" }, "geometry": { "type": "Point", "coordinates": [ 142.42305, 44.27822 ] } },
{ "type": "Feature", "properties": { "ID": 144010001130, "正式名称": "Ｔｕｓｓｉｅ　Ｍｕｓｓｉｅ（タッジー　マッジー）", "機関区分": 4, "都道府県コード": 1, "市区町村コード": 211, "所在地": "北海道網走市北十二条西２丁目２－３８", "緯度": 35.952004, "経度": 139.421556, "url": "https://www.iryou.teikyouseido.mhlw.go.jp/znk-web/juminkanja/S2430/initialize?prefCd=01&kikanCd=4010001130&kikanKbn=4", "url2": "http://tussiemussie.web.fc2.com/", "内容": "Ｔｕｓｓｉｅ　Ｍｕｓｓｉｅ（タッジー　マッジー）【4:助産院】北海道網走市北十二条西２丁目２－３８" }, "geometry": { "type": "Point", "coordinates": [ 139.421556, 35.952004 ] } },
{ "type": "Feature", "properties": { "ID": 144010001150, "正式名称": "さわや助産院", "機関区分": 4, "都道府県コード": 1, "市区町村コード": 203, "所在地": "北海道小樽市松ヶ枝１丁目５番１０号", "緯度": 43.1799544, "経度": 140.9874112, "url": "https://www.iryou.teikyouseido.mhlw.go.jp/znk-web/juminkanja/S2430/initialize?prefCd=01&kikanCd=4010001150&kikanKbn=4", "url2": "sawaya-mw-otaru.amebaownd.com", "内容": "さわや助産院【4:助産院】北海道小樽市松ヶ枝１丁目５番１０号" }, "geometry": { "type": "Point", "coordinates": [ 140.9874112, 43.1799544 ] } },
{ "type": "Feature", "properties": { "ID": 144010001180, "正式名称": "菜のはな助産院", "機関区分": 4, "都道府県コード": 1, "市区町村コード": 224, "所在地": "北海道千歳市", "緯度": 42.823032, "経度": 141.6478, "url": "https://www.iryou.teikyouseido.mhlw.go.jp/znk-web/juminkanja/S2430/initialize?prefCd=01&kikanCd=4010001180&kikanKbn=4", "url2": null, "内容": "菜のはな助産院【4:助産院】北海道千歳市" }, "geometry": { "type": "Point", "coordinates": [ 141.6478, 42.823032 ] } },
{ "type": "Feature", "properties": { "ID": 144010001210, "正式名称": "のっぽろｔｓｕｍｕｇｉ助産院", "機関区分": 4, "都道府県コード": 1, "市区町村コード": 217, "所在地": "北海道江別市野幌東町４０番地の１７", "緯度": 43.091592, "経度": 141.536511, "url": "https://www.iryou.teikyouseido.mhlw.go.jp/znk-web/juminkanja/S2430/initialize?prefCd=01&kikanCd=4010001210&kikanKbn=4", "url2": "https://nopporo-tsumugi.com/", "内容": "のっぽろｔｓｕｍｕｇｉ助産院【4:助産院】北海道江別市野幌東町４０番地の１７" }, "geometry": { "type": "Point", "coordinates": [ 141.536511, 43.091592 ] } },
{ "type": "Feature", "properties": { "ID": 144010001220, "正式名称": "はあと母乳相談室", "機関区分": 4, "都道府県コード": 1, "市区町村コード": 104, "所在地": "北海道札幌市白石区本通２丁目北２－１０", "緯度": 43.052346, "経度": 141.40721, "url": "https://www.iryou.teikyouseido.mhlw.go.jp/znk-web/juminkanja/S2430/initialize?prefCd=01&kikanCd=4010001220&kikanKbn=4", "url2": "https://heartjosanin.com/", "内容": "はあと母乳相談室【4:助産院】北海道札幌市白石区本通２丁目北２－１０" }, "geometry": { "type": "Point", "coordinates": [ 141.40721, 43.052346 ] } },
{ "type": "Feature", "properties": { "ID": 144010500020, "正式名称": "てまり助産院", "機関区分": 4, "都道府県コード": 1, "市区町村コード": 234, "所在地": "北海道北広島市西の里北３丁目５－１", "緯度": 43.01634, "経度": 141.499138, "url": "https://www.iryou.teikyouseido.mhlw.go.jp/znk-web/juminkanja/S2430/initialize?prefCd=01&kikanCd=4010500020&kikanKbn=4", "url2": "https://temari-josanin.com/", "内容": "てまり助産院【4:助産院】北海道北広島市西の里北３丁目５－１" }, "geometry": { "type": "Point", "coordinates": [ 141.499138, 43.01634 ] } },
{ "type": "Feature", "properties": { "ID": 144011400010, "正式名称": "要助産院", "機関区分": 4, "都道府県コード": 1, "市区町村コード": 604, "所在地": "北海道新冠郡新冠町字大富１４６−１", "緯度": 42.397366, "経度": 142.38933, "url": "https://www.iryou.teikyouseido.mhlw.go.jp/znk-web/juminkanja/S2430/initialize?prefCd=01&kikanCd=4011400010&kikanKbn=4", "url2": null, "内容": "要助産院【4:助産院】北海道新冠郡新冠町字大富１４６−１" }, "geometry": { "type": "Point", "coordinates": [ 142.38933, 42.397366 ] } },
{ "type": "Feature", "properties": { "ID": 144012300020, "正式名称": "産後ケアセンター「クローバー」", "機関区分": 4, "都道府県コード": 1, "市区町村コード": 207, "所在地": "北海道帯広市東三条南９丁目１６－１", "緯度": 42.9233354, "経度": 143.197199, "url": "https://www.iryou.teikyouseido.mhlw.go.jp/znk-web/juminkanja/S2430/initialize?prefCd=01&kikanCd=4012300020&kikanKbn=4", "url2": "https://www.keiai.or.jp/postpartum-care/", "内容": "産後ケアセンター「クローバー」【4:助産院】北海道帯広市東三条南９丁目１６－１" }, "geometry": { "type": "Point", "coordinates": [ 143.197199, 42.9233354 ] } },
{ "type": "Feature", "properties": { "ID": 144012300030, "正式名称": "マミー助産院", "機関区分": 4, "都道府県コード": 1, "市区町村コード": 633, "所在地": "北海道河東郡上士幌町上士幌東３線２３７番地５３", "緯度": 43.232709, "経度": 143.292917, "url": "https://www.iryou.teikyouseido.mhlw.go.jp/znk-web/juminkanja/S2430/initialize?prefCd=01&kikanCd=4012300030&kikanKbn=4", "url2": "https://mammy-birth.com/", "内容": "マミー助産院【4:助産院】北海道河東郡上士幌町上士幌東３線２３７番地５３" }, "geometry": { "type": "Point", "coordinates": [ 143.292917, 43.232709 ] } },
{ "type": "Feature", "properties": { "ID": 144013000010, "正式名称": "助産院ＭＯＭＭＥ（もんめ）", "機関区分": 4, "都道府県コード": 1, "市区町村コード": 104, "所在地": "北海道札幌市白石区本郷通１３丁目南１－１小林ビル２Ｆ", "緯度": 43.03681, "経度": 141.421274, "url": "https://www.iryou.teikyouseido.mhlw.go.jp/znk-web/juminkanja/S2430/initialize?prefCd=01&kikanCd=4013000010&kikanKbn=4", "url2": "https://momme.info/", "内容": "助産院ＭＯＭＭＥ（もんめ）【4:助産院】北海道札幌市白石区本郷通１３丁目南１－１小林ビル２Ｆ" }, "geometry": { "type": "Point", "coordinates": [ 141.421274, 43.03681 ] } }
]
}
