{
"type": "FeatureCollection",
"name": "geo_01_訪問リハビリテーション",
"crs": { "type": "name", "properties": { "name": "urn:ogc:def:crs:OGC:1.3:CRS84" } },
"features": [
{ "type": "Feature", "properties": { "内容": "慈啓会病院　（訪問リハビリテーション）【訪問リハビリテーション】札幌市中央区旭ヶ丘5丁目6番50号", "url2": "https://www.kaigokensaku.mhlw.go.jp/01/index.php?action_kouhyou_detail_004_kani=true&JigyosyoCd=0110410545-00&ServiceCd=140&Type=search" }, "geometry": { "type": "Point", "coordinates": [ 141.323191700000052, 43.0369257 ] } },
{ "type": "Feature", "properties": { "内容": "南札幌病院　訪問リハビリテーション【訪問リハビリテーション】札幌市中央区南9条西7丁目1番23号", "url2": "https://www.kaigokensaku.mhlw.go.jp/01/index.php?action_kouhyou_detail_004_kani=true&JigyosyoCd=0110117702-00&ServiceCd=140&Type=search" }, "geometry": { "type": "Point", "coordinates": [ 141.348308200000019, 43.0483056 ] } },
{ "type": "Feature", "properties": { "内容": "札幌西円山病院訪問リハビリテーション【訪問リハビリテーション】札幌市中央区円山西町4丁目7番25号札幌西円山病院", "url2": "https://www.kaigokensaku.mhlw.go.jp/01/index.php?action_kouhyou_detail_004_kani=true&JigyosyoCd=0110114121-00&ServiceCd=140&Type=search" }, "geometry": { "type": "Point", "coordinates": [ 141.3032136, 43.0399619 ] } },
{ "type": "Feature", "properties": { "内容": "介護老人保健施設けあ・ばんけい訪問（介護予防訪問）リハビリテーション【訪問リハビリテーション】北海道札幌市中央区盤渓232-7", "url2": "https://www.kaigokensaku.mhlw.go.jp/01/index.php?action_kouhyou_detail_004_kani=true&JigyosyoCd=0170103675-00&ServiceCd=140&Type=search" }, "geometry": { "type": "Point", "coordinates": [ 141.2772013, 43.0326498 ] } },
{ "type": "Feature", "properties": { "内容": "かえでの杜クリニック【訪問リハビリテーション】中央区南8条西7丁目1782-5小林ビル1階", "url2": "https://www.kaigokensaku.mhlw.go.jp/01/index.php?action_kouhyou_detail_004_kani=true&JigyosyoCd=0110613494-00&ServiceCd=140&Type=search" }, "geometry": { "type": "Point", "coordinates": [ 141.349410400000011, 43.0496515 ] } },
{ "type": "Feature", "properties": { "内容": "社会医療法人鳩仁会　札幌中央病院【訪問リハビリテーション】北海道札幌市中央区南9条西10丁目1-50", "url2": "https://www.kaigokensaku.mhlw.go.jp/01/index.php?action_kouhyou_detail_004_kani=true&JigyosyoCd=0170104913-00&ServiceCd=140&Type=search" }, "geometry": { "type": "Point", "coordinates": [ 141.343185214680489, 43.047652225155609 ] } },
{ "type": "Feature", "properties": { "内容": "ごう在宅クリニック【訪問リハビリテーション】南１条東２丁目８－２SRビル１階", "url2": "https://www.kaigokensaku.mhlw.go.jp/01/index.php?action_kouhyou_detail_004_kani=true&JigyosyoCd=0110612744-00&ServiceCd=140&Type=search" }, "geometry": { "type": "Point", "coordinates": [ 141.359691700000013, 43.0603027 ] } },
{ "type": "Feature", "properties": { "内容": "医療法人渓仁会　札幌渓仁会リハビリテーション病院【訪問リハビリテーション】北海道札幌市中央区北１０条西１７丁目３６－１３", "url2": "https://www.kaigokensaku.mhlw.go.jp/01/index.php?action_kouhyou_detail_004_kani=true&JigyosyoCd=0110612108-00&ServiceCd=140&Type=search" }, "geometry": { "type": "Point", "coordinates": [ 141.327597700000069, 43.0704746 ] } },
{ "type": "Feature", "properties": { "内容": "医療法人社団北昂会ファミール内科　在宅医療センター【訪問リハビリテーション】北海道札幌市北区北２９条西４丁目２番１－１５８ファミール札幌", "url2": "https://www.kaigokensaku.mhlw.go.jp/01/index.php?action_kouhyou_detail_004_kani=true&JigyosyoCd=0110218138-00&ServiceCd=140&Type=search" }, "geometry": { "type": "Point", "coordinates": [ 141.342835388360555, 43.096440368495685 ] } },
{ "type": "Feature", "properties": { "内容": "訪問リハビリテーション　セージュ新ことに【訪問リハビリテーション】北海道札幌市北区新琴似町787番地２", "url2": "https://www.kaigokensaku.mhlw.go.jp/01/index.php?action_kouhyou_detail_004_kani=true&JigyosyoCd=0150280055-00&ServiceCd=140&Type=search" }, "geometry": { "type": "Point", "coordinates": [ 141.2956279, 43.1307866 ] } },
{ "type": "Feature", "properties": { "内容": "指定訪問リハビリテーション【訪問リハビリテーション】札幌市北区百合が原１１丁目１８６番地", "url2": "https://www.kaigokensaku.mhlw.go.jp/01/index.php?action_kouhyou_detail_004_kani=true&JigyosyoCd=0110214947-00&ServiceCd=140&Type=search" }, "geometry": { "type": "Point", "coordinates": [ 141.36751819999995, 43.1319369 ] } },
{ "type": "Feature", "properties": { "内容": "医療法人社団札幌優翔館病院【訪問リハビリテーション】北海道札幌市北区東茨戸２条２丁目８番２５号", "url2": "https://www.kaigokensaku.mhlw.go.jp/01/index.php?action_kouhyou_detail_004_kani=true&JigyosyoCd=0110213329-00&ServiceCd=140&Type=search" }, "geometry": { "type": "Point", "coordinates": [ 141.357989299999986, 43.1647688 ] } },
{ "type": "Feature", "properties": { "内容": "訪問リハビリテーションしんかわ【訪問リハビリテーション】北海道札幌市北区新川5条4丁目2-8", "url2": "https://www.kaigokensaku.mhlw.go.jp/01/index.php?action_kouhyou_detail_004_kani=true&JigyosyoCd=0110213154-00&ServiceCd=140&Type=search" }, "geometry": { "type": "Point", "coordinates": [ 141.3210479, 43.1028894 ] } },
{ "type": "Feature", "properties": { "内容": "介護老人保健施設サンビオーズ新琴似訪問リハビリテーション【訪問リハビリテーション】北海道札幌市北区新琴似2条5丁目1-1", "url2": "https://www.kaigokensaku.mhlw.go.jp/01/index.php?action_kouhyou_detail_004_kani=true&JigyosyoCd=0150280139-00&ServiceCd=140&Type=search" }, "geometry": { "type": "Point", "coordinates": [ 141.32086819999995, 43.1065393 ] } },
{ "type": "Feature", "properties": { "内容": "介護老人保健施設プラットホーム　訪問リハビリテーション【訪問リハビリテーション】北海道札幌市北区あいの里２条１丁目２０－１", "url2": "https://www.kaigokensaku.mhlw.go.jp/01/index.php?action_kouhyou_detail_004_kani=true&JigyosyoCd=0150280113-00&ServiceCd=140&Type=search" }, "geometry": { "type": "Point", "coordinates": [ 141.3850725, 43.1596053 ] } },
{ "type": "Feature", "properties": { "内容": "介護老人保健施設ら・ぱーす【訪問リハビリテーション】北海道札幌市北区篠路町上篠路6番286", "url2": "https://www.kaigokensaku.mhlw.go.jp/01/index.php?action_kouhyou_detail_004_kani=true&JigyosyoCd=0150280097-00&ServiceCd=140&Type=search" }, "geometry": { "type": "Point", "coordinates": [ 141.382363199999986, 43.1302959 ] } },
{ "type": "Feature", "properties": { "内容": "医療法人社団ゆりがはら内科ケア＆クリニック訪問リハビリテーション【訪問リハビリテーション】北海道札幌市北区百合が原7丁目4番25号", "url2": "https://www.kaigokensaku.mhlw.go.jp/01/index.php?action_kouhyou_detail_004_kani=true&JigyosyoCd=0110217171-00&ServiceCd=140&Type=search" }, "geometry": { "type": "Point", "coordinates": [ 141.364814599999988, 43.1336488 ] } },
{ "type": "Feature", "properties": { "内容": "逢縁クリニック【訪問リハビリテーション】北海道札幌市北区北33条西2丁目1-15", "url2": "https://www.kaigokensaku.mhlw.go.jp/01/index.php?action_kouhyou_detail_004_kani=true&JigyosyoCd=0110711140-00&ServiceCd=140&Type=search" }, "geometry": { "type": "Point", "coordinates": [ 141.3438711, 43.1003816 ] } },
{ "type": "Feature", "properties": { "内容": "医療法人社団英仁会　札苗病院【訪問リハビリテーション】北海道札幌市東区東苗穂７条２丁目８番２０号", "url2": "https://www.kaigokensaku.mhlw.go.jp/01/index.php?action_kouhyou_detail_004_kani=true&JigyosyoCd=0110214350-00&ServiceCd=140&Type=search" }, "geometry": { "type": "Point", "coordinates": [ 141.412755299999958, 43.0948381 ] } },
{ "type": "Feature", "properties": { "内容": "医療法人　北海道家庭医療学センター　栄町ファミリークリニック【訪問リハビリテーション】北海道札幌市東区北４１条東１５丁目１－１８", "url2": "https://www.kaigokensaku.mhlw.go.jp/01/index.php?action_kouhyou_detail_004_kani=true&JigyosyoCd=0110219243-00&ServiceCd=140&Type=search" }, "geometry": { "type": "Point", "coordinates": [ 141.3653306, 43.1125537 ] } },
{ "type": "Feature", "properties": { "内容": "医療法人　札幌共立医院【訪問リハビリテーション】北海道札幌市東区北４８条東１丁目１番５号", "url2": "https://www.kaigokensaku.mhlw.go.jp/01/index.php?action_kouhyou_detail_004_kani=true&JigyosyoCd=0110711579-00&ServiceCd=140&Type=search" }, "geometry": { "type": "Point", "coordinates": [ 141.344530600000013, 43.1176148 ] } },
{ "type": "Feature", "properties": { "内容": "介護老人保健施設　あすかHOUSE東苗穂【訪問リハビリテーション】北海道札幌市東区東苗穂6条3丁目11番55号", "url2": "https://www.kaigokensaku.mhlw.go.jp/01/index.php?action_kouhyou_detail_004_kani=true&JigyosyoCd=0150280121-00&ServiceCd=140&Type=search" }, "geometry": { "type": "Point", "coordinates": [ 141.4130554, 43.0898145 ] } },
{ "type": "Feature", "properties": { "内容": "社会医療法人社団三草会　クラーク病院【訪問リハビリテーション】北海道札幌市東区本町2条4丁目8－20クラーク病院2階", "url2": "https://www.kaigokensaku.mhlw.go.jp/01/index.php?action_kouhyou_detail_004_kani=true&JigyosyoCd=0110215761-00&ServiceCd=140&Type=search" }, "geometry": { "type": "Point", "coordinates": [ 141.389653299999964, 43.0797142 ] } },
{ "type": "Feature", "properties": { "内容": "よつば家庭医療クリニック訪問リハビリテーション【訪問リハビリテーション】札幌市東区北12条東4丁目1番1号カレスプレミアムガーデン", "url2": "https://www.kaigokensaku.mhlw.go.jp/01/index.php?action_kouhyou_detail_004_kani=true&JigyosyoCd=0110710365-00&ServiceCd=140&Type=search" }, "geometry": { "type": "Point", "coordinates": [ 141.3588029, 43.0767081 ] } },
{ "type": "Feature", "properties": { "内容": "ひまわり訪問リハビリ【訪問リハビリテーション】札幌市東区東苗穂4条1丁目1-68", "url2": "https://www.kaigokensaku.mhlw.go.jp/01/index.php?action_kouhyou_detail_004_kani=true&JigyosyoCd=0150280071-00&ServiceCd=140&Type=search" }, "geometry": { "type": "Point", "coordinates": [ 141.400909440089436, 43.088542205239122 ] } },
{ "type": "Feature", "properties": { "内容": "勤医協老人保健施設柏ヶ丘訪問リハビリテーション【訪問リハビリテーション】札幌市白石区平和通7丁目南５－１", "url2": "https://www.kaigokensaku.mhlw.go.jp/01/index.php?action_kouhyou_detail_004_kani=true&JigyosyoCd=0150380137-00&ServiceCd=140&Type=search" }, "geometry": { "type": "Point", "coordinates": [ 141.417241900000022, 43.046991 ] } },
{ "type": "Feature", "properties": { "内容": "さくら内科クリニック訪問リハビリステーション【訪問リハビリテーション】北海道札幌市白石区東札幌4条4丁目1番18号さくら内科クリニック", "url2": "https://www.kaigokensaku.mhlw.go.jp/01/index.php?action_kouhyou_detail_004_kani=true&JigyosyoCd=0110514338-00&ServiceCd=140&Type=search" }, "geometry": { "type": "Point", "coordinates": [ 141.3911687, 43.0512887 ] } },
{ "type": "Feature", "properties": { "内容": "勤医協札幌病院　訪問リハビリテーション【訪問リハビリテーション】北海道札幌市白石区菊水4条1丁目9番22号", "url2": "https://www.kaigokensaku.mhlw.go.jp/01/index.php?action_kouhyou_detail_004_kani=true&JigyosyoCd=0110311099-00&ServiceCd=140&Type=search" }, "geometry": { "type": "Point", "coordinates": [ 141.3731387, 43.0592883 ] } },
{ "type": "Feature", "properties": { "内容": "札幌白石記念病院　訪問リハビリテーション【訪問リハビリテーション】北海道札幌市白石区本通8丁目南1-10", "url2": "https://www.kaigokensaku.mhlw.go.jp/01/index.php?action_kouhyou_detail_004_kani=true&JigyosyoCd=0110513777-00&ServiceCd=140&Type=search" }, "geometry": { "type": "Point", "coordinates": [ 141.416427399999947, 43.0444268 ] } },
{ "type": "Feature", "properties": { "内容": "介護老人保健施設コミュニティホーム白石【訪問リハビリテーション】北海道札幌市白石区本郷通3丁目南1番35号", "url2": "https://www.kaigokensaku.mhlw.go.jp/01/index.php?action_kouhyou_detail_004_kani=true&JigyosyoCd=0150380012-00&ServiceCd=140&Type=search" }, "geometry": { "type": "Point", "coordinates": [ 141.404084099999977, 43.0462707 ] } },
{ "type": "Feature", "properties": { "内容": "医療法人社団明日佳　白石明日佳病院【訪問リハビリテーション】北海道札幌市白石区東札幌5条5丁目2番5号", "url2": "https://www.kaigokensaku.mhlw.go.jp/01/index.php?action_kouhyou_detail_004_kani=true&JigyosyoCd=0110513611-00&ServiceCd=140&Type=search" }, "geometry": { "type": "Point", "coordinates": [ 141.394707, 43.0508756 ] } },
{ "type": "Feature", "properties": { "内容": "札幌ライラック病院　訪問リハビリテーション【訪問リハビリテーション】北海道札幌市豊平区豊平6条8丁目2番18号", "url2": "https://www.kaigokensaku.mhlw.go.jp/01/index.php?action_kouhyou_detail_004_kani=true&JigyosyoCd=0110320009-00&ServiceCd=140&Type=search" }, "geometry": { "type": "Point", "coordinates": [ 141.3723813, 43.0466159 ] } },
{ "type": "Feature", "properties": { "内容": "医療法人社団北樹会病院　つきさっぷ訪問リハビリ【訪問リハビリテーション】札幌市豊平区月寒西5条8丁目4番32号", "url2": "https://www.kaigokensaku.mhlw.go.jp/01/index.php?action_kouhyou_detail_004_kani=true&JigyosyoCd=0110317732-00&ServiceCd=140&Type=search" }, "geometry": { "type": "Point", "coordinates": [ 141.386600600000065, 43.0258168 ] } },
{ "type": "Feature", "properties": { "内容": "介護老人保健施設　ノテ日本医療大学リハビリ【訪問リハビリテーション】札幌市豊平区月寒東3条11丁目1-55", "url2": "https://www.kaigokensaku.mhlw.go.jp/01/index.php?action_kouhyou_detail_004_kani=true&JigyosyoCd=0150580124-00&ServiceCd=140&Type=search" }, "geometry": { "type": "Point", "coordinates": [ 141.414583, 43.029535 ] } },
{ "type": "Feature", "properties": { "内容": "医療法人　一仁会　南札幌脳神経外科【訪問リハビリテーション】北海道札幌市南区川沿2条3丁目2番32号", "url2": "https://www.kaigokensaku.mhlw.go.jp/01/index.php?action_kouhyou_detail_004_kani=true&JigyosyoCd=0110510666-00&ServiceCd=140&Type=search" }, "geometry": { "type": "Point", "coordinates": [ 141.331320900000037, 43.0001155 ] } },
{ "type": "Feature", "properties": { "内容": "もなみクリニック【訪問リハビリテーション】北海道札幌市南区川沿5条3丁目2-1", "url2": "https://www.kaigokensaku.mhlw.go.jp/01/index.php?action_kouhyou_detail_004_kani=true&JigyosyoCd=0110511177-00&ServiceCd=140&Type=search" }, "geometry": { "type": "Point", "coordinates": [ 141.331571100000019, 42.9925497 ] } },
{ "type": "Feature", "properties": { "内容": "渓仁会真駒内在宅クリニック訪問リハビリテーション【訪問リハビリテーション】札幌市南区真駒内本町５丁目１番８号第５ナベビル２階", "url2": "https://www.kaigokensaku.mhlw.go.jp/01/index.php?action_kouhyou_detail_004_kani=true&JigyosyoCd=0110516598-00&ServiceCd=140&Type=search" }, "geometry": { "type": "Point", "coordinates": [ 141.3483977, 43.0047245 ] } },
{ "type": "Feature", "properties": { "内容": "医療法人社団もなみ　もなみクリニック【訪問リハビリテーション】北海道札幌市南区川沿5条3丁目2-1", "url2": "https://www.kaigokensaku.mhlw.go.jp/01/index.php?action_kouhyou_detail_004_kani=true&JigyosyoCd=0110515061-00&ServiceCd=140&Type=search" }, "geometry": { "type": "Point", "coordinates": [ 141.331571100000019, 42.9925497 ] } },
{ "type": "Feature", "properties": { "内容": "愛全病院【訪問リハビリテーション】北海道札幌市南区川沿13条2丁目1-38", "url2": "https://www.kaigokensaku.mhlw.go.jp/01/index.php?action_kouhyou_detail_004_kani=true&JigyosyoCd=0110112489-00&ServiceCd=140&Type=search" }, "geometry": { "type": "Point", "coordinates": [ 141.33379450000001, 42.9795991 ] } },
{ "type": "Feature", "properties": { "内容": "医療法人社団　札幌藤が丘整形外科医院【訪問リハビリテーション】北海道札幌市南区藤野２条２丁目1-18", "url2": "https://www.kaigokensaku.mhlw.go.jp/01/index.php?action_kouhyou_detail_004_kani=true&JigyosyoCd=0110318326-00&ServiceCd=140&Type=search" }, "geometry": { "type": "Point", "coordinates": [ 141.308734056483416, 42.961390922746894 ] } },
{ "type": "Feature", "properties": { "内容": "平和リハビリテーション病院【訪問リハビリテーション】北海道札幌市西区平和３０６番地1", "url2": "https://www.kaigokensaku.mhlw.go.jp/01/index.php?action_kouhyou_detail_004_kani=true&JigyosyoCd=0110416518-00&ServiceCd=140&Type=search" }, "geometry": { "type": "Point", "coordinates": [ 141.242871799999989, 43.05604 ] } },
{ "type": "Feature", "properties": { "内容": "札幌山の上病院訪問リハステーション【訪問リハビリテーション】北海道札幌市西区山の手6条9丁目1－1", "url2": "https://www.kaigokensaku.mhlw.go.jp/01/index.php?action_kouhyou_detail_004_kani=true&JigyosyoCd=0170402101-00&ServiceCd=140&Type=search" }, "geometry": { "type": "Point", "coordinates": [ 141.2867986, 43.069853 ] } },
{ "type": "Feature", "properties": { "内容": "介護老人保健施設　セージュ山の手【訪問リハビリテーション】北海道札幌市西区山の手４条５丁目3-1", "url2": "https://www.kaigokensaku.mhlw.go.jp/01/index.php?action_kouhyou_detail_004_kani=true&JigyosyoCd=0150480010-00&ServiceCd=140&Type=search" }, "geometry": { "type": "Point", "coordinates": [ 141.2939831, 43.0704278 ] } },
{ "type": "Feature", "properties": { "内容": "グッドライフクリニック西町南【訪問リハビリテーション】北海道札幌市西区西町南12丁目1-38三本菅ビル2階", "url2": "https://www.kaigokensaku.mhlw.go.jp/01/index.php?action_kouhyou_detail_004_kani=true&JigyosyoCd=0110419736-00&ServiceCd=140&Type=search" }, "geometry": { "type": "Point", "coordinates": [ 141.2834714, 43.0819399 ] } },
{ "type": "Feature", "properties": { "内容": "医療法人　静和会【訪問リハビリテーション】北海道札幌市西区八軒5条東5丁目1-1", "url2": "https://www.kaigokensaku.mhlw.go.jp/01/index.php?action_kouhyou_detail_004_kani=true&JigyosyoCd=0110419538-00&ServiceCd=140&Type=search" }, "geometry": { "type": "Point", "coordinates": [ 141.3222518, 43.0815787 ] } },
{ "type": "Feature", "properties": { "内容": "介護老人保健施設　エル・クォール平和【訪問リハビリテーション】札幌市西区平和2条11丁目2番5号", "url2": "https://www.kaigokensaku.mhlw.go.jp/01/index.php?action_kouhyou_detail_004_kani=true&JigyosyoCd=0150480077-00&ServiceCd=140&Type=search" }, "geometry": { "type": "Point", "coordinates": [ 141.243850900000012, 43.056657 ] } },
{ "type": "Feature", "properties": { "内容": "イムス札幌消化器中央総合病院　訪問リハビリテーション【訪問リハビリテーション】北海道札幌市西区八軒2条西2丁目11-1管理棟2階", "url2": "https://www.kaigokensaku.mhlw.go.jp/01/index.php?action_kouhyou_detail_004_kani=true&JigyosyoCd=0110412459-00&ServiceCd=140&Type=search" }, "geometry": { "type": "Point", "coordinates": [ 141.309493800000013, 43.083381 ] } },
{ "type": "Feature", "properties": { "内容": "医療法人社団明日佳　宮の沢明日佳病院【訪問リハビリテーション】北海道札幌市西区西町南20丁目1-30", "url2": "https://www.kaigokensaku.mhlw.go.jp/01/index.php?action_kouhyou_detail_004_kani=true&JigyosyoCd=0110415635-00&ServiceCd=140&Type=search" }, "geometry": { "type": "Point", "coordinates": [ 141.275681800000029, 43.0862703 ] } },
{ "type": "Feature", "properties": { "内容": "勤医協札幌西区病院　訪問リハビリテーション【訪問リハビリテーション】北海道札幌市西区西町北19丁目1番5号勤医協札幌西区病院", "url2": "https://www.kaigokensaku.mhlw.go.jp/01/index.php?action_kouhyou_detail_004_kani=true&JigyosyoCd=0110414083-00&ServiceCd=140&Type=search" }, "geometry": { "type": "Point", "coordinates": [ 141.2769102, 43.0868421 ] } },
{ "type": "Feature", "properties": { "内容": "平和の杜訪問リハビリテーション【訪問リハビリテーション】北海道札幌市西区平和420番地", "url2": "https://www.kaigokensaku.mhlw.go.jp/01/index.php?action_kouhyou_detail_004_kani=true&JigyosyoCd=0150480119-00&ServiceCd=140&Type=search" }, "geometry": { "type": "Point", "coordinates": [ 141.22611489999997, 43.0577479 ] } },
{ "type": "Feature", "properties": { "内容": "医療法人　知仁会　八木整形外科病院【訪問リハビリテーション】札幌市西区西野３条５丁目１番３５号", "url2": "https://www.kaigokensaku.mhlw.go.jp/01/index.php?action_kouhyou_detail_004_kani=true&JigyosyoCd=0110415247-00&ServiceCd=140&Type=search" }, "geometry": { "type": "Point", "coordinates": [ 141.277937599999973, 43.0770797 ] } },
{ "type": "Feature", "properties": { "内容": "医療法人社団　北裕会　札幌記念病院【訪問リハビリテーション】北海道札幌市西区八軒9条西10丁目1番11号", "url2": "https://www.kaigokensaku.mhlw.go.jp/01/index.php?action_kouhyou_detail_004_kani=true&JigyosyoCd=0110419140-00&ServiceCd=140&Type=search" }, "geometry": { "type": "Point", "coordinates": [ 141.3045462, 43.0978769 ] } },
{ "type": "Feature", "properties": { "内容": "おうちクリニック　訪問リハビリ事業所【訪問リハビリテーション】北海道札幌市西区宮の沢1条1丁目7-10ワイビル宮の沢2階", "url2": "https://www.kaigokensaku.mhlw.go.jp/01/index.php?action_kouhyou_detail_004_kani=true&JigyosyoCd=0110419637-00&ServiceCd=140&Type=search" }, "geometry": { "type": "Point", "coordinates": [ 141.2756319, 43.090741199999989 ] } },
{ "type": "Feature", "properties": { "内容": "医療法人　あおぞらクリニック【訪問リハビリテーション】北海道札幌市西区発寒６条９丁目１７ー４０　２階", "url2": "https://www.kaigokensaku.mhlw.go.jp/01/index.php?action_kouhyou_detail_004_kani=true&JigyosyoCd=0110419348-00&ServiceCd=140&Type=search" }, "geometry": { "type": "Point", "coordinates": [ 141.2805028, 43.0884223 ] } },
{ "type": "Feature", "properties": { "内容": "医療法人　札幌徳洲会病院【訪問リハビリテーション】北海道札幌市厚別区大谷地東1丁目1番1号", "url2": "https://www.kaigokensaku.mhlw.go.jp/01/index.php?action_kouhyou_detail_004_kani=true&JigyosyoCd=0110514007-00&ServiceCd=140&Type=search" }, "geometry": { "type": "Point", "coordinates": [ 141.44792259999997, 43.0292661 ] } },
{ "type": "Feature", "properties": { "内容": "介護老人保健施設あつべつ【訪問リハビリテーション】札幌市厚別区厚別町山本750番地6号", "url2": "https://www.kaigokensaku.mhlw.go.jp/01/index.php?action_kouhyou_detail_004_kani=true&JigyosyoCd=0150380087-00&ServiceCd=140&Type=search" }, "geometry": { "type": "Point", "coordinates": [ 141.462566899999956, 43.0585439 ] } },
{ "type": "Feature", "properties": { "内容": "医療法人社団翔嶺館　新札幌聖陵ホスピタル【訪問リハビリテーション】北海道札幌市厚別区厚別東4条2丁目1番30号", "url2": "https://www.kaigokensaku.mhlw.go.jp/01/index.php?action_kouhyou_detail_004_kani=true&JigyosyoCd=0110511383-00&ServiceCd=140&Type=search" }, "geometry": { "type": "Point", "coordinates": [ 141.480312599999962, 43.0447647 ] } },
{ "type": "Feature", "properties": { "内容": "ファミリークリニックこころ【訪問リハビリテーション】北海道札幌市厚別区もみじ台東4丁目2-7", "url2": "https://www.kaigokensaku.mhlw.go.jp/01/index.php?action_kouhyou_detail_004_kani=true&JigyosyoCd=0110317187-00&ServiceCd=140&Type=search" }, "geometry": { "type": "Point", "coordinates": [ 141.499034099999989, 43.0301838 ] } },
{ "type": "Feature", "properties": { "内容": "大谷地病院訪問リハビリテーション【訪問リハビリテーション】北海道札幌市厚別区大谷地東5丁目7番10号", "url2": "https://www.kaigokensaku.mhlw.go.jp/01/index.php?action_kouhyou_detail_004_kani=true&JigyosyoCd=0110313855-00&ServiceCd=140&Type=search" }, "geometry": { "type": "Point", "coordinates": [ 141.45842760000005, 43.0227588 ] } },
{ "type": "Feature", "properties": { "内容": "社会医療法人　貞仁会　新札幌ひばりが丘訪問リハビリステーション【訪問リハビリテーション】北海道札幌市厚別区厚別中央3条2丁目12番40号", "url2": "https://www.kaigokensaku.mhlw.go.jp/01/index.php?action_kouhyou_detail_004_kani=true&JigyosyoCd=0170513568-00&ServiceCd=140&Type=search" }, "geometry": { "type": "Point", "coordinates": [ 141.4607551, 43.035594700000019 ] } },
{ "type": "Feature", "properties": { "内容": "厚別老人保健施設ディ・グリューネン【訪問リハビリテーション】札幌市厚別区厚別町下野幌38番18", "url2": "https://www.kaigokensaku.mhlw.go.jp/01/index.php?action_kouhyou_detail_004_kani=true&JigyosyoCd=0150380046-00&ServiceCd=140&Type=search" }, "geometry": { "type": "Point", "coordinates": [ 141.502603009909024, 43.039166932497267 ] } },
{ "type": "Feature", "properties": { "内容": "医療法人社団明日佳　桜台明日佳病院【訪問リハビリテーション】北海道札幌市厚別区厚別西5条5丁目1番1号", "url2": "https://www.kaigokensaku.mhlw.go.jp/01/index.php?action_kouhyou_detail_004_kani=true&JigyosyoCd=0110511532-00&ServiceCd=140&Type=search" }, "geometry": { "type": "Point", "coordinates": [ 141.464433699999972, 43.0545527 ] } },
{ "type": "Feature", "properties": { "内容": "医療法人中山会　新札幌パウロ病院訪問リハビリテーション事業所【訪問リハビリテーション】札幌市厚別区厚別東２条６丁目４番１号", "url2": "https://www.kaigokensaku.mhlw.go.jp/01/index.php?action_kouhyou_detail_004_kani=true&JigyosyoCd=0110510476-00&ServiceCd=140&Type=search" }, "geometry": { "type": "Point", "coordinates": [ 141.489862600000038, 43.0465122 ] } },
{ "type": "Feature", "properties": { "内容": "交雄会新さっぽろ病院　訪問リハビリテーション【訪問リハビリテーション】札幌市厚別区厚別中央１条６丁目２⁻５", "url2": "https://www.kaigokensaku.mhlw.go.jp/01/index.php?action_kouhyou_detail_004_kani=true&JigyosyoCd=0110516481-00&ServiceCd=140&Type=search" }, "geometry": { "type": "Point", "coordinates": [ 141.47622, 43.0393771 ] } },
{ "type": "Feature", "properties": { "内容": "新さっぽろ在宅リハビリテーションセンター【訪問リハビリテーション】北海道札幌市厚別区厚別中央1条6丁目2番10号", "url2": "https://www.kaigokensaku.mhlw.go.jp/01/index.php?action_kouhyou_detail_004_kani=true&JigyosyoCd=0110516499-00&ServiceCd=140&Type=search" }, "geometry": { "type": "Point", "coordinates": [ 141.4759838, 43.0395744 ] } },
{ "type": "Feature", "properties": { "内容": "札幌秀友会病院　訪問リハビリテーション【訪問リハビリテーション】北海道札幌市手稲区新発寒5条6丁目2番1号", "url2": "https://www.kaigokensaku.mhlw.go.jp/01/index.php?action_kouhyou_detail_004_kani=true&JigyosyoCd=0110414968-00&ServiceCd=140&Type=search" }, "geometry": { "type": "Point", "coordinates": [ 141.26843370000006, 43.1168005 ] } },
{ "type": "Feature", "properties": { "内容": "医療法人社団明生会　イムス札幌リハビリテーション病院　訪問リハビリテーション【訪問リハビリテーション】札幌市手稲区手稲金山１２４番地", "url2": "https://www.kaigokensaku.mhlw.go.jp/01/index.php?action_kouhyou_detail_004_kani=true&JigyosyoCd=0110412467-00&ServiceCd=140&Type=search" }, "geometry": { "type": "Point", "coordinates": [ 141.198519, 43.1228922 ] } },
{ "type": "Feature", "properties": { "内容": "手稲あんじゅ（介護予防）訪問リハビリテーション事業所【訪問リハビリテーション】北海道札幌市手稲区稲穂5条2丁目6番1号", "url2": "https://www.kaigokensaku.mhlw.go.jp/01/index.php?action_kouhyou_detail_004_kani=true&JigyosyoCd=0150480051-00&ServiceCd=140&Type=search" }, "geometry": { "type": "Point", "coordinates": [ 141.227803, 43.1175687 ] } },
{ "type": "Feature", "properties": { "内容": "訪問リハビリステーションしんえい【訪問リハビリテーション】真栄331番地", "url2": "https://www.kaigokensaku.mhlw.go.jp/01/index.php?action_kouhyou_detail_004_kani=true&JigyosyoCd=0110314705-00&ServiceCd=140&Type=search" }, "geometry": { "type": "Point", "coordinates": [ 141.443860699999959, 42.9786371 ] } },
{ "type": "Feature", "properties": { "内容": "医療法人社団　鈴木内科医院【訪問リハビリテーション】北海道札幌市清田区清田4条2丁目10-25", "url2": "https://www.kaigokensaku.mhlw.go.jp/01/index.php?action_kouhyou_detail_004_kani=true&JigyosyoCd=0110317328-00&ServiceCd=140&Type=search" }, "geometry": { "type": "Point", "coordinates": [ 141.43079, 42.9976271 ] } },
{ "type": "Feature", "properties": { "内容": "クロス＆愛里塚総合診療クリニック【訪問リハビリテーション】北海道札幌市清田区里塚2条4丁目2番35号", "url2": "https://www.kaigokensaku.mhlw.go.jp/01/index.php?action_kouhyou_detail_004_kani=true&JigyosyoCd=0110516077-00&ServiceCd=140&Type=search" }, "geometry": { "type": "Point", "coordinates": [ 141.464571099999972, 42.9838808 ] } },
{ "type": "Feature", "properties": { "内容": "訪問リハビリテーション　ノテげんきのでる里【訪問リハビリテーション】真栄434番地6", "url2": "https://www.kaigokensaku.mhlw.go.jp/01/index.php?action_kouhyou_detail_004_kani=true&JigyosyoCd=0150580108-00&ServiceCd=140&Type=search" }, "geometry": { "type": "Point", "coordinates": [ 141.432285800000045, 42.9722996 ] } },
{ "type": "Feature", "properties": { "内容": "医療法人社団平郁会　札幌在宅クリニックそよ風【訪問リハビリテーション】清田1条4丁目5-52", "url2": "https://www.kaigokensaku.mhlw.go.jp/01/index.php?action_kouhyou_detail_004_kani=true&JigyosyoCd=0110516911-00&ServiceCd=140&Type=search" }, "geometry": { "type": "Point", "coordinates": [ 141.4419059, 42.9984733 ] } },
{ "type": "Feature", "properties": { "内容": "医療法人大庚会　訪問リハビリテーション事業所今整形外科【訪問リハビリテーション】北海道函館市本町30番36号", "url2": "https://www.kaigokensaku.mhlw.go.jp/01/index.php?action_kouhyou_detail_004_kani=true&JigyosyoCd=0111415188-00&ServiceCd=140&Type=search" }, "geometry": { "type": "Point", "coordinates": [ 140.753804899999977, 41.7875812 ] } },
{ "type": "Feature", "properties": { "内容": "ベーネ函館リハビリ支援センター【訪問リハビリテーション】北海道函館市石川町464番地1", "url2": "https://www.kaigokensaku.mhlw.go.jp/01/index.php?action_kouhyou_detail_004_kani=true&JigyosyoCd=0111418752-00&ServiceCd=140&Type=search" }, "geometry": { "type": "Point", "coordinates": [ 140.743699562040746, 41.834581334243921 ] } },
{ "type": "Feature", "properties": { "内容": "函館あかまつ通り整形外科クリニック【訪問リハビリテーション】北海道函館市桔梗1丁目2番10号", "url2": "https://www.kaigokensaku.mhlw.go.jp/01/index.php?action_kouhyou_detail_004_kani=true&JigyosyoCd=0111418661-00&ServiceCd=140&Type=search" }, "geometry": { "type": "Point", "coordinates": [ 140.7308684, 41.8284574 ] } },
{ "type": "Feature", "properties": { "内容": "訪問リハビリステーションひより坂【訪問リハビリテーション】北海道函館市時任町1-2", "url2": "https://www.kaigokensaku.mhlw.go.jp/01/index.php?action_kouhyou_detail_004_kani=true&JigyosyoCd=0111419263-00&ServiceCd=140&Type=search" }, "geometry": { "type": "Point", "coordinates": [ 140.7503748, 41.7811267 ] } },
{ "type": "Feature", "properties": { "内容": "介護老人保健施設　ゆとりろ【訪問リハビリテーション】北海道函館市宝来町14番27号", "url2": "https://www.kaigokensaku.mhlw.go.jp/01/index.php?action_kouhyou_detail_004_kani=true&JigyosyoCd=0151480068-00&ServiceCd=140&Type=search" }, "geometry": { "type": "Point", "coordinates": [ 140.721852899999959, 41.757547400000014 ] } },
{ "type": "Feature", "properties": { "内容": "やわらぎ苑西桔梗訪問リハビリテーション【訪問リハビリテーション】函館市西桔梗町735番地4", "url2": "https://www.kaigokensaku.mhlw.go.jp/01/index.php?action_kouhyou_detail_004_kani=true&JigyosyoCd=0151480084-00&ServiceCd=140&Type=search" }, "geometry": { "type": "Point", "coordinates": [ 140.7164707, 41.8450312 ] } },
{ "type": "Feature", "properties": { "内容": "医療法人鴻仁会深瀬医院【訪問リハビリテーション】北海道函館市松川町30番地12号", "url2": "https://www.kaigokensaku.mhlw.go.jp/01/index.php?action_kouhyou_detail_004_kani=true&JigyosyoCd=0111418109-00&ServiceCd=140&Type=search" }, "geometry": { "type": "Point", "coordinates": [ 140.737070200000062, 41.7863503 ] } },
{ "type": "Feature", "properties": { "内容": "訪問リハビリテーションおおむら【訪問リハビリテーション】北海道函館市石川125番地1函館おおむら整形外科病院1F", "url2": "https://www.kaigokensaku.mhlw.go.jp/01/index.php?action_kouhyou_detail_004_kani=true&JigyosyoCd=0111418307-00&ServiceCd=140&Type=search" }, "geometry": { "type": "Point", "coordinates": [ 140.74588140000003, 41.8327399 ] } },
{ "type": "Feature", "properties": { "内容": "ひでしま内科クリニック訪問リハビリテーション【訪問リハビリテーション】北海道函館市北浜町2-2", "url2": "https://www.kaigokensaku.mhlw.go.jp/01/index.php?action_kouhyou_detail_004_kani=true&JigyosyoCd=0111418059-00&ServiceCd=140&Type=search" }, "geometry": { "type": "Point", "coordinates": [ 140.729228799999987, 41.7960554 ] } },
{ "type": "Feature", "properties": { "内容": "訪問リハビリテーション桔梗【訪問リハビリテーション】函館市桔梗町５５７番地介護老人保健施設ジョイウェルス桔梗", "url2": "https://www.kaigokensaku.mhlw.go.jp/01/index.php?action_kouhyou_detail_004_kani=true&JigyosyoCd=0151480035-00&ServiceCd=140&Type=search" }, "geometry": { "type": "Point", "coordinates": [ 140.753513399999946, 41.8604458 ] } },
{ "type": "Feature", "properties": { "内容": "指定訪問リハビリテーション事業所こんクリニック松濤【訪問リハビリテーション】北海道函館市松風町18番17号", "url2": "https://www.kaigokensaku.mhlw.go.jp/01/index.php?action_kouhyou_detail_004_kani=true&JigyosyoCd=0111417267-00&ServiceCd=140&Type=search" }, "geometry": { "type": "Point", "coordinates": [ 140.732046099999934, 41.7730041 ] } },
{ "type": "Feature", "properties": { "内容": "社会医療法人仁生会　訪問リハビリテーション西堀【訪問リハビリテーション】北海道函館市中道2丁目6番11号", "url2": "https://www.kaigokensaku.mhlw.go.jp/01/index.php?action_kouhyou_detail_004_kani=true&JigyosyoCd=0111413001-00&ServiceCd=140&Type=search" }, "geometry": { "type": "Point", "coordinates": [ 140.758401, 41.8059157 ] } },
{ "type": "Feature", "properties": { "内容": "訪問リハビリテーション亀田【訪問リハビリテーション】北海道函館市昭和1丁目23番11号", "url2": "https://www.kaigokensaku.mhlw.go.jp/01/index.php?action_kouhyou_detail_004_kani=true&JigyosyoCd=0111417960-00&ServiceCd=140&Type=search" }, "geometry": { "type": "Point", "coordinates": [ 140.74460410000006, 41.8180348 ] } },
{ "type": "Feature", "properties": { "内容": "訪問リハビリテーション　グランドサン亀田【訪問リハビリテーション】函館市石川町191番地4介護老人保健施設グランドサン亀田　内", "url2": "https://www.kaigokensaku.mhlw.go.jp/01/index.php?action_kouhyou_detail_004_kani=true&JigyosyoCd=0151480019-00&ServiceCd=140&Type=search" }, "geometry": { "type": "Point", "coordinates": [ 140.743178267597926, 41.835947940644722 ] } },
{ "type": "Feature", "properties": { "内容": "北海道社会事業協会函館病院【訪問リハビリテーション】北海道函館市駒場町４番６号", "url2": "https://www.kaigokensaku.mhlw.go.jp/01/index.php?action_kouhyou_detail_004_kani=true&JigyosyoCd=0111417655-00&ServiceCd=140&Type=search" }, "geometry": { "type": "Point", "coordinates": [ 140.7708169, 41.7844607 ] } },
{ "type": "Feature", "properties": { "内容": "函館赤十字病院　訪問リハビリテーション【訪問リハビリテーション】北海道函館市堀川町6番21号", "url2": "https://www.kaigokensaku.mhlw.go.jp/01/index.php?action_kouhyou_detail_004_kani=true&JigyosyoCd=0111410064-00&ServiceCd=140&Type=search" }, "geometry": { "type": "Point", "coordinates": [ 140.740695100000011, 41.7785622 ] } },
{ "type": "Feature", "properties": { "内容": "訪問リハビリテーション絆【訪問リハビリテーション】函館市桔梗1丁目14番1号", "url2": "https://www.kaigokensaku.mhlw.go.jp/01/index.php?action_kouhyou_detail_004_kani=true&JigyosyoCd=01B1400014-00&ServiceCd=140&Type=search" }, "geometry": { "type": "Point", "coordinates": [ 140.727960400000029, 41.8308784 ] } },
{ "type": "Feature", "properties": { "内容": "訪問リハビリテーション稜北【訪問リハビリテーション】北海道函館市中道2丁目51-1", "url2": "https://www.kaigokensaku.mhlw.go.jp/01/index.php?action_kouhyou_detail_004_kani=true&JigyosyoCd=0111414157-00&ServiceCd=140&Type=search" }, "geometry": { "type": "Point", "coordinates": [ 140.7623006, 41.81229 ] } },
{ "type": "Feature", "properties": { "内容": "医療法人敬仁会函館おしま病院【訪問リハビリテーション】函館市的場町19番6号", "url2": "https://www.kaigokensaku.mhlw.go.jp/01/index.php?action_kouhyou_detail_004_kani=true&JigyosyoCd=0111414405-00&ServiceCd=140&Type=search" }, "geometry": { "type": "Point", "coordinates": [ 140.7528474, 41.7776643 ] } },
{ "type": "Feature", "properties": { "内容": "介護老人保健施設ケンゆのかわ（訪問リハビリテーション事業所）【訪問リハビリテーション】北海道函館市湯川町3丁目29番15号", "url2": "https://www.kaigokensaku.mhlw.go.jp/01/index.php?action_kouhyou_detail_004_kani=true&JigyosyoCd=0151480043-00&ServiceCd=140&Type=search" }, "geometry": { "type": "Point", "coordinates": [ 140.791138499999988, 41.783592 ] } },
{ "type": "Feature", "properties": { "内容": "老人保健施設モエズガーデン小樽【訪問リハビリテーション】北海道小樽市奥沢1丁目2番2号", "url2": "https://www.kaigokensaku.mhlw.go.jp/01/index.php?action_kouhyou_detail_004_kani=true&JigyosyoCd=0152080073-00&ServiceCd=140&Type=search" }, "geometry": { "type": "Point", "coordinates": [ 139.6798713, 35.5988544 ] } },
{ "type": "Feature", "properties": { "内容": "医療法人社団　島田脳神経外科【訪問リハビリテーション】北海道小樽市錦町1番2号", "url2": "https://www.kaigokensaku.mhlw.go.jp/01/index.php?action_kouhyou_detail_004_kani=true&JigyosyoCd=0112013719-00&ServiceCd=140&Type=search" }, "geometry": { "type": "Point", "coordinates": [ 140.997564700832299, 43.205540080417606 ] } },
{ "type": "Feature", "properties": { "内容": "社会福祉法人恩賜財団済生会支部北海道済生会小樽老人保健施設はまなす【訪問リハビリテーション】小樽市塩谷2丁目17番25号", "url2": "https://www.kaigokensaku.mhlw.go.jp/01/index.php?action_kouhyou_detail_004_kani=true&JigyosyoCd=0152080032-00&ServiceCd=140&Type=search" }, "geometry": { "type": "Point", "coordinates": [ 140.928124700000012, 43.2076229 ] } },
{ "type": "Feature", "properties": { "内容": "札樽病院【訪問リハビリテーション】小樽市銭函3丁目298番地", "url2": "https://www.kaigokensaku.mhlw.go.jp/01/index.php?action_kouhyou_detail_004_kani=true&JigyosyoCd=0112013362-00&ServiceCd=140&Type=search" }, "geometry": { "type": "Point", "coordinates": [ 141.17472829999997, 43.1366954 ] } },
{ "type": "Feature", "properties": { "内容": "医療法人航和会　脳神経外科おたる港南クリニック【訪問リハビリテーション】小樽市真栄１丁目６番１号", "url2": "https://www.kaigokensaku.mhlw.go.jp/01/index.php?action_kouhyou_detail_004_kani=true&JigyosyoCd=0112014758-00&ServiceCd=140&Type=search" }, "geometry": { "type": "Point", "coordinates": [ 141.007175500000017, 43.1800964 ] } },
{ "type": "Feature", "properties": { "内容": "札樽・すがた医院【訪問リハビリテーション】小樽市緑2丁目29番3号", "url2": "https://www.kaigokensaku.mhlw.go.jp/01/index.php?action_kouhyou_detail_004_kani=true&JigyosyoCd=0112014576-00&ServiceCd=140&Type=search" }, "geometry": { "type": "Point", "coordinates": [ 140.988548900000069, 43.1880286 ] } },
{ "type": "Feature", "properties": { "内容": "医療法人社団　三ツ山病院【訪問リハビリテーション】北海道小樽市稲穂1丁目9番2号", "url2": "https://www.kaigokensaku.mhlw.go.jp/01/index.php?action_kouhyou_detail_004_kani=true&JigyosyoCd=0112013438-00&ServiceCd=140&Type=search" }, "geometry": { "type": "Point", "coordinates": [ 140.997192199999972, 43.1940476 ] } },
{ "type": "Feature", "properties": { "内容": "医療法人社団　青優会　南小樽病院　訪問リハビリテーション【訪問リハビリテーション】小樽市潮見台1丁目5番3号", "url2": "https://www.kaigokensaku.mhlw.go.jp/01/index.php?action_kouhyou_detail_004_kani=true&JigyosyoCd=0112014816-00&ServiceCd=140&Type=search" }, "geometry": { "type": "Point", "coordinates": [ 141.01310280000007, 43.1792521 ] } },
{ "type": "Feature", "properties": { "内容": "医療法人北光会　朝里中央病院【訪問リハビリテーション】北海道小樽市新光1-21-5", "url2": "https://www.kaigokensaku.mhlw.go.jp/01/index.php?action_kouhyou_detail_004_kani=true&JigyosyoCd=0112014832-00&ServiceCd=140&Type=search" }, "geometry": { "type": "Point", "coordinates": [ 141.0550667, 43.1735095 ] } },
{ "type": "Feature", "properties": { "内容": "医療法人社団北匠会　小樽中央病院【訪問リハビリテーション】北海道小樽市入船2丁目2番18号", "url2": "https://www.kaigokensaku.mhlw.go.jp/01/index.php?action_kouhyou_detail_004_kani=true&JigyosyoCd=0112014899-00&ServiceCd=140&Type=search" }, "geometry": { "type": "Point", "coordinates": [ 140.9998617, 43.1865506 ] } },
{ "type": "Feature", "properties": { "内容": "社会福祉法人北海道社会事業協会小樽病院【訪問リハビリテーション】北海道小樽市住ノ江1-6-15", "url2": "https://www.kaigokensaku.mhlw.go.jp/01/index.php?action_kouhyou_detail_004_kani=true&JigyosyoCd=0112010087-00&ServiceCd=140&Type=search" }, "geometry": { "type": "Point", "coordinates": [ 141.0049502, 43.1856905 ] } },
{ "type": "Feature", "properties": { "内容": "医療法人勉仁会　介護老人保健施設ラポール東小樽　訪問リハビリテーション【訪問リハビリテーション】小樽市新光２丁目２９番２号", "url2": "https://www.kaigokensaku.mhlw.go.jp/01/index.php?action_kouhyou_detail_004_kani=true&JigyosyoCd=0152080016-00&ServiceCd=140&Type=search" }, "geometry": { "type": "Point", "coordinates": [ 141.05229989999998, 43.1683073 ] } },
{ "type": "Feature", "properties": { "内容": "老人保健施設かたくりの郷【訪問リハビリテーション】北海道旭川市神楽３条４丁目２番１４号", "url2": "https://www.kaigokensaku.mhlw.go.jp/01/index.php?action_kouhyou_detail_004_kani=true&JigyosyoCd=0152980082-00&ServiceCd=140&Type=search" }, "geometry": { "type": "Point", "coordinates": [ 142.348051700000042, 43.7622248 ] } },
{ "type": "Feature", "properties": { "内容": "忠和クリニック【訪問リハビリテーション】北海道旭川市忠和5条6丁目17番地8", "url2": "https://www.kaigokensaku.mhlw.go.jp/01/index.php?action_kouhyou_detail_004_kani=true&JigyosyoCd=0112918958-00&ServiceCd=140&Type=search" }, "geometry": { "type": "Point", "coordinates": [ 142.320935100000042, 43.7730281 ] } },
{ "type": "Feature", "properties": { "内容": "吉田病院　訪問リハビリテーション事業所【訪問リハビリテーション】北海道旭川市4条4丁目1番2号", "url2": "https://www.kaigokensaku.mhlw.go.jp/01/index.php?action_kouhyou_detail_004_kani=true&JigyosyoCd=0112915681-00&ServiceCd=140&Type=search" }, "geometry": { "type": "Point", "coordinates": [ 142.345009800000071, 43.7730234 ] } },
{ "type": "Feature", "properties": { "内容": "愛善ハイツ訪問リハビリテーション事業所【訪問リハビリテーション】北海道旭川市春光台4条11丁目5249番地の2老人保健施設　愛善ハイツ", "url2": "https://www.kaigokensaku.mhlw.go.jp/01/index.php?action_kouhyou_detail_004_kani=true&JigyosyoCd=0152980066-00&ServiceCd=140&Type=search" }, "geometry": { "type": "Point", "coordinates": [ 142.3714065, 43.830969 ] } },
{ "type": "Feature", "properties": { "内容": "さくら館訪問リハビリテーション【訪問リハビリテーション】旭川市4条西4丁目2番1号", "url2": "https://www.kaigokensaku.mhlw.go.jp/01/index.php?action_kouhyou_detail_004_kani=true&JigyosyoCd=0152980058-00&ServiceCd=140&Type=search" }, "geometry": { "type": "Point", "coordinates": [ 142.34577360000003, 43.7737317 ] } },
{ "type": "Feature", "properties": { "内容": "医療法人フクダ　訪問リハビリテーションフクダ【訪問リハビリテーション】北海道旭川市末広5条7丁目1番1号", "url2": "https://www.kaigokensaku.mhlw.go.jp/01/index.php?action_kouhyou_detail_004_kani=true&JigyosyoCd=0112917059-00&ServiceCd=140&Type=search" }, "geometry": { "type": "Point", "coordinates": [ 142.382450699999907, 43.8153593 ] } },
{ "type": "Feature", "properties": { "内容": "介護老人保健施設　フェニックス　訪問リハビリテーション【訪問リハビリテーション】北海道旭川市豊岡13条1丁目1番11号", "url2": "https://www.kaigokensaku.mhlw.go.jp/01/index.php?action_kouhyou_detail_004_kani=true&JigyosyoCd=0152980074-00&ServiceCd=140&Type=search" }, "geometry": { "type": "Point", "coordinates": [ 142.390455800000012, 43.771067 ] } },
{ "type": "Feature", "properties": { "内容": "旭川老人保健施設ふれあい【訪問リハビリテーション】旭川市錦町18丁目2150番地", "url2": "https://www.kaigokensaku.mhlw.go.jp/01/index.php?action_kouhyou_detail_004_kani=true&JigyosyoCd=0152980017-00&ServiceCd=140&Type=search" }, "geometry": { "type": "Point", "coordinates": [ 142.332359799999949, 43.7916903 ] } },
{ "type": "Feature", "properties": { "内容": "医療法人社団旭豊会　旭川三愛病院　訪問リハビリテーション【訪問リハビリテーション】北海道旭川市永山4条6丁目3番24号", "url2": "https://www.kaigokensaku.mhlw.go.jp/01/index.php?action_kouhyou_detail_004_kani=true&JigyosyoCd=0112914858-00&ServiceCd=140&Type=search" }, "geometry": { "type": "Point", "coordinates": [ 142.408969634254447, 43.792246259229429 ] } },
{ "type": "Feature", "properties": { "内容": "医療法人社団杏仁会　大雪病院【訪問リハビリテーション】北海道旭川市永山３条７丁目１番５号大雪病院", "url2": "https://www.kaigokensaku.mhlw.go.jp/01/index.php?action_kouhyou_detail_004_kani=true&JigyosyoCd=0112917885-00&ServiceCd=140&Type=search" }, "geometry": { "type": "Point", "coordinates": [ 142.408818600000018, 43.7940821 ] } },
{ "type": "Feature", "properties": { "内容": "介護老人保健施設ことぶき　訪問リハビリテーション【訪問リハビリテーション】旭川市東旭川町上兵村35番地5", "url2": "https://www.kaigokensaku.mhlw.go.jp/01/index.php?action_kouhyou_detail_004_kani=true&JigyosyoCd=0152980108-00&ServiceCd=140&Type=search" }, "geometry": { "type": "Point", "coordinates": [ 142.441908600000033, 43.7800855 ] } },
{ "type": "Feature", "properties": { "内容": "訪問リハビリテーションいぶき【訪問リハビリテーション】旭川市神居２条１８丁目１６番１６号", "url2": "https://www.kaigokensaku.mhlw.go.jp/01/index.php?action_kouhyou_detail_004_kani=true&JigyosyoCd=0112916242-00&ServiceCd=140&Type=search" }, "geometry": { "type": "Point", "coordinates": [ 142.341546824467514, 43.750374248624304 ] } },
{ "type": "Feature", "properties": { "内容": "森山メモリアル病院指定訪問リハビリテーション事業所【訪問リハビリテーション】北海道旭川市旭町2条1丁目31番地", "url2": "https://www.kaigokensaku.mhlw.go.jp/01/index.php?action_kouhyou_detail_004_kani=true&JigyosyoCd=0112917497-00&ServiceCd=140&Type=search" }, "geometry": { "type": "Point", "coordinates": [ 142.361004854353268, 43.781553899662242 ] } },
{ "type": "Feature", "properties": { "内容": "道北勤医協　一条通病院【訪問リハビリテーション】北海道旭川市東光1条1丁目1番17号", "url2": "https://www.kaigokensaku.mhlw.go.jp/01/index.php?action_kouhyou_detail_004_kani=true&JigyosyoCd=0112919212-00&ServiceCd=140&Type=search" }, "geometry": { "type": "Point", "coordinates": [ 142.387750800000049, 43.7562461 ] } },
{ "type": "Feature", "properties": { "内容": "老人保健施設サニーヒル【訪問リハビリテーション】北海道旭川市末広８条６丁目５３０７番地", "url2": "https://www.kaigokensaku.mhlw.go.jp/01/index.php?action_kouhyou_detail_004_kani=true&JigyosyoCd=0152980025-00&ServiceCd=140&Type=search" }, "geometry": { "type": "Point", "coordinates": [ 142.373381299999977, 43.8197785 ] } },
{ "type": "Feature", "properties": { "内容": "旭川リハビリテーション病院　訪問リハビリ【訪問リハビリテーション】北海道旭川市緑が丘東1条1丁目1番1号", "url2": "https://www.kaigokensaku.mhlw.go.jp/01/index.php?action_kouhyou_detail_004_kani=true&JigyosyoCd=0172907446-00&ServiceCd=140&Type=search" }, "geometry": { "type": "Point", "coordinates": [ 140.074614900000029, 35.7280097 ] } },
{ "type": "Feature", "properties": { "内容": "訪問リハビリテーションエバーグリーン【訪問リハビリテーション】北海道室蘭市八丁平1丁目49番地", "url2": "https://www.kaigokensaku.mhlw.go.jp/01/index.php?action_kouhyou_detail_004_kani=true&JigyosyoCd=0153580014-00&ServiceCd=140&Type=search" }, "geometry": { "type": "Point", "coordinates": [ 141.007275804229721, 42.367395726140195 ] } },
{ "type": "Feature", "properties": { "内容": "医療法人室蘭太平洋病院【訪問リハビリテーション】北海道室蘭市白鳥台５丁目１９番２号", "url2": "https://www.kaigokensaku.mhlw.go.jp/01/index.php?action_kouhyou_detail_004_kani=true&JigyosyoCd=0113511992-00&ServiceCd=140&Type=search" }, "geometry": { "type": "Point", "coordinates": [ 140.942118919712783, 42.379339666831214 ] } },
{ "type": "Feature", "properties": { "内容": "老人保健施設母恋【訪問リハビリテーション】北海道室蘭市新富町1丁目5番13号", "url2": "https://www.kaigokensaku.mhlw.go.jp/01/index.php?action_kouhyou_detail_004_kani=true&JigyosyoCd=0153580030-00&ServiceCd=140&Type=search" }, "geometry": { "type": "Point", "coordinates": [ 140.9856087, 42.3156463 ] } },
{ "type": "Feature", "properties": { "内容": "社会医療法人製鉄記念室蘭病院　訪問リハビリテーションセンター【訪問リハビリテーション】北海道室蘭市知利別町1丁目45番地", "url2": "https://www.kaigokensaku.mhlw.go.jp/01/index.php?action_kouhyou_detail_004_kani=true&JigyosyoCd=0113512511-00&ServiceCd=140&Type=search" }, "geometry": { "type": "Point", "coordinates": [ 141.016511, 42.3575237 ] } },
{ "type": "Feature", "properties": { "内容": "星が浦訪問リハビリセンター【訪問リハビリテーション】北海道釧路市星が浦大通3丁目9番33号", "url2": "https://www.kaigokensaku.mhlw.go.jp/01/index.php?action_kouhyou_detail_004_kani=true&JigyosyoCd=0114112378-00&ServiceCd=140&Type=search" }, "geometry": { "type": "Point", "coordinates": [ 144.3164639, 43.0168267 ] } },
{ "type": "Feature", "properties": { "内容": "MC訪問リハビリテーションTOPS【訪問リハビリテーション】北海道釧路市文苑1丁目41番11号", "url2": "https://www.kaigokensaku.mhlw.go.jp/01/index.php?action_kouhyou_detail_004_kani=true&JigyosyoCd=0114113483-00&ServiceCd=140&Type=search" }, "geometry": { "type": "Point", "coordinates": [ 144.3883808, 43.0200429 ] } },
{ "type": "Feature", "properties": { "内容": "医療法人扶恵会　釧路中央病院【訪問リハビリテーション】北海道釧路市幸町9-3", "url2": "https://www.kaigokensaku.mhlw.go.jp/01/index.php?action_kouhyou_detail_004_kani=true&JigyosyoCd=0114113491-00&ServiceCd=140&Type=search" }, "geometry": { "type": "Point", "coordinates": [ 144.377787398296789, 42.985278147025426 ] } },
{ "type": "Feature", "properties": { "内容": "みなみ病院　訪問リハビリステーション【訪問リハビリテーション】北海道釧路市春採７丁目９番９号", "url2": "https://www.kaigokensaku.mhlw.go.jp/01/index.php?action_kouhyou_detail_004_kani=true&JigyosyoCd=0174101634-00&ServiceCd=140&Type=search" }, "geometry": { "type": "Point", "coordinates": [ 144.4188298, 42.9788707 ] } },
{ "type": "Feature", "properties": { "内容": "釧路訪問リハビリセンター【訪問リハビリテーション】北海道釧路市芦野1丁目27番1号釧路脳神経外科内", "url2": "https://www.kaigokensaku.mhlw.go.jp/01/index.php?action_kouhyou_detail_004_kani=true&JigyosyoCd=0174100982-00&ServiceCd=140&Type=search" }, "geometry": { "type": "Point", "coordinates": [ 144.401941099999931, 43.0121189 ] } },
{ "type": "Feature", "properties": { "内容": "道東勤医協釧路協⽴病院訪問リハビリテーション【訪問リハビリテーション】北海道釧路市治水町3番14号", "url2": "https://www.kaigokensaku.mhlw.go.jp/01/index.php?action_kouhyou_detail_004_kani=true&JigyosyoCd=0174101899-00&ServiceCd=140&Type=search" }, "geometry": { "type": "Point", "coordinates": [ 144.371472400000016, 43.008471 ] } },
{ "type": "Feature", "properties": { "内容": "介護老人保健施設ヴィラかいせい【訪問リハビリテーション】北海道帯広市西22条南2丁目2番地10", "url2": "https://www.kaigokensaku.mhlw.go.jp/01/index.php?action_kouhyou_detail_004_kani=true&JigyosyoCd=0154680052-00&ServiceCd=140&Type=search" }, "geometry": { "type": "Point", "coordinates": [ 143.13207460000001, 42.9194336 ] } },
{ "type": "Feature", "properties": { "内容": "訪問リハビリテーションアフタービート【訪問リハビリテーション】北海道帯広市西１７条南３丁目２４番２４号ケアステーションアンダンテ内", "url2": "https://www.kaigokensaku.mhlw.go.jp/01/index.php?action_kouhyou_detail_004_kani=true&JigyosyoCd=0154680037-00&ServiceCd=140&Type=search" }, "geometry": { "type": "Point", "coordinates": [ 143.168967, 42.917965 ] } },
{ "type": "Feature", "properties": { "内容": "社会医療法人刀圭会　協立病院【訪問リハビリテーション】北海道帯広市西16条北1丁目27番地医療法人社団刀圭会　協立病院", "url2": "https://www.kaigokensaku.mhlw.go.jp/01/index.php?action_kouhyou_detail_004_kani=true&JigyosyoCd=0114611932-00&ServiceCd=140&Type=search" }, "geometry": { "type": "Point", "coordinates": [ 143.175049800000011, 42.9311582 ] } },
{ "type": "Feature", "properties": { "内容": "十勝勤医協老人保健施設ケアセンター白樺【訪問リハビリテーション】帯広市白樺１６条西２丁目", "url2": "https://www.kaigokensaku.mhlw.go.jp/01/index.php?action_kouhyou_detail_004_kani=true&JigyosyoCd=0154680029-00&ServiceCd=140&Type=search" }, "geometry": { "type": "Point", "coordinates": [ 143.174058512442002, 42.918109318409229 ] } },
{ "type": "Feature", "properties": { "内容": "医療法人　千樹会　帯広整形外科【訪問リハビリテーション】北海道帯広市東２条南１４丁目１番２号", "url2": "https://www.kaigokensaku.mhlw.go.jp/01/index.php?action_kouhyou_detail_004_kani=true&JigyosyoCd=0114614100-00&ServiceCd=140&Type=search" }, "geometry": { "type": "Point", "coordinates": [ 143.208814179098454, 42.916309944378405 ] } },
{ "type": "Feature", "properties": { "内容": "帯広中央病院　訪問リハビリテーション事業所【訪問リハビリテーション】北海道帯広市西７条南８丁目１番地３", "url2": "https://www.kaigokensaku.mhlw.go.jp/01/index.php?action_kouhyou_detail_004_kani=true&JigyosyoCd=0114614514-00&ServiceCd=140&Type=search" }, "geometry": { "type": "Point", "coordinates": [ 143.19429134973754, 42.922764774789755 ] } },
{ "type": "Feature", "properties": { "内容": "社会医療法人博愛会開西病院　訪問リハビリテーション【訪問リハビリテーション】北海道帯広市西23条南2丁目16-27", "url2": "https://www.kaigokensaku.mhlw.go.jp/01/index.php?action_kouhyou_detail_004_kani=true&JigyosyoCd=0114613235-00&ServiceCd=140&Type=search" }, "geometry": { "type": "Point", "coordinates": [ 143.129339699999946, 42.9176973 ] } },
{ "type": "Feature", "properties": { "内容": "社会医療法人北斗　十勝リハビリテーションセンター　訪問リハビリテーション　さくら【訪問リハビリテーション】北海道帯広市稲田町基線2番地1トカチリハビリテーションセンター", "url2": "https://www.kaigokensaku.mhlw.go.jp/01/index.php?action_kouhyou_detail_004_kani=true&JigyosyoCd=0114614134-00&ServiceCd=140&Type=search" }, "geometry": { "type": "Point", "coordinates": [ 143.191013699999985, 42.8850394 ] } },
{ "type": "Feature", "properties": { "内容": "社会福祉法人真宗協会　帯広光南病院【訪問リハビリテーション】北海道帯広市空港南町303番地7", "url2": "https://www.kaigokensaku.mhlw.go.jp/01/index.php?action_kouhyou_detail_004_kani=true&JigyosyoCd=0114613375-00&ServiceCd=140&Type=search" }, "geometry": { "type": "Point", "coordinates": [ 143.161722400000031, 42.8768221 ] } },
{ "type": "Feature", "properties": { "内容": "介護老人保健施設アメニティ帯広【訪問リハビリテーション】帯広市西16条北1丁目27番地", "url2": "https://www.kaigokensaku.mhlw.go.jp/01/index.php?action_kouhyou_detail_004_kani=true&JigyosyoCd=0154680011-00&ServiceCd=140&Type=search" }, "geometry": { "type": "Point", "coordinates": [ 143.175049800000011, 42.9311582 ] } },
{ "type": "Feature", "properties": { "内容": "十勝勤医協帯広病院【訪問リハビリテーション】帯広市西9条南12丁目4番地", "url2": "https://www.kaigokensaku.mhlw.go.jp/01/index.php?action_kouhyou_detail_004_kani=true&JigyosyoCd=0174602615-00&ServiceCd=140&Type=search" }, "geometry": { "type": "Point", "coordinates": [ 143.1920643, 42.9176151 ] } },
{ "type": "Feature", "properties": { "内容": "オホーツク勤医協北見病院【訪問リハビリテーション】北海道北見市常盤町5丁目7番地5", "url2": "https://www.kaigokensaku.mhlw.go.jp/01/index.php?action_kouhyou_detail_004_kani=true&JigyosyoCd=0115012064-00&ServiceCd=140&Type=search" }, "geometry": { "type": "Point", "coordinates": [ 143.890074845507797, 43.793077756386282 ] } },
{ "type": "Feature", "properties": { "内容": "医療法人ケイ・アイ　オホーツク海病院　訪問リハビリテーション事業所【訪問リハビリテーション】北見市端野町2区793番地1", "url2": "https://www.kaigokensaku.mhlw.go.jp/01/index.php?action_kouhyou_detail_004_kani=true&JigyosyoCd=0115011934-00&ServiceCd=140&Type=search" }, "geometry": { "type": "Point", "coordinates": [ 143.9282174, 43.8638982 ] } },
{ "type": "Feature", "properties": { "内容": "医療法人社団久仁会　白川整形外科内科　訪問リハビリテーション事業所【訪問リハビリテーション】北海道北見市桜町５丁目１７番１号", "url2": "https://www.kaigokensaku.mhlw.go.jp/01/index.php?action_kouhyou_detail_004_kani=true&JigyosyoCd=0115012445-00&ServiceCd=140&Type=search" }, "geometry": { "type": "Point", "coordinates": [ 143.907130235581917, 43.810460628854599 ] } },
{ "type": "Feature", "properties": { "内容": "介護老人保健施設いきいき指定訪問リハビリテーション事業所【訪問リハビリテーション】北見市東相内町172番地80", "url2": "https://www.kaigokensaku.mhlw.go.jp/01/index.php?action_kouhyou_detail_004_kani=true&JigyosyoCd=0155080021-00&ServiceCd=140&Type=search" }, "geometry": { "type": "Point", "coordinates": [ 143.819465199999968, 43.8007554 ] } },
{ "type": "Feature", "properties": { "内容": "医療法人社団高翔会　北星記念病院訪問リハビリテーション事業所【訪問リハビリテーション】北海道北見市中央三輪2丁目302-1", "url2": "https://www.kaigokensaku.mhlw.go.jp/01/index.php?action_kouhyou_detail_004_kani=true&JigyosyoCd=0115012767-00&ServiceCd=140&Type=search" }, "geometry": { "type": "Point", "coordinates": [ 143.851221500000094, 43.8031775 ] } },
{ "type": "Feature", "properties": { "内容": "社会医療法人明生会　道東の森総合病院【訪問リハビリテーション】北海道北見市美山町東2丁目68-9", "url2": "https://www.kaigokensaku.mhlw.go.jp/01/index.php?action_kouhyou_detail_004_kani=true&JigyosyoCd=0115012544-00&ServiceCd=140&Type=search" }, "geometry": { "type": "Point", "coordinates": [ 143.8834288, 43.8269681 ] } },
{ "type": "Feature", "properties": { "内容": "医療法人社団煌生会　介護老人保健施設さくら【訪問リハビリテーション】北海道北見市北光280番地6", "url2": "https://www.kaigokensaku.mhlw.go.jp/01/index.php?action_kouhyou_detail_004_kani=true&JigyosyoCd=0155080039-00&ServiceCd=140&Type=search" }, "geometry": { "type": "Point", "coordinates": [ 143.8678069, 43.7787476 ] } },
{ "type": "Feature", "properties": { "内容": "夕張市立診療所【訪問リハビリテーション】北海道夕張市若菜8番地12", "url2": "https://www.kaigokensaku.mhlw.go.jp/01/index.php?action_kouhyou_detail_004_kani=true&JigyosyoCd=0175900190-00&ServiceCd=140&Type=search" }, "geometry": { "type": "Point", "coordinates": [ 141.970476125220614, 43.026399763303537 ] } },
{ "type": "Feature", "properties": { "内容": "介護老人保健施設ゆあみーる【訪問リハビリテーション】岩見沢市８条西１９丁目8-1", "url2": "https://www.kaigokensaku.mhlw.go.jp/01/index.php?action_kouhyou_detail_004_kani=true&JigyosyoCd=0155780034-00&ServiceCd=140&Type=search" }, "geometry": { "type": "Point", "coordinates": [ 141.7526183, 43.1910082 ] } },
{ "type": "Feature", "properties": { "内容": "介護老人保健施設　北翔館【訪問リハビリテーション】北海道岩見沢市10条西21丁目2番地", "url2": "https://www.kaigokensaku.mhlw.go.jp/01/index.php?action_kouhyou_detail_004_kani=true&JigyosyoCd=0155780026-00&ServiceCd=140&Type=search" }, "geometry": { "type": "Point", "coordinates": [ 141.752971990737933, 43.187745140676974 ] } },
{ "type": "Feature", "properties": { "内容": "医療法人讃生会　訪問リハビリテーションしらかば【訪問リハビリテーション】北海道網走市字潮見網走市字潮見153番地1", "url2": "https://www.kaigokensaku.mhlw.go.jp/01/index.php?action_kouhyou_detail_004_kani=true&JigyosyoCd=0115311888-00&ServiceCd=140&Type=search" }, "geometry": { "type": "Point", "coordinates": [ 144.266261115274801, 43.99192491481319 ] } },
{ "type": "Feature", "properties": { "内容": "訪問リハビリテーションぷりまべら【訪問リハビリテーション】網走市桂町4丁目7番11号", "url2": "https://www.kaigokensaku.mhlw.go.jp/01/index.php?action_kouhyou_detail_004_kani=true&JigyosyoCd=0175300771-00&ServiceCd=140&Type=search" }, "geometry": { "type": "Point", "coordinates": [ 144.269969, 44.0120407 ] } },
{ "type": "Feature", "properties": { "内容": "医療法人社団　網走中央病院　指定訪問リハビリテーション【訪問リハビリテーション】北海道網走市南６条東１丁目７番地", "url2": "https://www.kaigokensaku.mhlw.go.jp/01/index.php?action_kouhyou_detail_004_kani=true&JigyosyoCd=0115311730-00&ServiceCd=140&Type=search" }, "geometry": { "type": "Point", "coordinates": [ 144.268524571827697, 44.019567853029429 ] } },
{ "type": "Feature", "properties": { "内容": "医療法人社団心優会　訪問リハビリテーション季実の杜【訪問リハビリテーション】北海道留萌市開運町１丁目５番１号", "url2": "https://www.kaigokensaku.mhlw.go.jp/01/index.php?action_kouhyou_detail_004_kani=true&JigyosyoCd=0156480022-00&ServiceCd=140&Type=search" }, "geometry": { "type": "Point", "coordinates": [ 141.648216899999966, 43.9403177 ] } },
{ "type": "Feature", "properties": { "内容": "留萌セントラルクリニック　訪問リハビリテーション【訪問リハビリテーション】北海道留萌市栄町1丁目5番26号ノエル1F", "url2": "https://www.kaigokensaku.mhlw.go.jp/01/index.php?action_kouhyou_detail_004_kani=true&JigyosyoCd=0116411430-00&ServiceCd=140&Type=search" }, "geometry": { "type": "Point", "coordinates": [ 141.648506, 43.942451 ] } },
{ "type": "Feature", "properties": { "内容": "光洋いきいきクリニック（光洋訪問リハビリテーション）【訪問リハビリテーション】苫小牧市光洋町1丁目16-16", "url2": "https://www.kaigokensaku.mhlw.go.jp/01/index.php?action_kouhyou_detail_004_kani=true&JigyosyoCd=0113613855-00&ServiceCd=140&Type=search" }, "geometry": { "type": "Point", "coordinates": [ 141.562604299999947, 42.6229121 ] } },
{ "type": "Feature", "properties": { "内容": "苫小牧東病院【訪問リハビリテーション】北海道苫小牧市明野新町５丁目１番３０号", "url2": "https://www.kaigokensaku.mhlw.go.jp/01/index.php?action_kouhyou_detail_004_kani=true&JigyosyoCd=0113612816-00&ServiceCd=140&Type=search" }, "geometry": { "type": "Point", "coordinates": [ 141.636643400000054, 42.6626145 ] } },
{ "type": "Feature", "properties": { "内容": "医療法人　同樹会苫小牧病院【訪問リハビリテーション】新中野町３丁目９番１０号", "url2": "https://www.kaigokensaku.mhlw.go.jp/01/index.php?action_kouhyou_detail_004_kani=true&JigyosyoCd=0113612022-00&ServiceCd=140&Type=search" }, "geometry": { "type": "Point", "coordinates": [ 141.60966, 42.6424149 ] } },
{ "type": "Feature", "properties": { "内容": "勤医協苫小牧病院【訪問リハビリテーション】北海道苫小牧市見山町1丁目8-23番地", "url2": "https://www.kaigokensaku.mhlw.go.jp/01/index.php?action_kouhyou_detail_004_kani=true&JigyosyoCd=0113611776-00&ServiceCd=140&Type=search" }, "geometry": { "type": "Point", "coordinates": [ 141.5702097, 42.6402531 ] } },
{ "type": "Feature", "properties": { "内容": "老人保健施設ら・ぷらーさ【訪問リハビリテーション】北海道稚内市栄1丁目24番2号", "url2": "https://www.kaigokensaku.mhlw.go.jp/01/index.php?action_kouhyou_detail_004_kani=true&JigyosyoCd=0156780017-00&ServiceCd=140&Type=search" }, "geometry": { "type": "Point", "coordinates": [ 141.696045596156267, 45.387131192794087 ] } },
{ "type": "Feature", "properties": { "内容": "コミュニテイホーム美唄【訪問リハビリテーション】北海道美唄市東5条南7丁目5番1号", "url2": "https://www.kaigokensaku.mhlw.go.jp/01/index.php?action_kouhyou_detail_004_kani=true&JigyosyoCd=0156180028-00&ServiceCd=140&Type=search" }, "geometry": { "type": "Point", "coordinates": [ 141.8693739, 43.3181131 ] } },
{ "type": "Feature", "properties": { "内容": "医療法人社団慶北会　花田病院　訪問リハビリテーション事業部【訪問リハビリテーション】北海道美唄市大通東１条北２丁目２番５号", "url2": "https://www.kaigokensaku.mhlw.go.jp/01/index.php?action_kouhyou_detail_004_kani=true&JigyosyoCd=0116110511-00&ServiceCd=140&Type=search" }, "geometry": { "type": "Point", "coordinates": [ 141.861437, 43.3342397 ] } },
{ "type": "Feature", "properties": { "内容": "医療法人はるにれ北町クリニック【訪問リハビリテーション】北海道江別市大麻北町607番地2", "url2": "https://www.kaigokensaku.mhlw.go.jp/01/index.php?action_kouhyou_detail_004_kani=true&JigyosyoCd=0111013629-00&ServiceCd=140&Type=search" }, "geometry": { "type": "Point", "coordinates": [ 141.499348400000031, 43.0891781 ] } },
{ "type": "Feature", "properties": { "内容": "介護老人保健施設はるにれ【訪問リハビリテーション】北海道江別市大麻北町607番地2", "url2": "https://www.kaigokensaku.mhlw.go.jp/01/index.php?action_kouhyou_detail_004_kani=true&JigyosyoCd=0151080033-00&ServiceCd=140&Type=search" }, "geometry": { "type": "Point", "coordinates": [ 141.499306700000034, 43.0891531 ] } },
{ "type": "Feature", "properties": { "内容": "おおあさクリニック（訪問リハビリテーション）【訪問リハビリテーション】北海道江別市大麻中町2番17メディカルビルおおあさ", "url2": "https://www.kaigokensaku.mhlw.go.jp/01/index.php?action_kouhyou_detail_004_kani=true&JigyosyoCd=0111013546-00&ServiceCd=140&Type=search" }, "geometry": { "type": "Point", "coordinates": [ 141.4922477, 43.0749002 ] } },
{ "type": "Feature", "properties": { "内容": "医療法人社団藤花会　江別谷藤病院【訪問リハビリテーション】北海道江別市幸町22番1", "url2": "https://www.kaigokensaku.mhlw.go.jp/01/index.php?action_kouhyou_detail_004_kani=true&JigyosyoCd=0111013561-00&ServiceCd=140&Type=search" }, "geometry": { "type": "Point", "coordinates": [ 141.535367584843243, 43.100863379385515 ] } },
{ "type": "Feature", "properties": { "内容": "葵の園・江別訪問リハビリテーション【訪問リハビリテーション】北海道江別市大麻南樹町１－１", "url2": "https://www.kaigokensaku.mhlw.go.jp/01/index.php?action_kouhyou_detail_004_kani=true&JigyosyoCd=0151080074-00&ServiceCd=140&Type=search" }, "geometry": { "type": "Point", "coordinates": [ 141.502642899999955, 43.0823899 ] } },
{ "type": "Feature", "properties": { "内容": "友愛ナーシングホーム　訪問リハビリテーション【訪問リハビリテーション】北海道江別市新栄台46番地の12介護老人保健施設　友愛ナーシングホーム", "url2": "https://www.kaigokensaku.mhlw.go.jp/01/index.php?action_kouhyou_detail_004_kani=true&JigyosyoCd=0151080025-00&ServiceCd=140&Type=search" }, "geometry": { "type": "Point", "coordinates": [ 141.5124835, 43.1075921 ] } },
{ "type": "Feature", "properties": { "内容": "江別病院訪問リハビリテーション事業所【訪問リハビリテーション】北海道江別市野幌代々木町８１番地6医療法人渓和会江別病院", "url2": "https://www.kaigokensaku.mhlw.go.jp/01/index.php?action_kouhyou_detail_004_kani=true&JigyosyoCd=0111013454-00&ServiceCd=140&Type=search" }, "geometry": { "type": "Point", "coordinates": [ 141.5196034, 43.092955300000014 ] } },
{ "type": "Feature", "properties": { "内容": "あかびら市立病院【訪問リハビリテーション】北海道赤平市本町3丁目2番地", "url2": "https://www.kaigokensaku.mhlw.go.jp/01/index.php?action_kouhyou_detail_004_kani=true&JigyosyoCd=0117210054-00&ServiceCd=140&Type=search" }, "geometry": { "type": "Point", "coordinates": [ 142.053546399999959, 43.556574800000014 ] } },
{ "type": "Feature", "properties": { "内容": "士別市立病院【訪問リハビリテーション】北海道士別市東11条5丁目3029番地1士別市立病院", "url2": "https://www.kaigokensaku.mhlw.go.jp/01/index.php?action_kouhyou_detail_004_kani=true&JigyosyoCd=0113211312-00&ServiceCd=140&Type=search" }, "geometry": { "type": "Point", "coordinates": [ 142.407504600000038, 44.1786848 ] } },
{ "type": "Feature", "properties": { "内容": "訪問リハビリテーションボヌゥール士別【訪問リハビリテーション】士別市東5条16丁目3129番地143", "url2": "https://www.kaigokensaku.mhlw.go.jp/01/index.php?action_kouhyou_detail_004_kani=true&JigyosyoCd=0153280011-00&ServiceCd=140&Type=search" }, "geometry": { "type": "Point", "coordinates": [ 142.403662199999985, 44.1665769 ] } },
{ "type": "Feature", "properties": { "内容": "名寄三愛訪問リハビリテーションセンター【訪問リハビリテーション】北海道名寄市西1条北5丁目1番地19", "url2": "https://www.kaigokensaku.mhlw.go.jp/01/index.php?action_kouhyou_detail_004_kani=true&JigyosyoCd=0113211445-00&ServiceCd=140&Type=search" }, "geometry": { "type": "Point", "coordinates": [ 142.4625724, 44.3618817 ] } },
{ "type": "Feature", "properties": { "内容": "医療法人　臨生会　吉田病院　訪問リハビリテーション【訪問リハビリテーション】北海道名寄市西３条南６丁目", "url2": "https://www.kaigokensaku.mhlw.go.jp/01/index.php?action_kouhyou_detail_004_kani=true&JigyosyoCd=0113211502-00&ServiceCd=140&Type=search" }, "geometry": { "type": "Point", "coordinates": [ 142.458879199999956, 44.3499692 ] } },
{ "type": "Feature", "properties": { "内容": "市立三笠総合病院【訪問リハビリテーション】北海道三笠市宮本町４８９番地の１", "url2": "https://www.kaigokensaku.mhlw.go.jp/01/index.php?action_kouhyou_detail_004_kani=true&JigyosyoCd=0116010273-00&ServiceCd=140&Type=search" }, "geometry": { "type": "Point", "coordinates": [ 141.870111900000012, 43.2468298 ] } },
{ "type": "Feature", "properties": { "内容": "医療法人社団いずみ会　北星病院【訪問リハビリテーション】北海道千歳市清流5丁目4番2号通所リハビリセンター", "url2": "https://www.kaigokensaku.mhlw.go.jp/01/index.php?action_kouhyou_detail_004_kani=true&JigyosyoCd=0111111506-00&ServiceCd=140&Type=search" }, "geometry": { "type": "Point", "coordinates": [ 141.657842955680849, 42.842640333139585 ] } },
{ "type": "Feature", "properties": { "内容": "千歳豊友会訪問リハビリテーション【訪問リハビリテーション】千歳市富丘1丁目618-6医療法人社団豊友会　千歳豊友会病院", "url2": "https://www.kaigokensaku.mhlw.go.jp/01/index.php?action_kouhyou_detail_004_kani=true&JigyosyoCd=0111111670-00&ServiceCd=140&Type=search" }, "geometry": { "type": "Point", "coordinates": [ 141.643898, 42.8354279 ] } },
{ "type": "Feature", "properties": { "内容": "訪問リハビリ・ステーション　さんぽ【訪問リハビリテーション】北海道千歳市東雲町1丁目11番地", "url2": "https://www.kaigokensaku.mhlw.go.jp/01/index.php?action_kouhyou_detail_004_kani=true&JigyosyoCd=0111111704-00&ServiceCd=140&Type=search" }, "geometry": { "type": "Point", "coordinates": [ 141.647992087696821, 42.820531964813057 ] } },
{ "type": "Feature", "properties": { "内容": "新千歳クリニック　訪問事業部【訪問リハビリテーション】北海道千歳市住吉4丁目2番", "url2": "https://www.kaigokensaku.mhlw.go.jp/01/index.php?action_kouhyou_detail_004_kani=true&JigyosyoCd=0111111555-00&ServiceCd=140&Type=search" }, "geometry": { "type": "Point", "coordinates": [ 141.667150569606889, 42.832331081732633 ] } },
{ "type": "Feature", "properties": { "内容": "医療法人社団青藍会クリニック【訪問リハビリテーション】北海道滝川市空知町2丁目4番10号", "url2": "https://www.kaigokensaku.mhlw.go.jp/01/index.php?action_kouhyou_detail_004_kani=true&JigyosyoCd=0117510560-00&ServiceCd=140&Type=search" }, "geometry": { "type": "Point", "coordinates": [ 141.909293, 43.54884 ] } },
{ "type": "Feature", "properties": { "内容": "医療法人翔陽会　滝川脳神経外科病院【訪問リハビリテーション】北海道滝川市西町１丁目２番５号", "url2": "https://www.kaigokensaku.mhlw.go.jp/01/index.php?action_kouhyou_detail_004_kani=true&JigyosyoCd=0117510784-00&ServiceCd=140&Type=search" }, "geometry": { "type": "Point", "coordinates": [ 141.902618736026341, 43.560518242805934 ] } },
{ "type": "Feature", "properties": { "内容": "滝川市立病院【訪問リハビリテーション】滝川市大町２－２－３４", "url2": "https://www.kaigokensaku.mhlw.go.jp/01/index.php?action_kouhyou_detail_004_kani=true&JigyosyoCd=0117510016-00&ServiceCd=140&Type=search" }, "geometry": { "type": "Point", "coordinates": [ 141.91175039999996, 43.5588586 ] } },
{ "type": "Feature", "properties": { "内容": "深川第一病院　訪問リハビリステーションそよ風【訪問リハビリテーション】北海道深川市あけぼの町１番１号", "url2": "https://www.kaigokensaku.mhlw.go.jp/01/index.php?action_kouhyou_detail_004_kani=true&JigyosyoCd=0117411306-00&ServiceCd=140&Type=search" }, "geometry": { "type": "Point", "coordinates": [ 142.03535440104983, 43.74134085374159 ] } },
{ "type": "Feature", "properties": { "内容": "訪問リハビリステーションふらの【訪問リハビリテーション】北海道富良野市住吉町１番２５号", "url2": "https://www.kaigokensaku.mhlw.go.jp/01/index.php?action_kouhyou_detail_004_kani=true&JigyosyoCd=0153080015-00&ServiceCd=140&Type=search" }, "geometry": { "type": "Point", "coordinates": [ 142.393600099999986, 43.3456124 ] } },
{ "type": "Feature", "properties": { "内容": "かわむら整形外科【訪問リハビリテーション】北海道富良野市末広町6番", "url2": "https://www.kaigokensaku.mhlw.go.jp/01/index.php?action_kouhyou_detail_004_kani=true&JigyosyoCd=0113010888-00&ServiceCd=140&Type=search" }, "geometry": { "type": "Point", "coordinates": [ 142.3864498, 43.3405061 ] } },
{ "type": "Feature", "properties": { "内容": "医療法人社団　ふらの西病院【訪問リハビリテーション】富良野市桂木町２番７７号", "url2": "https://www.kaigokensaku.mhlw.go.jp/01/index.php?action_kouhyou_detail_004_kani=true&JigyosyoCd=0113010938-00&ServiceCd=140&Type=search" }, "geometry": { "type": "Point", "coordinates": [ 142.379178, 43.350430400000015 ] } },
{ "type": "Feature", "properties": { "内容": "社会福祉法人　北海道社会事業協会富良野病院【訪問リハビリテーション】北海道富良野市住吉町1番30号", "url2": "https://www.kaigokensaku.mhlw.go.jp/01/index.php?action_kouhyou_detail_004_kani=true&JigyosyoCd=0113011100-00&ServiceCd=140&Type=search" }, "geometry": { "type": "Point", "coordinates": [ 142.392610399999967, 43.3476394 ] } },
{ "type": "Feature", "properties": { "内容": "医療法人登別すずらん病院　訪問リハビリテーション　すずらん【訪問リハビリテーション】北海道登別市青葉町３４番地９", "url2": "https://www.kaigokensaku.mhlw.go.jp/01/index.php?action_kouhyou_detail_004_kani=true&JigyosyoCd=0113512263-00&ServiceCd=140&Type=search" }, "geometry": { "type": "Point", "coordinates": [ 141.078421898672445, 42.393740981263683 ] } },
{ "type": "Feature", "properties": { "内容": "地域医療機能推進機構登別病院訪問リハビリテーション【訪問リハビリテーション】北海道登別市登別東町3丁目10番地22", "url2": "https://www.kaigokensaku.mhlw.go.jp/01/index.php?action_kouhyou_detail_004_kani=true&JigyosyoCd=0113513634-00&ServiceCd=140&Type=search" }, "geometry": { "type": "Point", "coordinates": [ 141.179705320602096, 42.456995281833002 ] } },
{ "type": "Feature", "properties": { "内容": "恵庭南病院　訪問リハビリテーション【訪問リハビリテーション】北海道恵庭市住吉町２丁目４－１４", "url2": "https://www.kaigokensaku.mhlw.go.jp/01/index.php?action_kouhyou_detail_004_kani=true&JigyosyoCd=0111210563-00&ServiceCd=140&Type=search" }, "geometry": { "type": "Point", "coordinates": [ 141.582820500000025, 42.8773543 ] } },
{ "type": "Feature", "properties": { "内容": "医療法人盟侑会島松病院訪問リハビリテーション科トーラス【訪問リハビリテーション】北海道恵庭市西島松570番地", "url2": "https://www.kaigokensaku.mhlw.go.jp/01/index.php?action_kouhyou_detail_004_kani=true&JigyosyoCd=0111210373-00&ServiceCd=140&Type=search" }, "geometry": { "type": "Point", "coordinates": [ 141.5605884, 42.9108624 ] } },
{ "type": "Feature", "properties": { "内容": "緩和ケアクリニック・恵庭　訪問リハビリテーション【訪問リハビリテーション】北海道恵庭市白樺町３丁目２３番１号", "url2": "https://www.kaigokensaku.mhlw.go.jp/01/index.php?action_kouhyou_detail_004_kani=true&JigyosyoCd=0111211074-00&ServiceCd=140&Type=search" }, "geometry": { "type": "Point", "coordinates": [ 141.5682665, 42.8631422 ] } },
{ "type": "Feature", "properties": { "内容": "介護老人保健施設アートライフ恵庭【訪問リハビリテーション】北海道恵庭市西島松567-1", "url2": "https://www.kaigokensaku.mhlw.go.jp/01/index.php?action_kouhyou_detail_004_kani=true&JigyosyoCd=0151280013-00&ServiceCd=140&Type=search" }, "geometry": { "type": "Point", "coordinates": [ 141.561733042991591, 42.910200360564417 ] } },
{ "type": "Feature", "properties": { "内容": "恵庭第一病院訪問リハビリテーション【訪問リハビリテーション】北海道恵庭市福住町1丁目6番6", "url2": "https://www.kaigokensaku.mhlw.go.jp/01/index.php?action_kouhyou_detail_004_kani=true&JigyosyoCd=0111211009-00&ServiceCd=140&Type=search" }, "geometry": { "type": "Point", "coordinates": [ 141.579289, 42.8869656 ] } },
{ "type": "Feature", "properties": { "内容": "社会医療法人北晨会　恵み野病院訪問リハビリ室【訪問リハビリテーション】北海道恵庭市恵み野西２丁目３番地５", "url2": "https://www.kaigokensaku.mhlw.go.jp/01/index.php?action_kouhyou_detail_004_kani=true&JigyosyoCd=0111210423-00&ServiceCd=140&Type=search" }, "geometry": { "type": "Point", "coordinates": [ 141.57764370000001, 42.9001958 ] } },
{ "type": "Feature", "properties": { "内容": "介護老人保健施設恵み野ケアサポート【訪問リハビリテーション】北海道恵庭市恵み野西２丁目３番地４", "url2": "https://www.kaigokensaku.mhlw.go.jp/01/index.php?action_kouhyou_detail_004_kani=true&JigyosyoCd=0151280021-00&ServiceCd=140&Type=search" }, "geometry": { "type": "Point", "coordinates": [ 141.5772177, 42.8999543 ] } },
{ "type": "Feature", "properties": { "内容": "社会医療法人慈恵会　聖ヶ丘病院訪問リハビリテーション【訪問リハビリテーション】北海道伊達市舟岡町２１４－２２", "url2": "https://www.kaigokensaku.mhlw.go.jp/01/index.php?action_kouhyou_detail_004_kani=true&JigyosyoCd=0113711410-00&ServiceCd=140&Type=search" }, "geometry": { "type": "Point", "coordinates": [ 140.882850100000041, 42.4656797 ] } },
{ "type": "Feature", "properties": { "内容": "プライムヘルシータウン湘南　訪問リハビリテーション事業【訪問リハビリテーション】北海道伊達市松ヶ枝町157番地110", "url2": "https://www.kaigokensaku.mhlw.go.jp/01/index.php?action_kouhyou_detail_004_kani=true&JigyosyoCd=0153780028-00&ServiceCd=140&Type=search" }, "geometry": { "type": "Point", "coordinates": [ 140.883904799999982, 42.4765841 ] } },
{ "type": "Feature", "properties": { "内容": "おおまがり鈴木内科訪問リハビリ【訪問リハビリテーション】北海道北広島市大曲柏葉1丁目1番21号", "url2": "https://www.kaigokensaku.mhlw.go.jp/01/index.php?action_kouhyou_detail_004_kani=true&JigyosyoCd=0111311122-00&ServiceCd=140&Type=search" }, "geometry": { "type": "Point", "coordinates": [ 141.4804383, 42.9704011 ] } },
{ "type": "Feature", "properties": { "内容": "介護老人保健施設　エスポワール北広島【訪問リハビリテーション】北広島市輪厚704番地16", "url2": "https://www.kaigokensaku.mhlw.go.jp/01/index.php?action_kouhyou_detail_004_kani=true&JigyosyoCd=0151380011-00&ServiceCd=140&Type=search" }, "geometry": { "type": "Point", "coordinates": [ 141.508330099999966, 42.9442136 ] } },
{ "type": "Feature", "properties": { "内容": "医療法人喬成会　花川病院【訪問リハビリテーション】北海道石狩市花川南７条５丁目２番地", "url2": "https://www.kaigokensaku.mhlw.go.jp/01/index.php?action_kouhyou_detail_004_kani=true&JigyosyoCd=0117610063-00&ServiceCd=140&Type=search" }, "geometry": { "type": "Point", "coordinates": [ 141.292921400000068, 43.1403206 ] } },
{ "type": "Feature", "properties": { "内容": "訪問リハビリテーションやわらぎ【訪問リハビリテーション】北海道北斗市追分5丁目3-13", "url2": "https://www.kaigokensaku.mhlw.go.jp/01/index.php?action_kouhyou_detail_004_kani=true&JigyosyoCd=0151580040-00&ServiceCd=140&Type=search" }, "geometry": { "type": "Point", "coordinates": [ 140.6959114, 41.8298425 ] } },
{ "type": "Feature", "properties": { "内容": "訪問リハビリテーションいなほ【訪問リハビリテーション】北海道北斗市清水川4番地1介護老人保健施設いなほ内", "url2": "https://www.kaigokensaku.mhlw.go.jp/01/index.php?action_kouhyou_detail_004_kani=true&JigyosyoCd=0151580073-00&ServiceCd=140&Type=search" }, "geometry": { "type": "Point", "coordinates": [ 140.6534311, 41.8725691 ] } },
{ "type": "Feature", "properties": { "内容": "愛里苑訪問リハビリテーション【訪問リハビリテーション】石狩郡当別町ビトエ２２００番地１", "url2": "https://www.kaigokensaku.mhlw.go.jp/01/index.php?action_kouhyou_detail_004_kani=true&JigyosyoCd=0151080058-00&ServiceCd=140&Type=search" }, "geometry": { "type": "Point", "coordinates": [ 141.433547800000042, 43.1864398 ] } },
{ "type": "Feature", "properties": { "内容": "木古内町国民健康保険病院【訪問リハビリテーション】北海道上磯郡木古内町字本町710", "url2": "https://www.kaigokensaku.mhlw.go.jp/01/index.php?action_kouhyou_detail_004_kani=true&JigyosyoCd=0111513487-00&ServiceCd=140&Type=search" }, "geometry": { "type": "Point", "coordinates": [ 140.436339528974941, 41.67418005427453 ] } },
{ "type": "Feature", "properties": { "内容": "ななえ新病院訪問リハビリテーション事業所【訪問リハビリテーション】北海道亀田郡七飯町本町7丁目657番地5", "url2": "https://www.kaigokensaku.mhlw.go.jp/01/index.php?action_kouhyou_detail_004_kani=true&JigyosyoCd=0111513149-00&ServiceCd=140&Type=search" }, "geometry": { "type": "Point", "coordinates": [ 140.70421832037664, 41.89648563045327 ] } },
{ "type": "Feature", "properties": { "内容": "道南森ロイヤルケアセンター　訪問リハビリテーション【訪問リハビリテーション】北海道茅部郡森町字上台町326-117", "url2": "https://www.kaigokensaku.mhlw.go.jp/01/index.php?action_kouhyou_detail_004_kani=true&JigyosyoCd=0151580081-00&ServiceCd=140&Type=search" }, "geometry": { "type": "Point", "coordinates": [ 140.5681696, 42.1036222 ] } },
{ "type": "Feature", "properties": { "内容": "介護老人保健施設コミュニティホーム八雲【訪問リハビリテーション】北海道二海郡八雲町栄町3番地1", "url2": "https://www.kaigokensaku.mhlw.go.jp/01/index.php?action_kouhyou_detail_004_kani=true&JigyosyoCd=0151580032-00&ServiceCd=140&Type=search" }, "geometry": { "type": "Point", "coordinates": [ 140.258662299999969, 42.2562207 ] } },
{ "type": "Feature", "properties": { "内容": "八雲総合病院指定訪問リハビリテーション事業所【訪問リハビリテーション】北海道二海郡八雲町東雲町５０八雲総合病院", "url2": "https://www.kaigokensaku.mhlw.go.jp/01/index.php?action_kouhyou_detail_004_kani=true&JigyosyoCd=0111510707-00&ServiceCd=140&Type=search" }, "geometry": { "type": "Point", "coordinates": [ 140.2786159, 42.2534373 ] } },
{ "type": "Feature", "properties": { "内容": "訪問リハビリステーション　のんの【訪問リハビリテーション】北海道檜山郡江差町字姥神町31", "url2": "https://www.kaigokensaku.mhlw.go.jp/01/index.php?action_kouhyou_detail_004_kani=true&JigyosyoCd=0111610689-00&ServiceCd=140&Type=search" }, "geometry": { "type": "Point", "coordinates": [ 140.1235964, 41.8667294 ] } },
{ "type": "Feature", "properties": { "内容": "訪問リハビリテーションゆいっこ【訪問リハビリテーション】北海道檜山郡江差町字中歌町１９９番地６道南勤医協江差診療所", "url2": "https://www.kaigokensaku.mhlw.go.jp/01/index.php?action_kouhyou_detail_004_kani=true&JigyosyoCd=0111610846-00&ServiceCd=140&Type=search" }, "geometry": { "type": "Point", "coordinates": [ 140.1290632, 41.8702916 ] } },
{ "type": "Feature", "properties": { "内容": "道南ロイヤル病院訪問リハビリテーション【訪問リハビリテーション】北海道久遠郡せたな町北檜山区北桧山322-4", "url2": "https://www.kaigokensaku.mhlw.go.jp/01/index.php?action_kouhyou_detail_004_kani=true&JigyosyoCd=0111710364-00&ServiceCd=140&Type=search" }, "geometry": { "type": "Point", "coordinates": [ 139.878141025131185, 42.414403825701982 ] } },
{ "type": "Feature", "properties": { "内容": "寿都町立寿都診療所【訪問リハビリテーション】北海道寿都郡寿都町字渡島町72番地2", "url2": "https://www.kaigokensaku.mhlw.go.jp/01/index.php?action_kouhyou_detail_004_kani=true&JigyosyoCd=0112110382-00&ServiceCd=140&Type=search" }, "geometry": { "type": "Point", "coordinates": [ 140.230432699999938, 42.7924452 ] } },
{ "type": "Feature", "properties": { "内容": "介護老人保健施設　湯の里・黒松内訪問リハビリテーション【訪問リハビリテーション】北海道寿都郡黒松内町字黒松内565-11", "url2": "https://www.kaigokensaku.mhlw.go.jp/01/index.php?action_kouhyou_detail_004_kani=true&JigyosyoCd=0152180014-00&ServiceCd=140&Type=search" }, "geometry": { "type": "Point", "coordinates": [ 140.3129454, 42.657696200000011 ] } },
{ "type": "Feature", "properties": { "内容": "ひまわりクリニックきょうごく【訪問リハビリテーション】北海道虻田郡京極町字京極３１６番地", "url2": "https://www.kaigokensaku.mhlw.go.jp/01/index.php?action_kouhyou_detail_004_kani=true&JigyosyoCd=0112210943-00&ServiceCd=140&Type=search" }, "geometry": { "type": "Point", "coordinates": [ 140.886265200000025, 42.8601076 ] } },
{ "type": "Feature", "properties": { "内容": "介護老人保健施設麓華苑【訪問リハビリテーション】北海道虻田郡倶知安町南３条東５丁目１番地２", "url2": "https://www.kaigokensaku.mhlw.go.jp/01/index.php?action_kouhyou_detail_004_kani=true&JigyosyoCd=0152280012-00&ServiceCd=140&Type=search" }, "geometry": { "type": "Point", "coordinates": [ 140.762423399999989, 42.8994533 ] } },
{ "type": "Feature", "properties": { "内容": "介護老人保健施設コミュニティホーム岩内【訪問リハビリテーション】北海道岩内郡岩内町字野束69番地の26", "url2": "https://www.kaigokensaku.mhlw.go.jp/01/index.php?action_kouhyou_detail_004_kani=true&JigyosyoCd=0152380028-00&ServiceCd=140&Type=search" }, "geometry": { "type": "Point", "coordinates": [ 140.5098764, 42.9667142 ] } },
{ "type": "Feature", "properties": { "内容": "訪問リハビリテーション事業所【訪問リハビリテーション】北海道岩内郡岩内町字高台209番2", "url2": "https://www.kaigokensaku.mhlw.go.jp/01/index.php?action_kouhyou_detail_004_kani=true&JigyosyoCd=0112310792-00&ServiceCd=140&Type=search" }, "geometry": { "type": "Point", "coordinates": [ 140.517524800000047, 42.9786242 ] } },
{ "type": "Feature", "properties": { "内容": "医療法人社団倫仁会小嶋内科【訪問リハビリテーション】北海道余市郡余市町黒川町７－１３", "url2": "https://www.kaigokensaku.mhlw.go.jp/01/index.php?action_kouhyou_detail_004_kani=true&JigyosyoCd=0112510979-00&ServiceCd=140&Type=search" }, "geometry": { "type": "Point", "coordinates": [ 140.792056099999968, 43.1868859 ] } },
{ "type": "Feature", "properties": { "内容": "国民健康保健町立南幌病院　訪問リハビリテーション事業所【訪問リハビリテーション】北海道空知郡南幌町元町２丁目２番１号国民健康保健町立南幌病院", "url2": "https://www.kaigokensaku.mhlw.go.jp/01/index.php?action_kouhyou_detail_004_kani=true&JigyosyoCd=0175809565-00&ServiceCd=140&Type=search" }, "geometry": { "type": "Point", "coordinates": [ 141.652016800000013, 43.0695145 ] } },
{ "type": "Feature", "properties": { "内容": "医療法人やわらぎ訪問リハビリステーションRe・ハッスル【訪問リハビリテーション】北海道空知郡南幌町栄町１丁目１番２０号医療法人やわらぎ介護老人保健施設ゆう", "url2": "https://www.kaigokensaku.mhlw.go.jp/01/index.php?action_kouhyou_detail_004_kani=true&JigyosyoCd=0155880024-00&ServiceCd=140&Type=search" }, "geometry": { "type": "Point", "coordinates": [ 141.653607599999987, 43.0642795 ] } },
{ "type": "Feature", "properties": { "内容": "国民健康保険由仁町立診療所【訪問リハビリテーション】北海道夕張郡由仁町馬追１番地の１", "url2": "https://www.kaigokensaku.mhlw.go.jp/01/index.php?action_kouhyou_detail_004_kani=true&JigyosyoCd=0115810798-00&ServiceCd=140&Type=search" }, "geometry": { "type": "Point", "coordinates": [ 141.780386038623078, 43.011972582554399 ] } },
{ "type": "Feature", "properties": { "内容": "回生苑訪問リハビリテーション【訪問リハビリテーション】上川郡東神楽町東１線2号13番地介護老人保健施設　回生苑", "url2": "https://www.kaigokensaku.mhlw.go.jp/01/index.php?action_kouhyou_detail_004_kani=true&JigyosyoCd=0153180013-00&ServiceCd=140&Type=search" }, "geometry": { "type": "Point", "coordinates": [ 142.402255593392965, 43.718704763010201 ] } },
{ "type": "Feature", "properties": { "内容": "当麻内科ペインクリニック　訪問リハビリ【訪問リハビリテーション】北海道上川郡当麻町4条西3丁目17番21号", "url2": "https://www.kaigokensaku.mhlw.go.jp/01/index.php?action_kouhyou_detail_004_kani=true&JigyosyoCd=0113111173-00&ServiceCd=140&Type=search" }, "geometry": { "type": "Point", "coordinates": [ 142.51450669999997, 43.8282239 ] } },
{ "type": "Feature", "properties": { "内容": "ひだまりの里指定訪問リハビリテーション事業所【訪問リハビリテーション】上川郡東川町西町８丁目２９番１号", "url2": "https://www.kaigokensaku.mhlw.go.jp/01/index.php?action_kouhyou_detail_004_kani=true&JigyosyoCd=0153180021-00&ServiceCd=140&Type=search" }, "geometry": { "type": "Point", "coordinates": [ 142.4772477, 43.7006039 ] } },
{ "type": "Feature", "properties": { "内容": "美瑛町老人保健施設　ほの香【訪問リハビリテーション】上川郡美瑛町東町3丁目1番1号", "url2": "https://www.kaigokensaku.mhlw.go.jp/01/index.php?action_kouhyou_detail_004_kani=true&JigyosyoCd=0153180039-00&ServiceCd=140&Type=search" }, "geometry": { "type": "Point", "coordinates": [ 142.474932, 43.5889454 ] } },
{ "type": "Feature", "properties": { "内容": "訪問リハビリテーション【訪問リハビリテーション】北海道空知郡上富良野町大町３丁目２番２０号", "url2": "https://www.kaigokensaku.mhlw.go.jp/01/index.php?action_kouhyou_detail_004_kani=true&JigyosyoCd=0113010821-00&ServiceCd=140&Type=search" }, "geometry": { "type": "Point", "coordinates": [ 142.465887799999962, 43.4539043 ] } },
{ "type": "Feature", "properties": { "内容": "枝幸町国民健康保険病院【訪問リハビリテーション】北海道枝幸郡枝幸町北栄町１４７４番地１", "url2": "https://www.kaigokensaku.mhlw.go.jp/01/index.php?action_kouhyou_detail_004_kani=true&JigyosyoCd=0116711094-00&ServiceCd=140&Type=search" }, "geometry": { "type": "Point", "coordinates": [ 142.575786, 44.9431491 ] } },
{ "type": "Feature", "properties": { "内容": "社会医療法人恵和会　介護老人保健施設アメニティ美幌【訪問リハビリテーション】北海道網走郡美幌町字仲町二丁目三十八番地の二", "url2": "https://www.kaigokensaku.mhlw.go.jp/01/index.php?action_kouhyou_detail_004_kani=true&JigyosyoCd=0155280019-00&ServiceCd=140&Type=search" }, "geometry": { "type": "Point", "coordinates": [ 144.10517470000002, 43.8326392 ] } },
{ "type": "Feature", "properties": { "内容": "医療法人社団健厚会あつまクリニック【訪問リハビリテーション】北海道勇払郡厚真町京町１５番地", "url2": "https://www.kaigokensaku.mhlw.go.jp/01/index.php?action_kouhyou_detail_004_kani=true&JigyosyoCd=0113613608-00&ServiceCd=140&Type=search" }, "geometry": { "type": "Point", "coordinates": [ 141.878827986508213, 42.725061487053665 ] } },
{ "type": "Feature", "properties": { "内容": "社会福祉法人北海道社会事業協会洞爺病院【訪問リハビリテーション】北海道虻田郡洞爺湖町高砂町125番地46", "url2": "https://www.kaigokensaku.mhlw.go.jp/01/index.php?action_kouhyou_detail_004_kani=true&JigyosyoCd=0113710123-00&ServiceCd=140&Type=search" }, "geometry": { "type": "Point", "coordinates": [ 140.773558500000036, 42.5501889 ] } },
{ "type": "Feature", "properties": { "内容": "洞爺温泉病院　訪問リハビリテーション【訪問リハビリテーション】洞爺町54-41", "url2": "https://www.kaigokensaku.mhlw.go.jp/01/index.php?action_kouhyou_detail_004_kani=true&JigyosyoCd=0113711121-00&ServiceCd=140&Type=search" }, "geometry": { "type": "Point", "coordinates": [ 140.830564399999986, 42.6563937 ] } },
{ "type": "Feature", "properties": { "内容": "日高町立介護老人保健施設門別愛生苑【訪問リハビリテーション】北海道沙流郡日高町門別本町29番地3", "url2": "https://www.kaigokensaku.mhlw.go.jp/01/index.php?action_kouhyou_detail_004_kani=true&JigyosyoCd=0153880042-00&ServiceCd=140&Type=search" }, "geometry": { "type": "Point", "coordinates": [ 142.069039699999962, 42.4802011 ] } },
{ "type": "Feature", "properties": { "内容": "介護老人保健施設　浦河緑苑　訪問リハビリテーション【訪問リハビリテーション】北海道浦河郡浦河町字東栄571番３", "url2": "https://www.kaigokensaku.mhlw.go.jp/01/index.php?action_kouhyou_detail_004_kani=true&JigyosyoCd=0153880067-00&ServiceCd=140&Type=search" }, "geometry": { "type": "Point", "coordinates": [ 142.694920799999977, 42.1953432 ] } },
{ "type": "Feature", "properties": { "内容": "医療法人徳洲会　日高徳洲会病院【訪問リハビリテーション】北海道日高郡新ひだか町静内こうせい町1丁目10番27号", "url2": "https://www.kaigokensaku.mhlw.go.jp/01/index.php?action_kouhyou_detail_004_kani=true&JigyosyoCd=0113811863-00&ServiceCd=140&Type=search" }, "geometry": { "type": "Point", "coordinates": [ 142.3750325, 42.3443748 ] } },
{ "type": "Feature", "properties": { "内容": "社会福祉法人手稲ロータス会　あんじゅ音更　訪問リハビリテーション事業所【訪問リハビリテーション】北海道河東郡音更町中鈴蘭元町２番地９", "url2": "https://www.kaigokensaku.mhlw.go.jp/01/index.php?action_kouhyou_detail_004_kani=true&JigyosyoCd=0154780068-00&ServiceCd=140&Type=search" }, "geometry": { "type": "Point", "coordinates": [ 143.190677100000016, 42.9555115 ] } },
{ "type": "Feature", "properties": { "内容": "介護老人保健施設とかち【訪問リハビリテーション】北海道河東郡音更町緑陽台南区2番地6", "url2": "https://www.kaigokensaku.mhlw.go.jp/01/index.php?action_kouhyou_detail_004_kani=true&JigyosyoCd=0154780019-00&ServiceCd=140&Type=search" }, "geometry": { "type": "Point", "coordinates": [ 143.198699429758335, 42.963985966122337 ] } },
{ "type": "Feature", "properties": { "内容": "医療法人徳洲会　帯広徳洲会病院　訪問リハビリテーション【訪問リハビリテーション】河東郡音更町木野西通14丁目2番地１", "url2": "https://www.kaigokensaku.mhlw.go.jp/01/index.php?action_kouhyou_detail_004_kani=true&JigyosyoCd=0174701052-00&ServiceCd=140&Type=search" }, "geometry": { "type": "Point", "coordinates": [ 143.203908400000046, 42.9633252 ] } },
{ "type": "Feature", "properties": { "内容": "医療法人徳洲会　帯広徳洲会病院　訪問リハビリテーション【訪問リハビリテーション】河東郡音更町木野西通14丁目2番地１", "url2": "https://www.kaigokensaku.mhlw.go.jp/01/index.php?action_kouhyou_detail_004_kani=true&JigyosyoCd=0114712888-00&ServiceCd=140&Type=search" }, "geometry": { "type": "Point", "coordinates": [ 143.203891699999986, 42.9633308 ] } },
{ "type": "Feature", "properties": { "内容": "社会医療法人北斗　上士幌クリニック【訪問リハビリテーション】北海道河東郡上士幌町字上士幌東3線240番73", "url2": "https://www.kaigokensaku.mhlw.go.jp/01/index.php?action_kouhyou_detail_004_kani=true&JigyosyoCd=0114713373-00&ServiceCd=140&Type=search" }, "geometry": { "type": "Point", "coordinates": [ 143.296600481614661, 43.233051605866464 ] } },
{ "type": "Feature", "properties": { "内容": "もみじの里（介護予防）訪問リハビリテーション事業所【訪問リハビリテーション】北海道河東郡鹿追町鹿追北２線８番地３３", "url2": "https://www.kaigokensaku.mhlw.go.jp/01/index.php?action_kouhyou_detail_004_kani=true&JigyosyoCd=0154780076-00&ServiceCd=140&Type=search" }, "geometry": { "type": "Point", "coordinates": [ 142.994632867181394, 43.095071858309517 ] } },
{ "type": "Feature", "properties": { "内容": "社会医療法人北斗　新得クリニック【訪問リハビリテーション】北海道上川郡新得町３条南５丁目１", "url2": "https://www.kaigokensaku.mhlw.go.jp/01/index.php?action_kouhyou_detail_004_kani=true&JigyosyoCd=0114713365-00&ServiceCd=140&Type=search" }, "geometry": { "type": "Point", "coordinates": [ 142.838142769311503, 43.078156109761366 ] } },
{ "type": "Feature", "properties": { "内容": "御影診療所【訪問リハビリテーション】北海道上川郡清水町御影西２条３丁目１３番地", "url2": "https://www.kaigokensaku.mhlw.go.jp/01/index.php?action_kouhyou_detail_004_kani=true&JigyosyoCd=0114713381-00&ServiceCd=140&Type=search" }, "geometry": { "type": "Point", "coordinates": [ 142.9358694, 42.9464876 ] } },
{ "type": "Feature", "properties": { "内容": "清水赤十字病院【訪問リハビリテーション】北海道上川郡清水町南2条2丁目1番地", "url2": "https://www.kaigokensaku.mhlw.go.jp/01/index.php?action_kouhyou_detail_004_kani=true&JigyosyoCd=0114710270-00&ServiceCd=140&Type=search" }, "geometry": { "type": "Point", "coordinates": [ 142.883009600000037, 43.0121755 ] } },
{ "type": "Feature", "properties": { "内容": "公立芽室病院訪問リハビリテーション事業所【訪問リハビリテーション】北海道河西郡芽室町東4条3丁目5番地", "url2": "https://www.kaigokensaku.mhlw.go.jp/01/index.php?action_kouhyou_detail_004_kani=true&JigyosyoCd=0114710403-00&ServiceCd=140&Type=search" }, "geometry": { "type": "Point", "coordinates": [ 143.0545985, 42.9130791 ] } },
{ "type": "Feature", "properties": { "内容": "更別村国民健康保険診療所【訪問リハビリテーション】北海道河西郡更別村字更別190番地１", "url2": "https://www.kaigokensaku.mhlw.go.jp/01/index.php?action_kouhyou_detail_004_kani=true&JigyosyoCd=0114713019-00&ServiceCd=140&Type=search" }, "geometry": { "type": "Point", "coordinates": [ 143.193180722051807, 42.646365330739975 ] } },
{ "type": "Feature", "properties": { "内容": "大樹町立国民健康保険病院【訪問リハビリテーション】北海道広尾郡大樹町暁町6番地2", "url2": "https://www.kaigokensaku.mhlw.go.jp/01/index.php?action_kouhyou_detail_004_kani=true&JigyosyoCd=0114711559-00&ServiceCd=140&Type=search" }, "geometry": { "type": "Point", "coordinates": [ 143.27976979999994, 42.4878884 ] } },
{ "type": "Feature", "properties": { "内容": "訪問リハビリテーションイカロス【訪問リハビリテーション】北海道広尾郡大樹町字大樹10番地8", "url2": "https://www.kaigokensaku.mhlw.go.jp/01/index.php?action_kouhyou_detail_004_kani=true&JigyosyoCd=0154780027-00&ServiceCd=140&Type=search" }, "geometry": { "type": "Point", "coordinates": [ 143.2670895, 42.502128 ] } },
{ "type": "Feature", "properties": { "内容": "広尾町国民健康保険病院【訪問リハビリテーション】北海道広尾郡広尾町公園通南４丁目１番地１３", "url2": "https://www.kaigokensaku.mhlw.go.jp/01/index.php?action_kouhyou_detail_004_kani=true&JigyosyoCd=0114713415-00&ServiceCd=140&Type=search" }, "geometry": { "type": "Point", "coordinates": [ 143.3066656, 42.2990181 ] } },
{ "type": "Feature", "properties": { "内容": "社会医療法人博愛会　介護老人保健施設あかしや【訪問リハビリテーション】北海道中川郡幕別町札内あかしや町42番地10", "url2": "https://www.kaigokensaku.mhlw.go.jp/01/index.php?action_kouhyou_detail_004_kani=true&JigyosyoCd=0154780050-00&ServiceCd=140&Type=search" }, "geometry": { "type": "Point", "coordinates": [ 143.248795199999989, 42.9083258 ] } },
{ "type": "Feature", "properties": { "内容": "十勝いけだ地域医療センター【訪問リハビリテーション】北海道中川郡池田町字西２条５丁目２５番地", "url2": "https://www.kaigokensaku.mhlw.go.jp/01/index.php?action_kouhyou_detail_004_kani=true&JigyosyoCd=0114710460-00&ServiceCd=140&Type=search" }, "geometry": { "type": "Point", "coordinates": [ 143.4476138, 42.925858 ] } },
{ "type": "Feature", "properties": { "内容": "アメニティ本別訪問リハビリテーション【訪問リハビリテーション】中川郡本別町西美里別6-18", "url2": "https://www.kaigokensaku.mhlw.go.jp/01/index.php?action_kouhyou_detail_004_kani=true&JigyosyoCd=0154780043-00&ServiceCd=140&Type=search" }, "geometry": { "type": "Point", "coordinates": [ 143.590530899999976, 43.1218527 ] } },
{ "type": "Feature", "properties": { "内容": "足寄町国民健康保険病院【訪問リハビリテーション】北海道足寄郡足寄町南２条３丁目１番地", "url2": "https://www.kaigokensaku.mhlw.go.jp/01/index.php?action_kouhyou_detail_004_kani=true&JigyosyoCd=0114710437-00&ServiceCd=140&Type=search" }, "geometry": { "type": "Point", "coordinates": [ 143.549127799999951, 43.2420149 ] } },
{ "type": "Feature", "properties": { "内容": "医療法人社団田中医院【訪問リハビリテーション】北海道厚岸郡厚岸町真栄1丁目82番地", "url2": "https://www.kaigokensaku.mhlw.go.jp/01/index.php?action_kouhyou_detail_004_kani=true&JigyosyoCd=0114311293-00&ServiceCd=140&Type=search" }, "geometry": { "type": "Point", "coordinates": [ 144.842063100000018, 43.055403299999966 ] } },
{ "type": "Feature", "properties": { "内容": "町立厚岸病院【訪問リハビリテーション】北海道厚岸郡厚岸町住の江1丁目1番地", "url2": "https://www.kaigokensaku.mhlw.go.jp/01/index.php?action_kouhyou_detail_004_kani=true&JigyosyoCd=0114310691-00&ServiceCd=140&Type=search" }, "geometry": { "type": "Point", "coordinates": [ 144.846959, 43.0577037 ] } },
{ "type": "Feature", "properties": { "内容": "町立厚岸病院【訪問リハビリテーション】北海道厚岸郡厚岸町住の江1丁目１番地", "url2": "https://www.kaigokensaku.mhlw.go.jp/01/index.php?action_kouhyou_detail_004_kani=true&JigyosyoCd=0174300616-00&ServiceCd=140&Type=search" }, "geometry": { "type": "Point", "coordinates": [ 144.847004299999981, 43.057492 ] } },
{ "type": "Feature", "properties": { "内容": "標茶町立病院【訪問リハビリテーション】北海道川上郡標茶町開運4丁目1番地", "url2": "https://www.kaigokensaku.mhlw.go.jp/01/index.php?action_kouhyou_detail_004_kani=true&JigyosyoCd=0114310220-00&ServiceCd=140&Type=search" }, "geometry": { "type": "Point", "coordinates": [ 144.59820255159002, 43.300248067517273 ] } },
{ "type": "Feature", "properties": { "内容": "医療法人共生会　川湯の森病院【訪問リハビリテーション】北海道川上郡弟子屈町川湯温泉4丁目8番30号", "url2": "https://www.kaigokensaku.mhlw.go.jp/01/index.php?action_kouhyou_detail_004_kani=true&JigyosyoCd=0114311541-00&ServiceCd=140&Type=search" }, "geometry": { "type": "Point", "coordinates": [ 144.438360998147573, 43.642622743948088 ] } },
{ "type": "Feature", "properties": { "内容": "介護老人保健施設えんれい荘【訪問リハビリテーション】北海道阿寒郡鶴居村字雪裡原野北２２線西１１番地", "url2": "https://www.kaigokensaku.mhlw.go.jp/01/index.php?action_kouhyou_detail_004_kani=true&JigyosyoCd=0154380042-00&ServiceCd=140&Type=search" }, "geometry": { "type": "Point", "coordinates": [ 144.326023906101113, 43.272705035813473 ] } },
{ "type": "Feature", "properties": { "内容": "町立中標津病院　訪問リハビリテーションセンター【訪問リハビリテーション】北海道標津郡中標津町西10条南9丁目1-1", "url2": "https://www.kaigokensaku.mhlw.go.jp/01/index.php?action_kouhyou_detail_004_kani=true&JigyosyoCd=0114210834-00&ServiceCd=140&Type=search" }, "geometry": { "type": "Point", "coordinates": [ 144.972198343655435, 43.536531695527167 ] } },
{ "type": "Feature", "properties": { "内容": "石田病院指定訪問リハビリテーション【訪問リハビリテーション】標津郡中標津町りんどう町５-６", "url2": "https://www.kaigokensaku.mhlw.go.jp/01/index.php?action_kouhyou_detail_004_kani=true&JigyosyoCd=0174200451-00&ServiceCd=140&Type=search" }, "geometry": { "type": "Point", "coordinates": [ 144.926962099999969, 43.54427 ] } },
{ "type": "Feature", "properties": { "内容": "中標津訪問リハビリセンター【訪問リハビリテーション】北海道標津郡中標津町西11条南8丁目4番地1", "url2": "https://www.kaigokensaku.mhlw.go.jp/01/index.php?action_kouhyou_detail_004_kani=true&JigyosyoCd=0174200709-00&ServiceCd=140&Type=search" }, "geometry": { "type": "Point", "coordinates": [ 144.969484100000045, 43.5368305 ] } }
]
}
