{
"type": "FeatureCollection",
"name": "geo_01_福祉用具貸与",
"crs": { "type": "name", "properties": { "name": "urn:ogc:def:crs:OGC:1.3:CRS84" } },
"features": [
{ "type": "Feature", "properties": { "内容": "ライフサポートせせらぎ【福祉用具貸与】北海道札幌市中央区南１５条西１９丁目４番１号楽ゆう館ふしみ", "url2": "https://www.kaigokensaku.mhlw.go.jp/01/index.php?action_kouhyou_detail_004_kani=true&JigyosyoCd=0170208284-00&ServiceCd=170&Type=search" }, "geometry": { "type": "Point", "coordinates": [ 141.327684939197752, 43.037483415436157 ] } },
{ "type": "Feature", "properties": { "内容": "ＳＯＭＰＯケア　札幌　福祉用具【福祉用具貸与】札幌市中央区北11条西14丁目1-17", "url2": "https://www.kaigokensaku.mhlw.go.jp/01/index.php?action_kouhyou_detail_004_kani=true&JigyosyoCd=0170104665-00&ServiceCd=170&Type=search" }, "geometry": { "type": "Point", "coordinates": [ 141.332149409173809, 43.071840757915375 ] } },
{ "type": "Feature", "properties": { "内容": "パナソニックエイジフリーショップ札幌中央【福祉用具貸与】北海道札幌市中央区北2条東10丁目93-33", "url2": "https://www.kaigokensaku.mhlw.go.jp/01/index.php?action_kouhyou_detail_004_kani=true&JigyosyoCd=0170104137-00&ServiceCd=170&Type=search" }, "geometry": { "type": "Point", "coordinates": [ 141.372191599999951, 43.0666624 ] } },
{ "type": "Feature", "properties": { "内容": "フランスベッド株式会社　メディカル札幌営業所【福祉用具貸与】北海道札幌市中央区北１条東８丁目１番４号ホクアイ北１条　１階", "url2": "https://www.kaigokensaku.mhlw.go.jp/01/index.php?action_kouhyou_detail_004_kani=true&JigyosyoCd=0170505887-00&ServiceCd=170&Type=search" }, "geometry": { "type": "Point", "coordinates": [ 141.368203, 43.0650736 ] } },
{ "type": "Feature", "properties": { "内容": "ノースヘルスケアサポート【福祉用具貸与】北海道札幌市中央区南9条西3丁目10-97札幌KSビル4F", "url2": "https://www.kaigokensaku.mhlw.go.jp/01/index.php?action_kouhyou_detail_004_kani=true&JigyosyoCd=0170105480-00&ServiceCd=170&Type=search" }, "geometry": { "type": "Point", "coordinates": [ 141.35581830000001, 43.0493884 ] } },
{ "type": "Feature", "properties": { "内容": "株式会社ライフプラス【福祉用具貸与】札幌市中央区南10条西21丁目4番7号", "url2": "https://www.kaigokensaku.mhlw.go.jp/01/index.php?action_kouhyou_detail_004_kani=true&JigyosyoCd=0170506182-00&ServiceCd=170&Type=search" }, "geometry": { "type": "Point", "coordinates": [ 141.326390430592028, 43.044836098560339 ] } },
{ "type": "Feature", "properties": { "内容": "株式会社デュオ【福祉用具貸与】北海道札幌市中央区北３条西１２丁目２番地２", "url2": "https://www.kaigokensaku.mhlw.go.jp/01/index.php?action_kouhyou_detail_004_kani=true&JigyosyoCd=0170204192-00&ServiceCd=170&Type=search" }, "geometry": { "type": "Point", "coordinates": [ 141.338203671559114, 43.063124303569367 ] } },
{ "type": "Feature", "properties": { "内容": "イリーゼ生活サポート札幌【福祉用具貸与】北海道札幌市北区新琴似4条1丁目1-45イリーゼ新琴似内", "url2": "https://www.kaigokensaku.mhlw.go.jp/01/index.php?action_kouhyou_detail_004_kani=true&JigyosyoCd=0170103782-00&ServiceCd=170&Type=search" }, "geometry": { "type": "Point", "coordinates": [ 141.330378600000017, 43.1052426 ] } },
{ "type": "Feature", "properties": { "内容": "はやてケアサービス【福祉用具貸与】篠路町上篠路109-77", "url2": "https://www.kaigokensaku.mhlw.go.jp/01/index.php?action_kouhyou_detail_004_kani=true&JigyosyoCd=0170208763-00&ServiceCd=170&Type=search" }, "geometry": { "type": "Point", "coordinates": [ 141.37085060000004, 43.1338125 ] } },
{ "type": "Feature", "properties": { "内容": "西出福祉サービス札幌【福祉用具貸与】札幌市北区北３４条西１１丁目４－１５西出興業(株)札幌支店内", "url2": "https://www.kaigokensaku.mhlw.go.jp/01/index.php?action_kouhyou_detail_004_kani=true&JigyosyoCd=0170204234-00&ServiceCd=170&Type=search" }, "geometry": { "type": "Point", "coordinates": [ 141.330873, 43.1046455 ] } },
{ "type": "Feature", "properties": { "内容": "株式会社マルベリー　さわやかセンター札幌東【福祉用具貸与】札幌市北区新川6条20丁目1番1号　Lynx内", "url2": "https://www.kaigokensaku.mhlw.go.jp/01/index.php?action_kouhyou_detail_004_kani=true&JigyosyoCd=0170203517-00&ServiceCd=170&Type=search" }, "geometry": { "type": "Point", "coordinates": [ 141.292190678637979, 43.121139544373271 ] } },
{ "type": "Feature", "properties": { "内容": "介護用品・福祉用具事業所プラスレント【福祉用具貸与】新琴似５条１４丁目9-14", "url2": "https://www.kaigokensaku.mhlw.go.jp/01/index.php?action_kouhyou_detail_004_kani=true&JigyosyoCd=0170210181-00&ServiceCd=170&Type=search" }, "geometry": { "type": "Point", "coordinates": [ 141.3095936, 43.120027 ] } },
{ "type": "Feature", "properties": { "内容": "福祉用具貸与事業所　ウェルフェア萌　しのろ【福祉用具貸与】北海道札幌市北区篠路１０条１丁目１番１号ウェルフェアＭＯＥ", "url2": "https://www.kaigokensaku.mhlw.go.jp/01/index.php?action_kouhyou_detail_004_kani=true&JigyosyoCd=0170207351-00&ServiceCd=170&Type=search" }, "geometry": { "type": "Point", "coordinates": [ 141.353214323278848, 43.157439672195267 ] } },
{ "type": "Feature", "properties": { "内容": "アイサポート【福祉用具貸与】北海道札幌市東区北21条東1丁目3番18号108号室", "url2": "https://www.kaigokensaku.mhlw.go.jp/01/index.php?action_kouhyou_detail_004_kani=true&JigyosyoCd=0170207872-00&ServiceCd=170&Type=search" }, "geometry": { "type": "Point", "coordinates": [ 141.351466699999946, 43.0879676 ] } },
{ "type": "Feature", "properties": { "内容": "株式会社ジェー・シー・アイ　札幌支店【福祉用具貸与】北海道札幌市東区北３６条東２６丁目２-２５", "url2": "https://www.kaigokensaku.mhlw.go.jp/01/index.php?action_kouhyou_detail_004_kani=true&JigyosyoCd=0170200356-00&ServiceCd=170&Type=search" }, "geometry": { "type": "Point", "coordinates": [ 141.389920699999948, 43.102333700000017 ] } },
{ "type": "Feature", "properties": { "内容": "ノースケア福祉用具貸与事業所【福祉用具貸与】北海道札幌市東区北39条東21丁目1番3号", "url2": "https://www.kaigokensaku.mhlw.go.jp/01/index.php?action_kouhyou_detail_004_kani=true&JigyosyoCd=0170103394-00&ServiceCd=170&Type=search" }, "geometry": { "type": "Point", "coordinates": [ 141.37858196865011, 43.07969180742235 ] } },
{ "type": "Feature", "properties": { "内容": "サン・アイクリーン【福祉用具貸与】札幌市東区北３２条東６丁目１番１号", "url2": "https://www.kaigokensaku.mhlw.go.jp/01/index.php?action_kouhyou_detail_004_kani=true&JigyosyoCd=0170104715-00&ServiceCd=170&Type=search" }, "geometry": { "type": "Point", "coordinates": [ 141.355798022582036, 43.100403182189297 ] } },
{ "type": "Feature", "properties": { "内容": "シルバー・サポート・コーポレーション有限会社【福祉用具貸与】北海道札幌市東区苗穂町4丁目2-6中村ビル　1F", "url2": "https://www.kaigokensaku.mhlw.go.jp/01/index.php?action_kouhyou_detail_004_kani=true&JigyosyoCd=0170200570-00&ServiceCd=170&Type=search" }, "geometry": { "type": "Point", "coordinates": [ 141.384723690357163, 43.075846605703134 ] } },
{ "type": "Feature", "properties": { "内容": "大蔵サポート【福祉用具貸与】北海道札幌市東区北28条東2丁目2番20号しんふぉに～28", "url2": "https://www.kaigokensaku.mhlw.go.jp/01/index.php?action_kouhyou_detail_004_kani=true&JigyosyoCd=0170205447-00&ServiceCd=170&Type=search" }, "geometry": { "type": "Point", "coordinates": [ 141.350989541760072, 43.096955948110477 ] } },
{ "type": "Feature", "properties": { "内容": "ライフサポートひまわり【福祉用具貸与】北海道札幌市東区伏古１1条1丁目１番35号", "url2": "https://www.kaigokensaku.mhlw.go.jp/01/index.php?action_kouhyou_detail_004_kani=true&JigyosyoCd=0170200182-00&ServiceCd=170&Type=search" }, "geometry": { "type": "Point", "coordinates": [ 141.393290200000024, 43.0981427 ] } },
{ "type": "Feature", "properties": { "内容": "ダスキンヘルスレント札幌北ステーション【福祉用具貸与】北海道札幌市東区北34条東22丁目1-35", "url2": "https://www.kaigokensaku.mhlw.go.jp/01/index.php?action_kouhyou_detail_004_kani=true&JigyosyoCd=0170209183-00&ServiceCd=170&Type=search" }, "geometry": { "type": "Point", "coordinates": [ 141.379476299999965, 43.103597 ] } },
{ "type": "Feature", "properties": { "内容": "ピースケアサポート【福祉用具貸与】札幌市東区北24条東3丁目1番16号", "url2": "https://www.kaigokensaku.mhlw.go.jp/01/index.php?action_kouhyou_detail_004_kani=true&JigyosyoCd=0170204069-00&ServiceCd=170&Type=search" }, "geometry": { "type": "Point", "coordinates": [ 141.354224020988454, 43.092015099638935 ] } },
{ "type": "Feature", "properties": { "内容": "グッドタイム介護ショップ・札幌東【福祉用具貸与】札幌市東区北34条東27丁目5番1号", "url2": "https://www.kaigokensaku.mhlw.go.jp/01/index.php?action_kouhyou_detail_004_kani=true&JigyosyoCd=0170208953-00&ServiceCd=170&Type=search" }, "geometry": { "type": "Point", "coordinates": [ 141.3885584, 43.1012562 ] } },
{ "type": "Feature", "properties": { "内容": "グリンケア福祉用具貸与事業所【福祉用具貸与】札幌市東区本町1条5丁目2-8エクセルフローラ101", "url2": "https://www.kaigokensaku.mhlw.go.jp/01/index.php?action_kouhyou_detail_004_kani=true&JigyosyoCd=0170403059-00&ServiceCd=170&Type=search" }, "geometry": { "type": "Point", "coordinates": [ 141.388525312752932, 43.077329857824289 ] } },
{ "type": "Feature", "properties": { "内容": "パナソニックエイジフリーショップ札幌東【福祉用具貸与】北海道札幌市東区北７条東６丁目18-21", "url2": "https://www.kaigokensaku.mhlw.go.jp/01/index.php?action_kouhyou_detail_004_kani=true&JigyosyoCd=0170200901-00&ServiceCd=170&Type=search" }, "geometry": { "type": "Point", "coordinates": [ 141.362705799999958, 43.0716588 ] } },
{ "type": "Feature", "properties": { "内容": "有限会社ティージー・サポート【福祉用具貸与】北海道札幌市東区北２０条東２１丁目１番１７号", "url2": "https://www.kaigokensaku.mhlw.go.jp/01/index.php?action_kouhyou_detail_004_kani=true&JigyosyoCd=0170205025-00&ServiceCd=170&Type=search" }, "geometry": { "type": "Point", "coordinates": [ 141.384172499999977, 43.0875131 ] } },
{ "type": "Feature", "properties": { "内容": "株式会社エンパイアーホームヘルスケア事業部札幌営業所【福祉用具貸与】札幌市東区東苗穂5条2丁目7番14号", "url2": "https://www.kaigokensaku.mhlw.go.jp/01/index.php?action_kouhyou_detail_004_kani=true&JigyosyoCd=0170200109-00&ServiceCd=170&Type=search" }, "geometry": { "type": "Point", "coordinates": [ 141.408944900000051, 43.0899052 ] } },
{ "type": "Feature", "properties": { "内容": "株式会社ハーティワークス【福祉用具貸与】札幌市白石区流通センター１丁目７番５４号", "url2": "https://www.kaigokensaku.mhlw.go.jp/01/index.php?action_kouhyou_detail_004_kani=true&JigyosyoCd=0170503072-00&ServiceCd=170&Type=search" }, "geometry": { "type": "Point", "coordinates": [ 141.443144800000027, 43.0377261 ] } },
{ "type": "Feature", "properties": { "内容": "パナソニックエイジフリーショップ白石【福祉用具貸与】北海道札幌市白石区流通センター7丁目8-1", "url2": "https://www.kaigokensaku.mhlw.go.jp/01/index.php?action_kouhyou_detail_004_kani=true&JigyosyoCd=0170514012-00&ServiceCd=170&Type=search" }, "geometry": { "type": "Point", "coordinates": [ 141.45312770000001, 43.0390238 ] } },
{ "type": "Feature", "properties": { "内容": "ユニケア【福祉用具貸与】北海道札幌市白石区米里一条３丁目２番２５号", "url2": "https://www.kaigokensaku.mhlw.go.jp/01/index.php?action_kouhyou_detail_004_kani=true&JigyosyoCd=0170508758-00&ServiceCd=170&Type=search" }, "geometry": { "type": "Point", "coordinates": [ 141.4184712, 43.0745554 ] } },
{ "type": "Feature", "properties": { "内容": "CARECREW【福祉用具貸与】札幌市白石区東札幌6条4丁目1-5TRINITE’A2", "url2": "https://www.kaigokensaku.mhlw.go.jp/01/index.php?action_kouhyou_detail_004_kani=true&JigyosyoCd=0170516017-00&ServiceCd=170&Type=search" }, "geometry": { "type": "Point", "coordinates": [ 141.3928163, 43.0527885 ] } },
{ "type": "Feature", "properties": { "内容": "株式会社ＯＰＴＩＯＮ【福祉用具貸与】北海道札幌市白石区平和通６丁目南３番３号", "url2": "https://www.kaigokensaku.mhlw.go.jp/01/index.php?action_kouhyou_detail_004_kani=true&JigyosyoCd=0170511695-00&ServiceCd=170&Type=search" }, "geometry": { "type": "Point", "coordinates": [ 141.41498350590436, 43.049286434668105 ] } },
{ "type": "Feature", "properties": { "内容": "チーム.サッポロ【福祉用具貸与】北海道札幌市白石区中央2条2丁目1-442F", "url2": "https://www.kaigokensaku.mhlw.go.jp/01/index.php?action_kouhyou_detail_004_kani=true&JigyosyoCd=0170515753-00&ServiceCd=170&Type=search" }, "geometry": { "type": "Point", "coordinates": [ 141.394344499999988, 43.0575537 ] } },
{ "type": "Feature", "properties": { "内容": "はるのひ【福祉用具貸与】北海道札幌市白石区東米里2189-80", "url2": "https://www.kaigokensaku.mhlw.go.jp/01/index.php?action_kouhyou_detail_004_kani=true&JigyosyoCd=0170515514-00&ServiceCd=170&Type=search" }, "geometry": { "type": "Point", "coordinates": [ 141.437477699999988, 43.0860851 ] } },
{ "type": "Feature", "properties": { "内容": "ダスキンヘルスレント札幌東ステーション【福祉用具貸与】北海道札幌市白石区栄通11丁目3-18", "url2": "https://www.kaigokensaku.mhlw.go.jp/01/index.php?action_kouhyou_detail_004_kani=true&JigyosyoCd=0170510630-00&ServiceCd=170&Type=search" }, "geometry": { "type": "Point", "coordinates": [ 141.416641766270459, 43.034290185291439 ] } },
{ "type": "Feature", "properties": { "内容": "株式会社北日本メディカル【福祉用具貸与】北海道札幌市豊平区平岸５条１０丁目７－１", "url2": "https://www.kaigokensaku.mhlw.go.jp/01/index.php?action_kouhyou_detail_004_kani=true&JigyosyoCd=0170504823-00&ServiceCd=170&Type=search" }, "geometry": { "type": "Point", "coordinates": [ 141.37931750000007, 43.0310245 ] } },
{ "type": "Feature", "properties": { "内容": "アクテック株式会社【福祉用具貸与】札幌市豊平区美園2条3丁目2-25", "url2": "https://www.kaigokensaku.mhlw.go.jp/01/index.php?action_kouhyou_detail_004_kani=true&JigyosyoCd=0170508741-00&ServiceCd=170&Type=search" }, "geometry": { "type": "Point", "coordinates": [ 141.385749799999985, 43.043526 ] } },
{ "type": "Feature", "properties": { "内容": "株式会社マルベリーさわやかセンター札幌豊平【福祉用具貸与】北海道札幌市豊平区福住2条10丁目18番1号", "url2": "https://www.kaigokensaku.mhlw.go.jp/01/index.php?action_kouhyou_detail_004_kani=true&JigyosyoCd=0170511414-00&ServiceCd=170&Type=search" }, "geometry": { "type": "Point", "coordinates": [ 141.391470900000058, 43.0033363 ] } },
{ "type": "Feature", "properties": { "内容": "株式会社サンメディック【福祉用具貸与】札幌市豊平区月寒東３条８丁目１番５号瀬野尾ビル１Ｆ", "url2": "https://www.kaigokensaku.mhlw.go.jp/01/index.php?action_kouhyou_detail_004_kani=true&JigyosyoCd=0170507016-00&ServiceCd=170&Type=search" }, "geometry": { "type": "Point", "coordinates": [ 141.404751300000044, 43.0325138 ] } },
{ "type": "Feature", "properties": { "内容": "株式会社ノアコンツェル福祉用具貸与事業所【福祉用具貸与】札幌市豊平区平岸7条14丁目1-32", "url2": "https://www.kaigokensaku.mhlw.go.jp/01/index.php?action_kouhyou_detail_004_kani=true&JigyosyoCd=0170501449-00&ServiceCd=170&Type=search" }, "geometry": { "type": "Point", "coordinates": [ 141.38177029639246, 43.024012815417933 ] } },
{ "type": "Feature", "properties": { "内容": "ライブラリ札幌福祉用具貸与事業所【福祉用具貸与】札幌市豊平区月寒東４条１５丁目２番１８号東成企興ビル１階右店舗", "url2": "https://www.kaigokensaku.mhlw.go.jp/01/index.php?action_kouhyou_detail_004_kani=true&JigyosyoCd=0170515068-00&ServiceCd=170&Type=search" }, "geometry": { "type": "Point", "coordinates": [ 141.420330121002422, 43.02607323229676 ] } },
{ "type": "Feature", "properties": { "内容": "ＤＣＭ西岡店【福祉用具貸与】札幌市豊平区西岡1条8丁目8番1号", "url2": "https://www.kaigokensaku.mhlw.go.jp/01/index.php?action_kouhyou_detail_004_kani=true&JigyosyoCd=0170514533-00&ServiceCd=170&Type=search" }, "geometry": { "type": "Point", "coordinates": [ 141.3794163, 43.0095099 ] } },
{ "type": "Feature", "properties": { "内容": "株式会社ヘルスケアコープ【福祉用具貸与】北海道札幌市豊平区月寒中央通7丁目6番20号JA月寒中央ビル6階", "url2": "https://www.kaigokensaku.mhlw.go.jp/01/index.php?action_kouhyou_detail_004_kani=true&JigyosyoCd=0170515126-00&ServiceCd=170&Type=search" }, "geometry": { "type": "Point", "coordinates": [ 141.397140900000011, 43.030375 ] } },
{ "type": "Feature", "properties": { "内容": "福祉用具事業所くらしさ【福祉用具貸与】北海道札幌市豊平区中の島1条7丁目12-1リーフィール中の島　1F", "url2": "https://www.kaigokensaku.mhlw.go.jp/01/index.php?action_kouhyou_detail_004_kani=true&JigyosyoCd=0170104293-00&ServiceCd=170&Type=search" }, "geometry": { "type": "Point", "coordinates": [ 141.356598873626439, 43.026588312552384 ] } },
{ "type": "Feature", "properties": { "内容": "Carrent札幌【福祉用具貸与】北海道札幌市豊平区美園7条1丁目4-13誉PARC7.1ビル1F", "url2": "https://www.kaigokensaku.mhlw.go.jp/01/index.php?action_kouhyou_detail_004_kani=true&JigyosyoCd=0170510994-00&ServiceCd=170&Type=search" }, "geometry": { "type": "Point", "coordinates": [ 141.378228577909795, 43.040969051978394 ] } },
{ "type": "Feature", "properties": { "内容": "ブリステージ福祉用具貸与事業所【福祉用具貸与】北海道札幌市豊平区平岸4条9丁目2-19", "url2": "https://www.kaigokensaku.mhlw.go.jp/01/index.php?action_kouhyou_detail_004_kani=true&JigyosyoCd=0170513717-00&ServiceCd=170&Type=search" }, "geometry": { "type": "Point", "coordinates": [ 141.374110030059398, 43.032652918198274 ] } },
{ "type": "Feature", "properties": { "内容": "福祉用具　笑楽　札幌【福祉用具貸与】北海道札幌市南区石山東7丁目１番10号", "url2": "https://www.kaigokensaku.mhlw.go.jp/01/index.php?action_kouhyou_detail_004_kani=true&JigyosyoCd=0170515001-00&ServiceCd=170&Type=search" }, "geometry": { "type": "Point", "coordinates": [ 141.3434758, 42.9549671 ] } },
{ "type": "Feature", "properties": { "内容": "福祉用具の福太郎【福祉用具貸与】札幌市西区二十四軒３条５丁目４－２０ＴＫグレース", "url2": "https://www.kaigokensaku.mhlw.go.jp/01/index.php?action_kouhyou_detail_004_kani=true&JigyosyoCd=0170404545-00&ServiceCd=170&Type=search" }, "geometry": { "type": "Point", "coordinates": [ 141.309041, 43.0708403 ] } },
{ "type": "Feature", "properties": { "内容": "株式会社　特殊衣料【福祉用具貸与】北海道札幌市西区発寒１４条１４丁目２番４０号", "url2": "https://www.kaigokensaku.mhlw.go.jp/01/index.php?action_kouhyou_detail_004_kani=true&JigyosyoCd=0170400584-00&ServiceCd=170&Type=search" }, "geometry": { "type": "Point", "coordinates": [ 141.280091299999981, 43.1095179 ] } },
{ "type": "Feature", "properties": { "内容": "福祉用具レンタル販売事業所　アクア【福祉用具貸与】北海道札幌市八軒１０条東４丁目2-18アクア八軒東ビル", "url2": "https://www.kaigokensaku.mhlw.go.jp/01/index.php?action_kouhyou_detail_004_kani=true&JigyosyoCd=0170404438-00&ServiceCd=170&Type=search" }, "geometry": { "type": "Point", "coordinates": [ 141.325822492165599, 43.087268669298702 ] } },
{ "type": "Feature", "properties": { "内容": "ＤＣＭ発寒追分通店【福祉用具貸与】北海道札幌市西区発寒9条14丁目516番地210", "url2": "https://www.kaigokensaku.mhlw.go.jp/01/index.php?action_kouhyou_detail_004_kani=true&JigyosyoCd=0170405526-00&ServiceCd=170&Type=search" }, "geometry": { "type": "Point", "coordinates": [ 141.271071199999966, 43.1021032 ] } },
{ "type": "Feature", "properties": { "内容": "ニック株式会社札幌営業所【福祉用具貸与】北海道札幌市西区西野３条９丁目１０番４０号", "url2": "https://www.kaigokensaku.mhlw.go.jp/01/index.php?action_kouhyou_detail_004_kani=true&JigyosyoCd=0170200174-00&ServiceCd=170&Type=search" }, "geometry": { "type": "Point", "coordinates": [ 141.270090699999969, 43.0812319 ] } },
{ "type": "Feature", "properties": { "内容": "ファミリー・ホスピス福祉用具事業所【福祉用具貸与】厚別西5条2丁目18-22ファミリー・ホスピスノーザリー厚別西", "url2": "https://www.kaigokensaku.mhlw.go.jp/01/index.php?action_kouhyou_detail_004_kani=true&JigyosyoCd=0170515662-00&ServiceCd=170&Type=search" }, "geometry": { "type": "Point", "coordinates": [ 141.458128, 43.0522425 ] } },
{ "type": "Feature", "properties": { "内容": "弁慶さっぽろ【福祉用具貸与】北海道札幌市厚別区大谷地西５丁目２－５パスウェイ６７７弐番館", "url2": "https://www.kaigokensaku.mhlw.go.jp/01/index.php?action_kouhyou_detail_004_kani=true&JigyosyoCd=0170504880-00&ServiceCd=170&Type=search" }, "geometry": { "type": "Point", "coordinates": [ 141.454094491957136, 43.019169867752531 ] } },
{ "type": "Feature", "properties": { "内容": "ムラタ【福祉用具貸与】青葉町9丁目2番7号", "url2": "https://www.kaigokensaku.mhlw.go.jp/01/index.php?action_kouhyou_detail_004_kani=true&JigyosyoCd=0170515555-00&ServiceCd=170&Type=search" }, "geometry": { "type": "Point", "coordinates": [ 141.4783983, 43.0252118 ] } },
{ "type": "Feature", "properties": { "内容": "花福【福祉用具貸与】北海道札幌市厚別区厚別中央３条６丁目３番１０号", "url2": "https://www.kaigokensaku.mhlw.go.jp/01/index.php?action_kouhyou_detail_004_kani=true&JigyosyoCd=0170512255-00&ServiceCd=170&Type=search" }, "geometry": { "type": "Point", "coordinates": [ 141.473050199999989, 43.0440317 ] } },
{ "type": "Feature", "properties": { "内容": "札幌福祉医療器株式会社【福祉用具貸与】北海道札幌市厚別区もみじ台南6丁目1-5", "url2": "https://www.kaigokensaku.mhlw.go.jp/01/index.php?action_kouhyou_detail_004_kani=true&JigyosyoCd=0170500409-00&ServiceCd=170&Type=search" }, "geometry": { "type": "Point", "coordinates": [ 141.500954200000024, 43.0250039 ] } },
{ "type": "Feature", "properties": { "内容": "有限会社優コーポレーション【福祉用具貸与】北海道札幌市厚別区厚別西3条1丁目1番35号", "url2": "https://www.kaigokensaku.mhlw.go.jp/01/index.php?action_kouhyou_detail_004_kani=true&JigyosyoCd=0170511554-00&ServiceCd=170&Type=search" }, "geometry": { "type": "Point", "coordinates": [ 141.454107099999987, 43.0472311 ] } },
{ "type": "Feature", "properties": { "内容": "ハーティＫ【福祉用具貸与】北海道札幌市厚別区厚別西5条1丁目10番5号", "url2": "https://www.kaigokensaku.mhlw.go.jp/01/index.php?action_kouhyou_detail_004_kani=true&JigyosyoCd=0170512875-00&ServiceCd=170&Type=search" }, "geometry": { "type": "Point", "coordinates": [ 141.452786400000036, 43.0527682 ] } },
{ "type": "Feature", "properties": { "内容": "ＤＣＭ厚別東店【福祉用具貸与】札幌市厚別区厚別東５条１丁目２番10号", "url2": "https://www.kaigokensaku.mhlw.go.jp/01/index.php?action_kouhyou_detail_004_kani=true&JigyosyoCd=0170514541-00&ServiceCd=170&Type=search" }, "geometry": { "type": "Point", "coordinates": [ 141.475514600000054, 43.0459167 ] } },
{ "type": "Feature", "properties": { "内容": "株式会社　土屋ホームトピア　福祉用具貸与・販売事業所「RAKUKAI」【福祉用具貸与】北海道札幌市厚別区厚別南１丁目１８－１", "url2": "https://www.kaigokensaku.mhlw.go.jp/01/index.php?action_kouhyou_detail_004_kani=true&JigyosyoCd=0170513139-00&ServiceCd=170&Type=search" }, "geometry": { "type": "Point", "coordinates": [ 141.464324, 43.0277 ] } },
{ "type": "Feature", "properties": { "内容": "ニック株式会社　札幌東営業所【福祉用具貸与】北海道札幌市厚別区大谷地東2-3-30松下ビル1階", "url2": "https://www.kaigokensaku.mhlw.go.jp/01/index.php?action_kouhyou_detail_004_kani=true&JigyosyoCd=0170515548-00&ServiceCd=170&Type=search" }, "geometry": { "type": "Point", "coordinates": [ 141.4525815, 43.0295187 ] } },
{ "type": "Feature", "properties": { "内容": "株式会社フロンティア札幌営業所【福祉用具貸与】北海道札幌市手稲区曙2条4丁目3-62", "url2": "https://www.kaigokensaku.mhlw.go.jp/01/index.php?action_kouhyou_detail_004_kani=true&JigyosyoCd=0170403521-00&ServiceCd=170&Type=search" }, "geometry": { "type": "Point", "coordinates": [ 141.227224400000068, 43.1314004 ] } },
{ "type": "Feature", "properties": { "内容": "福祉用具家コノイエ札幌【福祉用具貸与】札幌市手稲区前田1条12丁目2-48VillaClasse手稲北口202", "url2": "https://www.kaigokensaku.mhlw.go.jp/01/index.php?action_kouhyou_detail_004_kani=true&JigyosyoCd=0170405641-00&ServiceCd=170&Type=search" }, "geometry": { "type": "Point", "coordinates": [ 141.2453257, 43.122365799999983 ] } },
{ "type": "Feature", "properties": { "内容": "鈴木内科福祉用具貸与販売事業所【福祉用具貸与】札幌市清田区清田4条2丁目10-25", "url2": "https://www.kaigokensaku.mhlw.go.jp/01/index.php?action_kouhyou_detail_004_kani=true&JigyosyoCd=0170514467-00&ServiceCd=170&Type=search" }, "geometry": { "type": "Point", "coordinates": [ 141.4308301, 42.9976412 ] } },
{ "type": "Feature", "properties": { "内容": "パナソニックエイジフリーショップ札幌北野【福祉用具貸与】北海道札幌市清田区北野3条2丁目13番65号", "url2": "https://www.kaigokensaku.mhlw.go.jp/01/index.php?action_kouhyou_detail_004_kani=true&JigyosyoCd=0170516009-00&ServiceCd=170&Type=search" }, "geometry": { "type": "Point", "coordinates": [ 141.4343711, 43.012094 ] } },
{ "type": "Feature", "properties": { "内容": "ケアセンターがじゅまる札幌【福祉用具貸与】札幌市清田区北野4条5丁目4－25アクアトピア北野　202号室", "url2": "https://www.kaigokensaku.mhlw.go.jp/01/index.php?action_kouhyou_detail_004_kani=true&JigyosyoCd=0170516041-00&ServiceCd=170&Type=search" }, "geometry": { "type": "Point", "coordinates": [ 141.447254500000014, 43.0128138 ] } },
{ "type": "Feature", "properties": { "内容": "ダスキンヘルスレント札幌南ステーション【福祉用具貸与】北海道札幌市清田区平岡５条１丁目１－７", "url2": "https://www.kaigokensaku.mhlw.go.jp/01/index.php?action_kouhyou_detail_004_kani=true&JigyosyoCd=0170501688-00&ServiceCd=170&Type=search" }, "geometry": { "type": "Point", "coordinates": [ 141.448323800000026, 43.009293 ] } },
{ "type": "Feature", "properties": { "内容": "株式会社フロンティア　札幌東営業所【福祉用具貸与】北海道札幌市清田区平岡7条3丁目18-10", "url2": "https://www.kaigokensaku.mhlw.go.jp/01/index.php?action_kouhyou_detail_004_kani=true&JigyosyoCd=0170515480-00&ServiceCd=170&Type=search" }, "geometry": { "type": "Point", "coordinates": [ 141.4573935, 43.0104831 ] } },
{ "type": "Feature", "properties": { "内容": "テーオー・ケアサービス【福祉用具貸与】函館市北浜町５番１０号ハートＴＯハート北浜", "url2": "https://www.kaigokensaku.mhlw.go.jp/01/index.php?action_kouhyou_detail_004_kani=true&JigyosyoCd=0171401169-00&ServiceCd=170&Type=search" }, "geometry": { "type": "Point", "coordinates": [ 140.727464665081783, 41.797025452115911 ] } },
{ "type": "Feature", "properties": { "内容": "介護用品のぱれっと【福祉用具貸与】北海道函館市宮前町３番６号", "url2": "https://www.kaigokensaku.mhlw.go.jp/01/index.php?action_kouhyou_detail_004_kani=true&JigyosyoCd=0171401466-00&ServiceCd=170&Type=search" }, "geometry": { "type": "Point", "coordinates": [ 140.738164500000039, 41.7875141 ] } },
{ "type": "Feature", "properties": { "内容": "テーオーケアサービス【福祉用具貸与】北海道函館市北浜町５番１０号", "url2": "https://www.kaigokensaku.mhlw.go.jp/01/index.php?action_kouhyou_detail_004_kani=true&JigyosyoCd=0171404296-00&ServiceCd=170&Type=search" }, "geometry": { "type": "Point", "coordinates": [ 140.727481600000033, 41.7970184 ] } },
{ "type": "Feature", "properties": { "内容": "クレア福祉用具【福祉用具貸与】北海道函館市北美原１丁目１０番１５", "url2": "https://www.kaigokensaku.mhlw.go.jp/01/index.php?action_kouhyou_detail_004_kani=true&JigyosyoCd=0171403900-00&ServiceCd=170&Type=search" }, "geometry": { "type": "Point", "coordinates": [ 140.7478011, 41.8265071 ] } },
{ "type": "Feature", "properties": { "内容": "福祉用具ハートToハート【福祉用具貸与】北海道函館市北浜町5番10号", "url2": "https://www.kaigokensaku.mhlw.go.jp/01/index.php?action_kouhyou_detail_004_kani=true&JigyosyoCd=0171405582-00&ServiceCd=170&Type=search" }, "geometry": { "type": "Point", "coordinates": [ 140.7274722, 41.7970254 ] } },
{ "type": "Feature", "properties": { "内容": "福祉用具翔和【福祉用具貸与】北海道函館市昭和町22番地61", "url2": "https://www.kaigokensaku.mhlw.go.jp/01/index.php?action_kouhyou_detail_004_kani=true&JigyosyoCd=0171405533-00&ServiceCd=170&Type=search" }, "geometry": { "type": "Point", "coordinates": [ 140.726906492108526, 41.812782722296255 ] } },
{ "type": "Feature", "properties": { "内容": "キャレックス【福祉用具貸与】北海道函館市金堀町8番20号", "url2": "https://www.kaigokensaku.mhlw.go.jp/01/index.php?action_kouhyou_detail_004_kani=true&JigyosyoCd=0171405392-00&ServiceCd=170&Type=search" }, "geometry": { "type": "Point", "coordinates": [ 140.7625415, 41.7743139 ] } },
{ "type": "Feature", "properties": { "内容": "ＤＣＭ石川店【福祉用具貸与】北海道函館市石川町232番42", "url2": "https://www.kaigokensaku.mhlw.go.jp/01/index.php?action_kouhyou_detail_004_kani=true&JigyosyoCd=0171404999-00&ServiceCd=170&Type=search" }, "geometry": { "type": "Point", "coordinates": [ 140.737592833439294, 41.843096013103249 ] } },
{ "type": "Feature", "properties": { "内容": "福祉用具貸与事業所　つくし【福祉用具貸与】函館市豊川町1番5号豊川ビル１F", "url2": "https://www.kaigokensaku.mhlw.go.jp/01/index.php?action_kouhyou_detail_004_kani=true&JigyosyoCd=0171401318-00&ServiceCd=170&Type=search" }, "geometry": { "type": "Point", "coordinates": [ 140.720077546627067, 41.76357719274835 ] } },
{ "type": "Feature", "properties": { "内容": "北海道難病連　函館営業所【福祉用具貸与】函館市北浜町５番２３号", "url2": "https://www.kaigokensaku.mhlw.go.jp/01/index.php?action_kouhyou_detail_004_kani=true&JigyosyoCd=0171400302-00&ServiceCd=170&Type=search" }, "geometry": { "type": "Point", "coordinates": [ 140.728112099999947, 41.797799 ] } },
{ "type": "Feature", "properties": { "内容": "株式会社シルバーリング【福祉用具貸与】北海道函館市冨岡町3丁目３０－１６", "url2": "https://www.kaigokensaku.mhlw.go.jp/01/index.php?action_kouhyou_detail_004_kani=true&JigyosyoCd=0171402753-00&ServiceCd=170&Type=search" }, "geometry": { "type": "Point", "coordinates": [ 140.750392899999952, 41.8127396 ] } },
{ "type": "Feature", "properties": { "内容": "介護用品レンタルここわ【福祉用具貸与】北海道函館市富岡町1丁目21-14", "url2": "https://www.kaigokensaku.mhlw.go.jp/01/index.php?action_kouhyou_detail_004_kani=true&JigyosyoCd=0171403983-00&ServiceCd=170&Type=search" }, "geometry": { "type": "Point", "coordinates": [ 140.742391, 41.8048368 ] } },
{ "type": "Feature", "properties": { "内容": "株式会社ひより屋【福祉用具貸与】北海道函館市千歳町11番6号", "url2": "https://www.kaigokensaku.mhlw.go.jp/01/index.php?action_kouhyou_detail_004_kani=true&JigyosyoCd=0171402415-00&ServiceCd=170&Type=search" }, "geometry": { "type": "Point", "coordinates": [ 140.736859262565673, 41.7744777955632 ] } },
{ "type": "Feature", "properties": { "内容": "株式会社フロンティア函館営業所【福祉用具貸与】函館市石川町317-6", "url2": "https://www.kaigokensaku.mhlw.go.jp/01/index.php?action_kouhyou_detail_004_kani=true&JigyosyoCd=0171403298-00&ServiceCd=170&Type=search" }, "geometry": { "type": "Point", "coordinates": [ 140.742101400000024, 41.8242658 ] } },
{ "type": "Feature", "properties": { "内容": "株式会社ポラリス【福祉用具貸与】北海道函館市大川町15番22号", "url2": "https://www.kaigokensaku.mhlw.go.jp/01/index.php?action_kouhyou_detail_004_kani=true&JigyosyoCd=0171403256-00&ServiceCd=170&Type=search" }, "geometry": { "type": "Point", "coordinates": [ 140.737346821954361, 41.80026215445897 ] } },
{ "type": "Feature", "properties": { "内容": "株式会社マルベリーさわやかセンター函館【福祉用具貸与】北海道函館市昭和3丁目35-28", "url2": "https://www.kaigokensaku.mhlw.go.jp/01/index.php?action_kouhyou_detail_004_kani=true&JigyosyoCd=0171402118-00&ServiceCd=170&Type=search" }, "geometry": { "type": "Point", "coordinates": [ 140.719566699999973, 41.8290423 ] } },
{ "type": "Feature", "properties": { "内容": "福祉用具販売貸与事業所　フルールハピネスはこだて【福祉用具貸与】北海道函館市谷地頭町8番27号", "url2": "https://www.kaigokensaku.mhlw.go.jp/01/index.php?action_kouhyou_detail_004_kani=true&JigyosyoCd=0171402282-00&ServiceCd=170&Type=search" }, "geometry": { "type": "Point", "coordinates": [ 140.712118, 41.7529281 ] } },
{ "type": "Feature", "properties": { "内容": "福祉用具貸与事業所　クオリティーライズ【福祉用具貸与】北海道函館市日吉町２丁目27番19号", "url2": "https://www.kaigokensaku.mhlw.go.jp/01/index.php?action_kouhyou_detail_004_kani=true&JigyosyoCd=0171403538-00&ServiceCd=170&Type=search" }, "geometry": { "type": "Point", "coordinates": [ 140.790620308180763, 41.797323411889892 ] } },
{ "type": "Feature", "properties": { "内容": "福祉用具貸与事業所アニー【福祉用具貸与】北海道函館市中道２丁目１８番１号マンションＡＩ　１０３号室", "url2": "https://www.kaigokensaku.mhlw.go.jp/01/index.php?action_kouhyou_detail_004_kani=true&JigyosyoCd=0171404445-00&ServiceCd=170&Type=search" }, "geometry": { "type": "Point", "coordinates": [ 140.7628952, 41.8084572 ] } },
{ "type": "Feature", "properties": { "内容": "有限会社　ナースショップふれ愛中島店【福祉用具貸与】函館市中島町38～1あけぼのマンション1F", "url2": "https://www.kaigokensaku.mhlw.go.jp/01/index.php?action_kouhyou_detail_004_kani=true&JigyosyoCd=0171400328-00&ServiceCd=170&Type=search" }, "geometry": { "type": "Point", "coordinates": [ 140.74308080000003, 41.7875225 ] } },
{ "type": "Feature", "properties": { "内容": "福祉用具貸与事業所ばんだい【福祉用具貸与】函館市宮前町27番11号", "url2": "https://www.kaigokensaku.mhlw.go.jp/01/index.php?action_kouhyou_detail_004_kani=true&JigyosyoCd=0171405509-00&ServiceCd=170&Type=search" }, "geometry": { "type": "Point", "coordinates": [ 140.7383204, 41.7907672 ] } },
{ "type": "Feature", "properties": { "内容": "エア・ウォーター・ライフソリューション株式会社　函館営業所【福祉用具貸与】西桔梗町589番地45", "url2": "https://www.kaigokensaku.mhlw.go.jp/01/index.php?action_kouhyou_detail_004_kani=true&JigyosyoCd=0171405558-00&ServiceCd=170&Type=search" }, "geometry": { "type": "Point", "coordinates": [ 140.72278510000001, 41.828872 ] } },
{ "type": "Feature", "properties": { "内容": "あんどワン（＆ｏｎｅ）福祉用具事業所【福祉用具貸与】北海道函館市桔梗町426番地20", "url2": "https://www.kaigokensaku.mhlw.go.jp/01/index.php?action_kouhyou_detail_004_kani=true&JigyosyoCd=0171403132-00&ServiceCd=170&Type=search" }, "geometry": { "type": "Point", "coordinates": [ 140.734109600000011, 41.8406282 ] } },
{ "type": "Feature", "properties": { "内容": "有限会社　北海道アピオス　福祉用具貸与事業所【福祉用具貸与】北海道函館市西桔梗町835番地45", "url2": "https://www.kaigokensaku.mhlw.go.jp/01/index.php?action_kouhyou_detail_004_kani=true&JigyosyoCd=0171400187-00&ServiceCd=170&Type=search" }, "geometry": { "type": "Point", "coordinates": [ 140.723794399999946, 41.8243374 ] } },
{ "type": "Feature", "properties": { "内容": "ダスキンヘルスレント函館ステーション【福祉用具貸与】北海道函館市石川町180-4", "url2": "https://www.kaigokensaku.mhlw.go.jp/01/index.php?action_kouhyou_detail_004_kani=true&JigyosyoCd=0171404650-00&ServiceCd=170&Type=search" }, "geometry": { "type": "Point", "coordinates": [ 140.737720950463881, 41.838017144016845 ] } },
{ "type": "Feature", "properties": { "内容": "株式会社ムトウ小樽支店【福祉用具貸与】北海道小樽市港町4番3号", "url2": "https://www.kaigokensaku.mhlw.go.jp/01/index.php?action_kouhyou_detail_004_kani=true&JigyosyoCd=0172002446-00&ServiceCd=170&Type=search" }, "geometry": { "type": "Point", "coordinates": [ 141.001713600000016, 43.2004636 ] } },
{ "type": "Feature", "properties": { "内容": "株式会社エンパイアーホームヘルスケア事業部　小樽営業所【福祉用具貸与】北海道小樽市天神町1丁目17番25号", "url2": "https://www.kaigokensaku.mhlw.go.jp/01/index.php?action_kouhyou_detail_004_kani=true&JigyosyoCd=0172002859-00&ServiceCd=170&Type=search" }, "geometry": { "type": "Point", "coordinates": [ 140.98975980000003, 43.16540770000001 ] } },
{ "type": "Feature", "properties": { "内容": "パナソニックエイジフリーショップおたる【福祉用具貸与】北海道小樽市花園１丁目4番1号", "url2": "https://www.kaigokensaku.mhlw.go.jp/01/index.php?action_kouhyou_detail_004_kani=true&JigyosyoCd=0172002404-00&ServiceCd=170&Type=search" }, "geometry": { "type": "Point", "coordinates": [ 140.999080899999967, 43.1940087 ] } },
{ "type": "Feature", "properties": { "内容": "サンスイA&S福祉用具貸与事業所【福祉用具貸与】北海道小樽市銭函3丁目511-11", "url2": "https://www.kaigokensaku.mhlw.go.jp/01/index.php?action_kouhyou_detail_004_kani=true&JigyosyoCd=0172002651-00&ServiceCd=170&Type=search" }, "geometry": { "type": "Point", "coordinates": [ 141.185049099999986, 43.1423299 ] } },
{ "type": "Feature", "properties": { "内容": "株式会社道央ケアセンター指定福祉用具貸与事業所【福祉用具貸与】北海道小樽市稲穂2丁目13番1号道央ケアセンタービル4F", "url2": "https://www.kaigokensaku.mhlw.go.jp/01/index.php?action_kouhyou_detail_004_kani=true&JigyosyoCd=0172000226-00&ServiceCd=170&Type=search" }, "geometry": { "type": "Point", "coordinates": [ 140.997444800000039, 43.1967723 ] } },
{ "type": "Feature", "properties": { "内容": "うぇるサプライ小樽営業所【福祉用具貸与】小樽市長橋4丁目4番7号", "url2": "https://www.kaigokensaku.mhlw.go.jp/01/index.php?action_kouhyou_detail_004_kani=true&JigyosyoCd=0172001430-00&ServiceCd=170&Type=search" }, "geometry": { "type": "Point", "coordinates": [ 140.974770499999977, 43.2095928 ] } },
{ "type": "Feature", "properties": { "内容": "ドラックストアーさとう福祉用具貸与事業所　小樽店【福祉用具貸与】北海道小樽市花園4丁目18番1号", "url2": "https://www.kaigokensaku.mhlw.go.jp/01/index.php?action_kouhyou_detail_004_kani=true&JigyosyoCd=0172001752-00&ServiceCd=170&Type=search" }, "geometry": { "type": "Point", "coordinates": [ 140.997402799232191, 43.189614651792397 ] } },
{ "type": "Feature", "properties": { "内容": "福祉用具貸与事業所絆【福祉用具貸与】北海道旭川市永山3条24丁目2-2", "url2": "https://www.kaigokensaku.mhlw.go.jp/01/index.php?action_kouhyou_detail_004_kani=true&JigyosyoCd=0172905978-00&ServiceCd=170&Type=search" }, "geometry": { "type": "Point", "coordinates": [ 142.447716200000059, 43.8175837 ] } },
{ "type": "Feature", "properties": { "内容": "株式会社旭川健生舎【福祉用具貸与】旭川市1条通11丁目右8号", "url2": "https://www.kaigokensaku.mhlw.go.jp/01/index.php?action_kouhyou_detail_004_kani=true&JigyosyoCd=0172900615-00&ServiceCd=170&Type=search" }, "geometry": { "type": "Point", "coordinates": [ 142.3646526, 43.7637668 ] } },
{ "type": "Feature", "properties": { "内容": "介護用品のさんた【福祉用具貸与】北海道旭川市神楽岡5条6丁目4-22旭祥ハイツ１階１号室", "url2": "https://www.kaigokensaku.mhlw.go.jp/01/index.php?action_kouhyou_detail_004_kani=true&JigyosyoCd=0172908410-00&ServiceCd=170&Type=search" }, "geometry": { "type": "Point", "coordinates": [ 142.3736843, 43.7401722 ] } },
{ "type": "Feature", "properties": { "内容": "エア・ウォーター・ライフソリューション株式会社　旭川営業所【福祉用具貸与】北海道旭川市豊岡5条4丁目1番1号", "url2": "https://www.kaigokensaku.mhlw.go.jp/01/index.php?action_kouhyou_detail_004_kani=true&JigyosyoCd=0172908634-00&ServiceCd=170&Type=search" }, "geometry": { "type": "Point", "coordinates": [ 142.4002807, 43.761113800000011 ] } },
{ "type": "Feature", "properties": { "内容": "株式会社マルベリーさわやかセンター旭川【福祉用具貸与】旭川市永山4条8丁目1－32", "url2": "https://www.kaigokensaku.mhlw.go.jp/01/index.php?action_kouhyou_detail_004_kani=true&JigyosyoCd=0172903023-00&ServiceCd=170&Type=search" }, "geometry": { "type": "Point", "coordinates": [ 142.4119432, 43.7942683 ] } },
{ "type": "Feature", "properties": { "内容": "株式会社厚友会【福祉用具貸与】旭川市５条通２丁目１６７７番地７", "url2": "https://www.kaigokensaku.mhlw.go.jp/01/index.php?action_kouhyou_detail_004_kani=true&JigyosyoCd=0172900219-00&ServiceCd=170&Type=search" }, "geometry": { "type": "Point", "coordinates": [ 142.353061900000057, 43.7722849 ] } },
{ "type": "Feature", "properties": { "内容": "有限会社　セラ・サービス【福祉用具貸与】旭川市永山11条2丁目2-12", "url2": "https://www.kaigokensaku.mhlw.go.jp/01/index.php?action_kouhyou_detail_004_kani=true&JigyosyoCd=0172901159-00&ServiceCd=170&Type=search" }, "geometry": { "type": "Point", "coordinates": [ 142.409170881923814, 43.779710901042158 ] } },
{ "type": "Feature", "properties": { "内容": "有限会社ワーク【福祉用具貸与】北海道旭川市永山２条２丁目５番６号", "url2": "https://www.kaigokensaku.mhlw.go.jp/01/index.php?action_kouhyou_detail_004_kani=true&JigyosyoCd=0172901845-00&ServiceCd=170&Type=search" }, "geometry": { "type": "Point", "coordinates": [ 142.397892299999967, 43.7892016 ] } },
{ "type": "Feature", "properties": { "内容": "旭川福祉レンタルセンター【福祉用具貸与】北海道旭川市春光台５条２丁目１４-７", "url2": "https://www.kaigokensaku.mhlw.go.jp/01/index.php?action_kouhyou_detail_004_kani=true&JigyosyoCd=0172900714-00&ServiceCd=170&Type=search" }, "geometry": { "type": "Point", "coordinates": [ 142.346284100000048, 43.8203321 ] } },
{ "type": "Feature", "properties": { "内容": "DCM宮前店【福祉用具貸与】北海道旭川市南7条通19丁目2182番地の83", "url2": "https://www.kaigokensaku.mhlw.go.jp/01/index.php?action_kouhyou_detail_004_kani=true&JigyosyoCd=0172908022-00&ServiceCd=170&Type=search" }, "geometry": { "type": "Point", "coordinates": [ 142.3720743, 43.7518795 ] } },
{ "type": "Feature", "properties": { "内容": "ＳＯＭＰＯケア旭川福祉用具【福祉用具貸与】北海道旭川市宮下通13丁目1200-2", "url2": "https://www.kaigokensaku.mhlw.go.jp/01/index.php?action_kouhyou_detail_004_kani=true&JigyosyoCd=0172907305-00&ServiceCd=170&Type=search" }, "geometry": { "type": "Point", "coordinates": [ 142.366851622722294, 43.762294007372873 ] } },
{ "type": "Feature", "properties": { "内容": "ダスキンヘルスレント旭川ステーション【福祉用具貸与】北海道旭川市東光１条３丁目１-７", "url2": "https://www.kaigokensaku.mhlw.go.jp/01/index.php?action_kouhyou_detail_004_kani=true&JigyosyoCd=0172903627-00&ServiceCd=170&Type=search" }, "geometry": { "type": "Point", "coordinates": [ 142.396449399999938, 43.7553079 ] } },
{ "type": "Feature", "properties": { "内容": "介護用品レンタルあるく【福祉用具貸与】北海道旭川市末広東２条４丁目１番１５号デイサービスあるく末広東内", "url2": "https://www.kaigokensaku.mhlw.go.jp/01/index.php?action_kouhyou_detail_004_kani=true&JigyosyoCd=0172907230-00&ServiceCd=170&Type=search" }, "geometry": { "type": "Point", "coordinates": [ 142.390844778977936, 43.802555911162408 ] } },
{ "type": "Feature", "properties": { "内容": "介護ショップハート【福祉用具貸与】旭川市東光1条1丁目2番8号一条ケアセンター１Ｆ", "url2": "https://www.kaigokensaku.mhlw.go.jp/01/index.php?action_kouhyou_detail_004_kani=true&JigyosyoCd=0172904864-00&ServiceCd=170&Type=search" }, "geometry": { "type": "Point", "coordinates": [ 142.390220444180272, 43.75600513524396 ] } },
{ "type": "Feature", "properties": { "内容": "株式会社ニッタ【福祉用具貸与】北海道旭川市豊岡９条２丁目２番６号", "url2": "https://www.kaigokensaku.mhlw.go.jp/01/index.php?action_kouhyou_detail_004_kani=true&JigyosyoCd=0172905770-00&ServiceCd=170&Type=search" }, "geometry": { "type": "Point", "coordinates": [ 142.393099112420828, 43.767855056567988 ] } },
{ "type": "Feature", "properties": { "内容": "株式会社ハピネス　介護ショップ　元気サポート【福祉用具貸与】北海道旭川市永山４条２４丁目３番１４号", "url2": "https://www.kaigokensaku.mhlw.go.jp/01/index.php?action_kouhyou_detail_004_kani=true&JigyosyoCd=0172905580-00&ServiceCd=170&Type=search" }, "geometry": { "type": "Point", "coordinates": [ 142.449194, 43.8169088 ] } },
{ "type": "Feature", "properties": { "内容": "株式会社　旭川ローザマネキン【福祉用具貸与】北海道旭川市旭町2条5丁目12-159株式会社旭川ローザマネキン", "url2": "https://www.kaigokensaku.mhlw.go.jp/01/index.php?action_kouhyou_detail_004_kani=true&JigyosyoCd=0172906083-00&ServiceCd=170&Type=search" }, "geometry": { "type": "Point", "coordinates": [ 142.356027499999982, 43.7847835 ] } },
{ "type": "Feature", "properties": { "内容": "ケアサポートセンターあけぼの【福祉用具貸与】北海道旭川市曙１条６丁目２番１５号", "url2": "https://www.kaigokensaku.mhlw.go.jp/01/index.php?action_kouhyou_detail_004_kani=true&JigyosyoCd=0172906190-00&ServiceCd=170&Type=search" }, "geometry": { "type": "Point", "coordinates": [ 142.340629268261779, 43.770725876892655 ] } },
{ "type": "Feature", "properties": { "内容": "極東警備保障株式会社福祉用具レンタルサービス【福祉用具貸与】北海道旭川市永山北１条１０丁目１１番１９号極東警備保障株式会社", "url2": "https://www.kaigokensaku.mhlw.go.jp/01/index.php?action_kouhyou_detail_004_kani=true&JigyosyoCd=0172907099-00&ServiceCd=170&Type=search" }, "geometry": { "type": "Point", "coordinates": [ 142.434556499999985, 43.8150722 ] } },
{ "type": "Feature", "properties": { "内容": "福祉用具　あびる【福祉用具貸与】旭川市永山7条16丁目2番17号", "url2": "https://www.kaigokensaku.mhlw.go.jp/01/index.php?action_kouhyou_detail_004_kani=true&JigyosyoCd=0172908097-00&ServiceCd=170&Type=search" }, "geometry": { "type": "Point", "coordinates": [ 142.433267399999977, 43.802472 ] } },
{ "type": "Feature", "properties": { "内容": "おたすケアいわき【福祉用具貸与】北海道旭川市３条通３丁目右１号北海道新聞　岩城新聞店　内", "url2": "https://www.kaigokensaku.mhlw.go.jp/01/index.php?action_kouhyou_detail_004_kani=true&JigyosyoCd=0172906950-00&ServiceCd=170&Type=search" }, "geometry": { "type": "Point", "coordinates": [ 142.352842600000031, 43.7695269 ] } },
{ "type": "Feature", "properties": { "内容": "福祉用具貸与事業所ピープルケア【福祉用具貸与】北海道旭川市神居2条21丁目８８－６", "url2": "https://www.kaigokensaku.mhlw.go.jp/01/index.php?action_kouhyou_detail_004_kani=true&JigyosyoCd=0172907396-00&ServiceCd=170&Type=search" }, "geometry": { "type": "Point", "coordinates": [ 142.343993299999966, 43.745475 ] } },
{ "type": "Feature", "properties": { "内容": "ニック株式会社旭川営業所【福祉用具貸与】北海道旭川市豊岡4条8丁目2-3", "url2": "https://www.kaigokensaku.mhlw.go.jp/01/index.php?action_kouhyou_detail_004_kani=true&JigyosyoCd=0172904211-00&ServiceCd=170&Type=search" }, "geometry": { "type": "Point", "coordinates": [ 142.416189195228753, 43.759240954447208 ] } },
{ "type": "Feature", "properties": { "内容": "福祉用具オールライト【福祉用具貸与】北海道旭川市10条通19丁目1-1", "url2": "https://www.kaigokensaku.mhlw.go.jp/01/index.php?action_kouhyou_detail_004_kani=true&JigyosyoCd=0172907859-00&ServiceCd=170&Type=search" }, "geometry": { "type": "Point", "coordinates": [ 142.3811593, 43.7698085 ] } },
{ "type": "Feature", "properties": { "内容": "セカンドライフ【福祉用具貸与】北海道旭川市錦町16丁目2965番地51ラフィングA102", "url2": "https://www.kaigokensaku.mhlw.go.jp/01/index.php?action_kouhyou_detail_004_kani=true&JigyosyoCd=0172907016-00&ServiceCd=170&Type=search" }, "geometry": { "type": "Point", "coordinates": [ 142.337453699999969, 43.79076 ] } },
{ "type": "Feature", "properties": { "内容": "福祉用具事業所まるみ【福祉用具貸与】北海道旭川市９条通８丁目2486番地の10小里ビル３階", "url2": "https://www.kaigokensaku.mhlw.go.jp/01/index.php?action_kouhyou_detail_004_kani=true&JigyosyoCd=0172908329-00&ServiceCd=170&Type=search" }, "geometry": { "type": "Point", "coordinates": [ 142.365078, 43.7745369 ] } },
{ "type": "Feature", "properties": { "内容": "みるて【福祉用具貸与】北海道室蘭市高砂町４丁目３４番１号", "url2": "https://www.kaigokensaku.mhlw.go.jp/01/index.php?action_kouhyou_detail_004_kani=true&JigyosyoCd=0173500117-00&ServiceCd=170&Type=search" }, "geometry": { "type": "Point", "coordinates": [ 141.035582019156436, 42.367785066009162 ] } },
{ "type": "Feature", "properties": { "内容": "福祉用具貸与事業所　くおん【福祉用具貸与】北海道室蘭市宮の森町4丁目２３番２８号", "url2": "https://www.kaigokensaku.mhlw.go.jp/01/index.php?action_kouhyou_detail_004_kani=true&JigyosyoCd=0173502329-00&ServiceCd=170&Type=search" }, "geometry": { "type": "Point", "coordinates": [ 141.028199, 42.3521821 ] } },
{ "type": "Feature", "properties": { "内容": "エア・ウォーター・ライフソリューション株式会社　室蘭営業所【福祉用具貸与】北海道室蘭市港北町1丁目2-20", "url2": "https://www.kaigokensaku.mhlw.go.jp/01/index.php?action_kouhyou_detail_004_kani=true&JigyosyoCd=0173502360-00&ServiceCd=170&Type=search" }, "geometry": { "type": "Point", "coordinates": [ 140.9860989, 42.357894 ] } },
{ "type": "Feature", "properties": { "内容": "福祉用具レンタルのマルキタ室蘭店【福祉用具貸与】北海道室蘭市中央町3丁目5-12SK室蘭中央ビル1F", "url2": "https://www.kaigokensaku.mhlw.go.jp/01/index.php?action_kouhyou_detail_004_kani=true&JigyosyoCd=0173501347-00&ServiceCd=170&Type=search" }, "geometry": { "type": "Point", "coordinates": [ 140.973312075921854, 42.315543042967406 ] } },
{ "type": "Feature", "properties": { "内容": "株式会社ムトウ釧路支店【福祉用具貸与】釧路市中園町２番２９号", "url2": "https://www.kaigokensaku.mhlw.go.jp/01/index.php?action_kouhyou_detail_004_kani=true&JigyosyoCd=0174100180-00&ServiceCd=170&Type=search" }, "geometry": { "type": "Point", "coordinates": [ 144.386222246032702, 43.004496582140042 ] } },
{ "type": "Feature", "properties": { "内容": "株式会社エンパイアー　ホームヘルスケア事業部　釧路営業所【福祉用具貸与】釧路市中島町12番30号", "url2": "https://www.kaigokensaku.mhlw.go.jp/01/index.php?action_kouhyou_detail_004_kani=true&JigyosyoCd=0174100552-00&ServiceCd=170&Type=search" }, "geometry": { "type": "Point", "coordinates": [ 144.389121100000011, 42.9993693 ] } },
{ "type": "Feature", "properties": { "内容": "エア・ウォーター・ライフソリューション株式会社　釧路営業所【福祉用具貸与】北海道釧路市寿4丁目3番10号", "url2": "https://www.kaigokensaku.mhlw.go.jp/01/index.php?action_kouhyou_detail_004_kani=true&JigyosyoCd=0174142919-00&ServiceCd=170&Type=search" }, "geometry": { "type": "Point", "coordinates": [ 144.3720154, 42.9932619 ] } },
{ "type": "Feature", "properties": { "内容": "ＤＣＭ星が浦店【福祉用具貸与】北海道釧路市星が浦大通２丁目６番３６号", "url2": "https://www.kaigokensaku.mhlw.go.jp/01/index.php?action_kouhyou_detail_004_kani=true&JigyosyoCd=0174142620-00&ServiceCd=170&Type=search" }, "geometry": { "type": "Point", "coordinates": [ 144.3244805, 43.01465480000001 ] } },
{ "type": "Feature", "properties": { "内容": "介護ショップホットハート【福祉用具貸与】北海道釧路市愛国東2丁目1番17号", "url2": "https://www.kaigokensaku.mhlw.go.jp/01/index.php?action_kouhyou_detail_004_kani=true&JigyosyoCd=0174101477-00&ServiceCd=170&Type=search" }, "geometry": { "type": "Point", "coordinates": [ 144.392048299999942, 43.0054328 ] } },
{ "type": "Feature", "properties": { "内容": "株式会社フロンティア釧路営業所【福祉用具貸与】釧路市若竹町１４番１２号", "url2": "https://www.kaigokensaku.mhlw.go.jp/01/index.php?action_kouhyou_detail_004_kani=true&JigyosyoCd=0174100685-00&ServiceCd=170&Type=search" }, "geometry": { "type": "Point", "coordinates": [ 144.377580500000022, 43.001519 ] } },
{ "type": "Feature", "properties": { "内容": "株式会社マルベリーさわやかセンター釧路【福祉用具貸与】釧路市鳥取大通9丁目4番23号", "url2": "https://www.kaigokensaku.mhlw.go.jp/01/index.php?action_kouhyou_detail_004_kani=true&JigyosyoCd=0174101295-00&ServiceCd=170&Type=search" }, "geometry": { "type": "Point", "coordinates": [ 144.331260509227349, 43.017847849075871 ] } },
{ "type": "Feature", "properties": { "内容": "株式会社メルプ福祉事業部【福祉用具貸与】釧路市豊川町１０番２号", "url2": "https://www.kaigokensaku.mhlw.go.jp/01/index.php?action_kouhyou_detail_004_kani=true&JigyosyoCd=0174100115-00&ServiceCd=170&Type=search" }, "geometry": { "type": "Point", "coordinates": [ 144.378768900000068, 43.0090543 ] } },
{ "type": "Feature", "properties": { "内容": "株式会社　釧路ケア企画　介護ショップほほえみ本店【福祉用具貸与】北海道釧路市昭和南３丁目15番10号", "url2": "https://www.kaigokensaku.mhlw.go.jp/01/index.php?action_kouhyou_detail_004_kani=true&JigyosyoCd=0174100164-00&ServiceCd=170&Type=search" }, "geometry": { "type": "Point", "coordinates": [ 144.357667699999979, 43.020886200000014 ] } },
{ "type": "Feature", "properties": { "内容": "福祉用具専門店　丸福【福祉用具貸与】北海道帯広市西12条南31丁目16", "url2": "https://www.kaigokensaku.mhlw.go.jp/01/index.php?action_kouhyou_detail_004_kani=true&JigyosyoCd=0174602110-00&ServiceCd=170&Type=search" }, "geometry": { "type": "Point", "coordinates": [ 143.188699499999984, 42.8950186 ] } },
{ "type": "Feature", "properties": { "内容": "株式会社　ディステリア京屋　福祉事業部【福祉用具貸与】帯広市西８条南６丁目７番地", "url2": "https://www.kaigokensaku.mhlw.go.jp/01/index.php?action_kouhyou_detail_004_kani=true&JigyosyoCd=0174600999-00&ServiceCd=170&Type=search" }, "geometry": { "type": "Point", "coordinates": [ 143.193075908073411, 42.92419375355739 ] } },
{ "type": "Feature", "properties": { "内容": "エア・ウォーター・ライフソリューション株式会社　帯広営業所【福祉用具貸与】北海道帯広市西22条南1丁目3番地", "url2": "https://www.kaigokensaku.mhlw.go.jp/01/index.php?action_kouhyou_detail_004_kani=true&JigyosyoCd=0174602987-00&ServiceCd=170&Type=search" }, "geometry": { "type": "Point", "coordinates": [ 143.1315859, 42.9252735 ] } },
{ "type": "Feature", "properties": { "内容": "ＤＣＭ稲田店【福祉用具貸与】北海道帯広市稲田町南９線西９－１", "url2": "https://www.kaigokensaku.mhlw.go.jp/01/index.php?action_kouhyou_detail_004_kani=true&JigyosyoCd=0174602771-00&ServiceCd=170&Type=search" }, "geometry": { "type": "Point", "coordinates": [ 143.199694599999987, 42.8873385 ] } },
{ "type": "Feature", "properties": { "内容": "サニーサイド福祉用具貸与事業所【福祉用具貸与】帯広市西8条北5丁目1番地2", "url2": "https://www.kaigokensaku.mhlw.go.jp/01/index.php?action_kouhyou_detail_004_kani=true&JigyosyoCd=0174601815-00&ServiceCd=170&Type=search" }, "geometry": { "type": "Point", "coordinates": [ 143.190053300000045, 42.9372442 ] } },
{ "type": "Feature", "properties": { "内容": "ダスキンヘルスレント十勝ステーション【福祉用具貸与】北海道帯広市大通南21丁目5番地", "url2": "https://www.kaigokensaku.mhlw.go.jp/01/index.php?action_kouhyou_detail_004_kani=true&JigyosyoCd=0174600775-00&ServiceCd=170&Type=search" }, "geometry": { "type": "Point", "coordinates": [ 143.206888479484491, 42.908368070786615 ] } },
{ "type": "Feature", "properties": { "内容": "福祉用具貸与事業所サトレン【福祉用具貸与】北海道帯広市西11条南11丁目４", "url2": "https://www.kaigokensaku.mhlw.go.jp/01/index.php?action_kouhyou_detail_004_kani=true&JigyosyoCd=0174602516-00&ServiceCd=170&Type=search" }, "geometry": { "type": "Point", "coordinates": [ 143.188703728836117, 42.918516896632013 ] } },
{ "type": "Feature", "properties": { "内容": "株式会社ツーピース【福祉用具貸与】北海道帯広市西23条南3丁目67番地9", "url2": "https://www.kaigokensaku.mhlw.go.jp/01/index.php?action_kouhyou_detail_004_kani=true&JigyosyoCd=0174602623-00&ServiceCd=170&Type=search" }, "geometry": { "type": "Point", "coordinates": [ 143.124767595952505, 42.913291621041083 ] } },
{ "type": "Feature", "properties": { "内容": "株式会社マルベリー　さわやかセンター帯広【福祉用具貸与】帯広市西19条南1丁目7番地14", "url2": "https://www.kaigokensaku.mhlw.go.jp/01/index.php?action_kouhyou_detail_004_kani=true&JigyosyoCd=0174601161-00&ServiceCd=170&Type=search" }, "geometry": { "type": "Point", "coordinates": [ 143.156123500000035, 42.9252467 ] } },
{ "type": "Feature", "properties": { "内容": "福祉用具貸与事業所ふるさと【福祉用具貸与】帯広市白樺16条東5丁目10番地", "url2": "https://www.kaigokensaku.mhlw.go.jp/01/index.php?action_kouhyou_detail_004_kani=true&JigyosyoCd=0174601757-00&ServiceCd=170&Type=search" }, "geometry": { "type": "Point", "coordinates": [ 143.178124499999967, 42.918943 ] } },
{ "type": "Feature", "properties": { "内容": "帯広ライフケアサービス【福祉用具貸与】北海道帯広市西16条北1丁目13番地99", "url2": "https://www.kaigokensaku.mhlw.go.jp/01/index.php?action_kouhyou_detail_004_kani=true&JigyosyoCd=0174601518-00&ServiceCd=170&Type=search" }, "geometry": { "type": "Point", "coordinates": [ 143.174871, 42.934827212889523 ] } },
{ "type": "Feature", "properties": { "内容": "有限会社メイフとびた福祉用具貸与事業所【福祉用具貸与】北海道帯広市西5条南28丁目2番地1", "url2": "https://www.kaigokensaku.mhlw.go.jp/01/index.php?action_kouhyou_detail_004_kani=true&JigyosyoCd=0174600171-00&ServiceCd=170&Type=search" }, "geometry": { "type": "Point", "coordinates": [ 143.2005203, 42.8999048 ] } },
{ "type": "Feature", "properties": { "内容": "株式会社ホームセンター坂本福祉用具貸与事業部　AGT【福祉用具貸与】北海道北見市中央三輪6丁目443番地１", "url2": "https://www.kaigokensaku.mhlw.go.jp/01/index.php?action_kouhyou_detail_004_kani=true&JigyosyoCd=0175012483-00&ServiceCd=170&Type=search" }, "geometry": { "type": "Point", "coordinates": [ 143.853035399999953, 43.7971393 ] } },
{ "type": "Feature", "properties": { "内容": "鈴音介護サービス【福祉用具貸与】北見市公園町１６１－７", "url2": "https://www.kaigokensaku.mhlw.go.jp/01/index.php?action_kouhyou_detail_004_kani=true&JigyosyoCd=0175013085-00&ServiceCd=170&Type=search" }, "geometry": { "type": "Point", "coordinates": [ 143.9089821, 43.8217176 ] } },
{ "type": "Feature", "properties": { "内容": "介護レンタル　フィール【福祉用具貸与】北海道北見市西三輪7丁目6番地", "url2": "https://www.kaigokensaku.mhlw.go.jp/01/index.php?action_kouhyou_detail_004_kani=true&JigyosyoCd=0175012335-00&ServiceCd=170&Type=search" }, "geometry": { "type": "Point", "coordinates": [ 143.832208900000069, 43.796919800000019 ] } },
{ "type": "Feature", "properties": { "内容": "株式会社　安全【福祉用具貸与】北見市光西町172番地", "url2": "https://www.kaigokensaku.mhlw.go.jp/01/index.php?action_kouhyou_detail_004_kani=true&JigyosyoCd=0175000744-00&ServiceCd=170&Type=search" }, "geometry": { "type": "Point", "coordinates": [ 143.866498200000024, 43.798209 ] } },
{ "type": "Feature", "properties": { "内容": "介護ショップいきいき倶楽部さかぐち【福祉用具貸与】北海道北見市留辺蘂町東町18番地", "url2": "https://www.kaigokensaku.mhlw.go.jp/01/index.php?action_kouhyou_detail_004_kani=true&JigyosyoCd=0175000355-00&ServiceCd=170&Type=search" }, "geometry": { "type": "Point", "coordinates": [ 143.622335900000053, 43.7875035 ] } },
{ "type": "Feature", "properties": { "内容": "家具サロン北装介護レンタル【福祉用具貸与】北見市東相内町12番地4", "url2": "https://www.kaigokensaku.mhlw.go.jp/01/index.php?action_kouhyou_detail_004_kani=true&JigyosyoCd=0175000447-00&ServiceCd=170&Type=search" }, "geometry": { "type": "Point", "coordinates": [ 143.827228600000012, 43.7995334 ] } },
{ "type": "Feature", "properties": { "内容": "在宅環境サービス株式会社【福祉用具貸与】北見市東三輪４丁目１６番地３８", "url2": "https://www.kaigokensaku.mhlw.go.jp/01/index.php?action_kouhyou_detail_004_kani=true&JigyosyoCd=0175011980-00&ServiceCd=170&Type=search" }, "geometry": { "type": "Point", "coordinates": [ 143.859151600000018, 43.7966895 ] } },
{ "type": "Feature", "properties": { "内容": "三好メディカル株式会社　福祉用具貸与事業所【福祉用具貸与】北見市卸町1丁目10番地5", "url2": "https://www.kaigokensaku.mhlw.go.jp/01/index.php?action_kouhyou_detail_004_kani=true&JigyosyoCd=0175000157-00&ServiceCd=170&Type=search" }, "geometry": { "type": "Point", "coordinates": [ 143.835683499999959, 43.804269 ] } },
{ "type": "Feature", "properties": { "内容": "介護ショップこばやし【福祉用具貸与】北見市本町５丁目６番１１号", "url2": "https://www.kaigokensaku.mhlw.go.jp/01/index.php?action_kouhyou_detail_004_kani=true&JigyosyoCd=0175000090-00&ServiceCd=170&Type=search" }, "geometry": { "type": "Point", "coordinates": [ 143.877899899999989, 43.8000035 ] } },
{ "type": "Feature", "properties": { "内容": "エア・ウォーター・ライフソリューション株式会社北見営業所【福祉用具貸与】北海道北見市小泉238番地1", "url2": "https://www.kaigokensaku.mhlw.go.jp/01/index.php?action_kouhyou_detail_004_kani=true&JigyosyoCd=0175013119-00&ServiceCd=170&Type=search" }, "geometry": { "type": "Point", "coordinates": [ 143.9213636, 43.8304352 ] } },
{ "type": "Feature", "properties": { "内容": "株式会社梅川医科器械店　北見営業所【福祉用具貸与】北海道北見市端野町三区480番地2", "url2": "https://www.kaigokensaku.mhlw.go.jp/01/index.php?action_kouhyou_detail_004_kani=true&JigyosyoCd=0175012913-00&ServiceCd=170&Type=search" }, "geometry": { "type": "Point", "coordinates": [ 143.9407048, 43.8513368 ] } },
{ "type": "Feature", "properties": { "内容": "ダスキンヘルスレント北見ステーション【福祉用具貸与】北海道北見市卸町１丁目１０－１", "url2": "https://www.kaigokensaku.mhlw.go.jp/01/index.php?action_kouhyou_detail_004_kani=true&JigyosyoCd=0175000488-00&ServiceCd=170&Type=search" }, "geometry": { "type": "Point", "coordinates": [ 143.836893720189948, 43.804350960063537 ] } },
{ "type": "Feature", "properties": { "内容": "サウレ福祉用具貸与事業所【福祉用具貸与】北海道岩見沢市9条西13丁目1番地12", "url2": "https://www.kaigokensaku.mhlw.go.jp/01/index.php?action_kouhyou_detail_004_kani=true&JigyosyoCd=0175701234-00&ServiceCd=170&Type=search" }, "geometry": { "type": "Point", "coordinates": [ 141.759050500000058, 43.193192 ] } },
{ "type": "Feature", "properties": { "内容": "株式会社マルベリー　さわやかセンター岩見沢【福祉用具貸与】岩見沢市大和3条5丁目15", "url2": "https://www.kaigokensaku.mhlw.go.jp/01/index.php?action_kouhyou_detail_004_kani=true&JigyosyoCd=0175700889-00&ServiceCd=170&Type=search" }, "geometry": { "type": "Point", "coordinates": [ 141.745127599999932, 43.1892442 ] } },
{ "type": "Feature", "properties": { "内容": "株式会社悠愛介護用品レンタル・販売事業部【福祉用具貸与】北海道岩見沢市北本町東1丁目2-3", "url2": "https://www.kaigokensaku.mhlw.go.jp/01/index.php?action_kouhyou_detail_004_kani=true&JigyosyoCd=0175701085-00&ServiceCd=170&Type=search" }, "geometry": { "type": "Point", "coordinates": [ 141.760872595098618, 43.210024808291664 ] } },
{ "type": "Feature", "properties": { "内容": "ふくろうの杜【福祉用具貸与】北海道岩見沢市西川町５１１番地４", "url2": "https://www.kaigokensaku.mhlw.go.jp/01/index.php?action_kouhyou_detail_004_kani=true&JigyosyoCd=0175700095-00&ServiceCd=170&Type=search" }, "geometry": { "type": "Point", "coordinates": [ 141.74384329999998, 43.2122082 ] } },
{ "type": "Feature", "properties": { "内容": "有限会社　北海道環境福祉サービス【福祉用具貸与】岩見沢市2条東11丁目25-1サービス付き高齢者向け住宅・グランドヴィラ～縁～", "url2": "https://www.kaigokensaku.mhlw.go.jp/01/index.php?action_kouhyou_detail_004_kani=true&JigyosyoCd=0175700186-00&ServiceCd=170&Type=search" }, "geometry": { "type": "Point", "coordinates": [ 141.776562486708031, 43.210788062141617 ] } },
{ "type": "Feature", "properties": { "内容": "ニック株式会社　北海道中央営業所【福祉用具貸与】北海道岩見沢市5条東10丁目2", "url2": "https://www.kaigokensaku.mhlw.go.jp/01/index.php?action_kouhyou_detail_004_kani=true&JigyosyoCd=0175700053-00&ServiceCd=170&Type=search" }, "geometry": { "type": "Point", "coordinates": [ 141.775441, 43.207659600000035 ] } },
{ "type": "Feature", "properties": { "内容": "福祉用具貸与・販売専門店　まち福【福祉用具貸与】ふじ町１条３丁目３番１８号", "url2": "https://www.kaigokensaku.mhlw.go.jp/01/index.php?action_kouhyou_detail_004_kani=true&JigyosyoCd=0175701317-00&ServiceCd=170&Type=search" }, "geometry": { "type": "Point", "coordinates": [ 141.7536724, 43.1662534 ] } },
{ "type": "Feature", "properties": { "内容": "Ｏｆｆｉｃｅ言の葉【福祉用具貸与】北海道網走市字天都山１２番地の２１", "url2": "https://www.kaigokensaku.mhlw.go.jp/01/index.php?action_kouhyou_detail_004_kani=true&JigyosyoCd=0175300789-00&ServiceCd=170&Type=search" }, "geometry": { "type": "Point", "coordinates": [ 144.259989300000029, 44.0191663 ] } },
{ "type": "Feature", "properties": { "内容": "介護ショップ　あばしり　こばやし【福祉用具貸与】網走市桂町5丁目3番1号", "url2": "https://www.kaigokensaku.mhlw.go.jp/01/index.php?action_kouhyou_detail_004_kani=true&JigyosyoCd=0175300318-00&ServiceCd=170&Type=search" }, "geometry": { "type": "Point", "coordinates": [ 144.26901840000005, 44.0096883 ] } },
{ "type": "Feature", "properties": { "内容": "有限会社　粟生家具店【福祉用具貸与】北海道網走市南5条東3丁目7番地", "url2": "https://www.kaigokensaku.mhlw.go.jp/01/index.php?action_kouhyou_detail_004_kani=true&JigyosyoCd=0175300284-00&ServiceCd=170&Type=search" }, "geometry": { "type": "Point", "coordinates": [ 144.2714286, 44.0205362 ] } },
{ "type": "Feature", "properties": { "内容": "シニアライフあや【福祉用具貸与】北海道留萌市東雲町2丁目62番地住宅型有料老人ホームあや内", "url2": "https://www.kaigokensaku.mhlw.go.jp/01/index.php?action_kouhyou_detail_004_kani=true&JigyosyoCd=0176400638-00&ServiceCd=170&Type=search" }, "geometry": { "type": "Point", "coordinates": [ 141.673920599999974, 43.9310578 ] } },
{ "type": "Feature", "properties": { "内容": "株式会社　萌福祉サービス福祉用具貸与事業所【福祉用具貸与】留萌市開運町１丁目２番１号", "url2": "https://www.kaigokensaku.mhlw.go.jp/01/index.php?action_kouhyou_detail_004_kani=true&JigyosyoCd=0176400018-00&ServiceCd=170&Type=search" }, "geometry": { "type": "Point", "coordinates": [ 141.650036300000011, 43.9391457 ] } },
{ "type": "Feature", "properties": { "内容": "ファミリーケアサポート福祉用具貸与事業所【福祉用具貸与】北海道留萌市栄町一丁目５番33号", "url2": "https://www.kaigokensaku.mhlw.go.jp/01/index.php?action_kouhyou_detail_004_kani=true&JigyosyoCd=0176400497-00&ServiceCd=170&Type=search" }, "geometry": { "type": "Point", "coordinates": [ 141.6492, 43.9422509 ] } },
{ "type": "Feature", "properties": { "内容": "コスモルモイ福祉用具貸与事業所【福祉用具貸与】北海道留萌市錦町1丁目4-8中心街ビル", "url2": "https://www.kaigokensaku.mhlw.go.jp/01/index.php?action_kouhyou_detail_004_kani=true&JigyosyoCd=0176400737-00&ServiceCd=170&Type=search" }, "geometry": { "type": "Point", "coordinates": [ 141.6427708, 43.9399664 ] } },
{ "type": "Feature", "properties": { "内容": "エア・ウォーター・ライフソリューション株式会社苫小牧営業所（福祉介護）【福祉用具貸与】北海道苫小牧市若草町1丁目1番21号", "url2": "https://www.kaigokensaku.mhlw.go.jp/01/index.php?action_kouhyou_detail_004_kani=true&JigyosyoCd=0173629940-00&ServiceCd=170&Type=search" }, "geometry": { "type": "Point", "coordinates": [ 141.6103333, 42.6401228 ] } },
{ "type": "Feature", "properties": { "内容": "介護ショップ　そら【福祉用具貸与】北海道苫小牧市しらかば町４丁目２２番１３号柏マンションC", "url2": "https://www.kaigokensaku.mhlw.go.jp/01/index.php?action_kouhyou_detail_004_kani=true&JigyosyoCd=0173602400-00&ServiceCd=170&Type=search" }, "geometry": { "type": "Point", "coordinates": [ 141.535040900000013, 42.6246136 ] } },
{ "type": "Feature", "properties": { "内容": "株式会社　マルベリー　さわやかセンター苫小牧【福祉用具貸与】苫小牧市弥生町2丁目12-4", "url2": "https://www.kaigokensaku.mhlw.go.jp/01/index.php?action_kouhyou_detail_004_kani=true&JigyosyoCd=0173601162-00&ServiceCd=170&Type=search" }, "geometry": { "type": "Point", "coordinates": [ 141.5779963, 42.627529 ] } },
{ "type": "Feature", "properties": { "内容": "ダスキンヘルスレント苫小牧ステーション【福祉用具貸与】苫小牧市明野新町６丁目２８番１６号", "url2": "https://www.kaigokensaku.mhlw.go.jp/01/index.php?action_kouhyou_detail_004_kani=true&JigyosyoCd=0173600792-00&ServiceCd=170&Type=search" }, "geometry": { "type": "Point", "coordinates": [ 141.627585932540882, 42.661268096998931 ] } },
{ "type": "Feature", "properties": { "内容": "福祉用具販売貸与事業所　フルールハピネスとまこまい【福祉用具貸与】北海道苫小牧市字錦岡443番地443", "url2": "https://www.kaigokensaku.mhlw.go.jp/01/index.php?action_kouhyou_detail_004_kani=true&JigyosyoCd=0173601592-00&ServiceCd=170&Type=search" }, "geometry": { "type": "Point", "coordinates": [ 141.491584900000021, 42.6267757 ] } },
{ "type": "Feature", "properties": { "内容": "株式会社エンパイアー　ホームヘルスケア事業部　苫小牧営業所【福祉用具貸与】苫小牧市日新町1丁目2番17号", "url2": "https://www.kaigokensaku.mhlw.go.jp/01/index.php?action_kouhyou_detail_004_kani=true&JigyosyoCd=0173600388-00&ServiceCd=170&Type=search" }, "geometry": { "type": "Point", "coordinates": [ 141.545872499999973, 42.6319136 ] } },
{ "type": "Feature", "properties": { "内容": "株式会社マルキタ家具センター【福祉用具貸与】苫小牧市有明町2丁目７番３３号", "url2": "https://www.kaigokensaku.mhlw.go.jp/01/index.php?action_kouhyou_detail_004_kani=true&JigyosyoCd=0173600230-00&ServiceCd=170&Type=search" }, "geometry": { "type": "Point", "coordinates": [ 141.551047700000026, 42.618614800000017 ] } },
{ "type": "Feature", "properties": { "内容": "レンタルサポート　ケイト【福祉用具貸与】北海道稚内市港1丁目3番8号", "url2": "https://www.kaigokensaku.mhlw.go.jp/01/index.php?action_kouhyou_detail_004_kani=true&JigyosyoCd=0176701084-00&ServiceCd=170&Type=search" }, "geometry": { "type": "Point", "coordinates": [ 141.674353, 45.4087597 ] } },
{ "type": "Feature", "properties": { "内容": "株式会社カブトヤ【福祉用具貸与】北海道稚内市潮見４丁目３番１７号", "url2": "https://www.kaigokensaku.mhlw.go.jp/01/index.php?action_kouhyou_detail_004_kani=true&JigyosyoCd=0176700060-00&ServiceCd=170&Type=search" }, "geometry": { "type": "Point", "coordinates": [ 141.7047887, 45.3948508 ] } },
{ "type": "Feature", "properties": { "内容": "東洋メディカル株式会社福祉用具貸与事業所【福祉用具貸与】北海道稚内市萩見5丁目1番15号", "url2": "https://www.kaigokensaku.mhlw.go.jp/01/index.php?action_kouhyou_detail_004_kani=true&JigyosyoCd=0176700136-00&ServiceCd=170&Type=search" }, "geometry": { "type": "Point", "coordinates": [ 141.70684719999997, 45.3880377 ] } },
{ "type": "Feature", "properties": { "内容": "株式会社環商事【福祉用具貸与】北海道美唄市東６条北５丁目３番１号", "url2": "https://www.kaigokensaku.mhlw.go.jp/01/index.php?action_kouhyou_detail_004_kani=true&JigyosyoCd=0176100014-00&ServiceCd=170&Type=search" }, "geometry": { "type": "Point", "coordinates": [ 141.880730200000016, 43.3356429 ] } },
{ "type": "Feature", "properties": { "内容": "福祉用具貸与事業所ネグきしもと【福祉用具貸与】北海道江別市大麻東町13-9", "url2": "https://www.kaigokensaku.mhlw.go.jp/01/index.php?action_kouhyou_detail_004_kani=true&JigyosyoCd=0171000375-00&ServiceCd=170&Type=search" }, "geometry": { "type": "Point", "coordinates": [ 141.497871400000037, 43.079203900000017 ] } },
{ "type": "Feature", "properties": { "内容": "福祉用具事業所ゆうあい【福祉用具貸与】北海道江別市中央町31番地の6", "url2": "https://www.kaigokensaku.mhlw.go.jp/01/index.php?action_kouhyou_detail_004_kani=true&JigyosyoCd=0171001902-00&ServiceCd=170&Type=search" }, "geometry": { "type": "Point", "coordinates": [ 141.5195946, 43.1031058 ] } },
{ "type": "Feature", "properties": { "内容": "有限会社丸東ユニバーサルサービス【福祉用具貸与】北海道江別市牧場町15番地の17", "url2": "https://www.kaigokensaku.mhlw.go.jp/01/index.php?action_kouhyou_detail_004_kani=true&JigyosyoCd=0171000722-00&ServiceCd=170&Type=search" }, "geometry": { "type": "Point", "coordinates": [ 141.5377128, 43.1137989 ] } },
{ "type": "Feature", "properties": { "内容": "福祉用具one【福祉用具貸与】北海道江別市大麻東町31-5グループハウス楓内", "url2": "https://www.kaigokensaku.mhlw.go.jp/01/index.php?action_kouhyou_detail_004_kani=true&JigyosyoCd=0171002124-00&ServiceCd=170&Type=search" }, "geometry": { "type": "Point", "coordinates": [ 141.500136, 43.0797487 ] } },
{ "type": "Feature", "properties": { "内容": "株式会社北海道フォレスト【福祉用具貸与】北海道江別市大麻東町15番地の5", "url2": "https://www.kaigokensaku.mhlw.go.jp/01/index.php?action_kouhyou_detail_004_kani=true&JigyosyoCd=0171001167-00&ServiceCd=170&Type=search" }, "geometry": { "type": "Point", "coordinates": [ 141.502213755242764, 43.081943615757886 ] } },
{ "type": "Feature", "properties": { "内容": "えあ・うぉーたーらいふそりゅーしょんかぶしきかいしゃえべつさーびすせんたーふくし【福祉用具貸与】北海道江別市向ヶ丘49番地6", "url2": "https://www.kaigokensaku.mhlw.go.jp/01/index.php?action_kouhyou_detail_004_kani=true&JigyosyoCd=0171002181-00&ServiceCd=170&Type=search" }, "geometry": { "type": "Point", "coordinates": [ 141.531581100000011, 43.1076299 ] } },
{ "type": "Feature", "properties": { "内容": "アイウェル【福祉用具貸与】北海道江別市緑町西1丁目25-1", "url2": "https://www.kaigokensaku.mhlw.go.jp/01/index.php?action_kouhyou_detail_004_kani=true&JigyosyoCd=0171002041-00&ServiceCd=170&Type=search" }, "geometry": { "type": "Point", "coordinates": [ 141.5503286, 43.1141772 ] } },
{ "type": "Feature", "properties": { "内容": "株式会社丸キ宮川商店　介護ショップみやかわ【福祉用具貸与】北海道紋別市本町４丁目２番７号", "url2": "https://www.kaigokensaku.mhlw.go.jp/01/index.php?action_kouhyou_detail_004_kani=true&JigyosyoCd=0175100254-00&ServiceCd=170&Type=search" }, "geometry": { "type": "Point", "coordinates": [ 143.355027487171952, 44.352984999882246 ] } },
{ "type": "Feature", "properties": { "内容": "福祉用具の店うぃず・らいふ【福祉用具貸与】北海道士別市東５条１１丁目８８３－７", "url2": "https://www.kaigokensaku.mhlw.go.jp/01/index.php?action_kouhyou_detail_004_kani=true&JigyosyoCd=0173200825-00&ServiceCd=170&Type=search" }, "geometry": { "type": "Point", "coordinates": [ 142.401453800000013, 44.1720373 ] } },
{ "type": "Feature", "properties": { "内容": "株式会社マルベリーさわやかセンター名寄【福祉用具貸与】北海道名寄市西10条北2丁目13-17", "url2": "https://www.kaigokensaku.mhlw.go.jp/01/index.php?action_kouhyou_detail_004_kani=true&JigyosyoCd=0173200999-00&ServiceCd=170&Type=search" }, "geometry": { "type": "Point", "coordinates": [ 142.450015300000018, 44.3584401 ] } },
{ "type": "Feature", "properties": { "内容": "藤田産業株式会社福祉事業部【福祉用具貸与】北海道名寄市西５条南７丁目１５", "url2": "https://www.kaigokensaku.mhlw.go.jp/01/index.php?action_kouhyou_detail_004_kani=true&JigyosyoCd=0173200536-00&ServiceCd=170&Type=search" }, "geometry": { "type": "Point", "coordinates": [ 142.456232300000011, 44.3491997 ] } },
{ "type": "Feature", "properties": { "内容": "株式会社ヒシサン【福祉用具貸与】北海道根室市大正町３丁目７番地", "url2": "https://www.kaigokensaku.mhlw.go.jp/01/index.php?action_kouhyou_detail_004_kani=true&JigyosyoCd=0174200626-00&ServiceCd=170&Type=search" }, "geometry": { "type": "Point", "coordinates": [ 145.585973500000023, 43.3276373 ] } },
{ "type": "Feature", "properties": { "内容": "介護ショップワタナベ福祉用具取扱事業所【福祉用具貸与】根室市桂木110番地", "url2": "https://www.kaigokensaku.mhlw.go.jp/01/index.php?action_kouhyou_detail_004_kani=true&JigyosyoCd=0174200261-00&ServiceCd=170&Type=search" }, "geometry": { "type": "Point", "coordinates": [ 145.606524900000068, 43.3097067 ] } },
{ "type": "Feature", "properties": { "内容": "株式会社クリーン開発福祉事業部【福祉用具貸与】北海道千歳市流通１丁目４番７号", "url2": "https://www.kaigokensaku.mhlw.go.jp/01/index.php?action_kouhyou_detail_004_kani=true&JigyosyoCd=0171100084-00&ServiceCd=170&Type=search" }, "geometry": { "type": "Point", "coordinates": [ 141.677175614076731, 42.821104380473393 ] } },
{ "type": "Feature", "properties": { "内容": "ダスキンヘルスレント千歳ステーション【福祉用具貸与】北海道千歳市朝日町５丁目１－１", "url2": "https://www.kaigokensaku.mhlw.go.jp/01/index.php?action_kouhyou_detail_004_kani=true&JigyosyoCd=0171100332-00&ServiceCd=170&Type=search" }, "geometry": { "type": "Point", "coordinates": [ 141.653461900000025, 42.8196523 ] } },
{ "type": "Feature", "properties": { "内容": "有限会社　新富メディカル・サービス【福祉用具貸与】千歳市柏陽5丁目5番地の3", "url2": "https://www.kaigokensaku.mhlw.go.jp/01/index.php?action_kouhyou_detail_004_kani=true&JigyosyoCd=0171100092-00&ServiceCd=170&Type=search" }, "geometry": { "type": "Point", "coordinates": [ 141.588326599999959, 42.7812901 ] } },
{ "type": "Feature", "properties": { "内容": "西出福祉サービス千歳【福祉用具貸与】千歳市清流7丁目9番7号", "url2": "https://www.kaigokensaku.mhlw.go.jp/01/index.php?action_kouhyou_detail_004_kani=true&JigyosyoCd=0171101025-00&ServiceCd=170&Type=search" }, "geometry": { "type": "Point", "coordinates": [ 141.65872371996636, 42.847171511249272 ] } },
{ "type": "Feature", "properties": { "内容": "エア・ウォーター・ライフソリューション株式会社　滝川営業所【福祉用具貸与】滝川市泉町2丁目８番８号", "url2": "https://www.kaigokensaku.mhlw.go.jp/01/index.php?action_kouhyou_detail_004_kani=true&JigyosyoCd=0177540762-00&ServiceCd=170&Type=search" }, "geometry": { "type": "Point", "coordinates": [ 141.892118300000021, 43.5730944 ] } },
{ "type": "Feature", "properties": { "内容": "西出福祉サービス空知【福祉用具貸与】北海道滝川市黄金町東３丁目１番８号　西出興業(株)　滝川支店　内", "url2": "https://www.kaigokensaku.mhlw.go.jp/01/index.php?action_kouhyou_detail_004_kani=true&JigyosyoCd=0177500055-00&ServiceCd=170&Type=search" }, "geometry": { "type": "Point", "coordinates": [ 141.917348800000013, 43.5753906 ] } },
{ "type": "Feature", "properties": { "内容": "ふくしようぐたいよじぎょうしょりんごのさと【福祉用具貸与】晴見3条北8丁目3番5号ガーデンりんごの里", "url2": "https://www.kaigokensaku.mhlw.go.jp/01/index.php?action_kouhyou_detail_004_kani=true&JigyosyoCd=0177100310-00&ServiceCd=170&Type=search" }, "geometry": { "type": "Point", "coordinates": [ 141.9253211, 43.4975414 ] } },
{ "type": "Feature", "properties": { "内容": "株式会社マルベリ-さわやかセンタ-空知【福祉用具貸与】砂川市西7条北22丁目122-9", "url2": "https://www.kaigokensaku.mhlw.go.jp/01/index.php?action_kouhyou_detail_004_kani=true&JigyosyoCd=0177100385-00&ServiceCd=170&Type=search" }, "geometry": { "type": "Point", "coordinates": [ 141.90736694051904, 43.524569515217614 ] } },
{ "type": "Feature", "properties": { "内容": "ケアショップ　エス・エー・シー【福祉用具貸与】北海道深川市５条１２番９号", "url2": "https://www.kaigokensaku.mhlw.go.jp/01/index.php?action_kouhyou_detail_004_kani=true&JigyosyoCd=0177400694-00&ServiceCd=170&Type=search" }, "geometry": { "type": "Point", "coordinates": [ 142.0483018, 43.7196797 ] } },
{ "type": "Feature", "properties": { "内容": "株式会社　能登家具店【福祉用具貸与】北海道深川市3条9番地24号", "url2": "https://www.kaigokensaku.mhlw.go.jp/01/index.php?action_kouhyou_detail_004_kani=true&JigyosyoCd=0177400371-00&ServiceCd=170&Type=search" }, "geometry": { "type": "Point", "coordinates": [ 142.043586399999981, 43.7195105 ] } },
{ "type": "Feature", "properties": { "内容": "株式会社富良野タクシー　介護・福祉ショップポピー【福祉用具貸与】富良野市本町2番3号", "url2": "https://www.kaigokensaku.mhlw.go.jp/01/index.php?action_kouhyou_detail_004_kani=true&JigyosyoCd=0173000092-00&ServiceCd=170&Type=search" }, "geometry": { "type": "Point", "coordinates": [ 142.38828860000001, 43.3469004 ] } },
{ "type": "Feature", "properties": { "内容": "ことぶき商事株式会社【福祉用具貸与】北海道登別市中登別町２４番地118", "url2": "https://www.kaigokensaku.mhlw.go.jp/01/index.php?action_kouhyou_detail_004_kani=true&JigyosyoCd=0173500174-00&ServiceCd=170&Type=search" }, "geometry": { "type": "Point", "coordinates": [ 141.16829830000006, 42.4642577 ] } },
{ "type": "Feature", "properties": { "内容": "株式会社マルベリー　さわやかセンター室蘭登別【福祉用具貸与】北海道登別市新生町4丁目16-3", "url2": "https://www.kaigokensaku.mhlw.go.jp/01/index.php?action_kouhyou_detail_004_kani=true&JigyosyoCd=0173501958-00&ServiceCd=170&Type=search" }, "geometry": { "type": "Point", "coordinates": [ 141.066607440475451, 42.380962061912321 ] } },
{ "type": "Feature", "properties": { "内容": "株式会社コスモ商事【福祉用具貸与】北海道恵庭市恵み野西2丁目3-2", "url2": "https://www.kaigokensaku.mhlw.go.jp/01/index.php?action_kouhyou_detail_004_kani=true&JigyosyoCd=0171200330-00&ServiceCd=170&Type=search" }, "geometry": { "type": "Point", "coordinates": [ 141.576664899999969, 42.9005403 ] } },
{ "type": "Feature", "properties": { "内容": "株式会社マルベリーさわやかセンター恵庭【福祉用具貸与】恵庭市柏陽町３丁目13-3", "url2": "https://www.kaigokensaku.mhlw.go.jp/01/index.php?action_kouhyou_detail_004_kani=true&JigyosyoCd=0171200439-00&ServiceCd=170&Type=search" }, "geometry": { "type": "Point", "coordinates": [ 141.57151829999998, 42.8950602 ] } },
{ "type": "Feature", "properties": { "内容": "株式会社恵み野介護サービス【福祉用具貸与】恵庭市有明町1丁目8番8号", "url2": "https://www.kaigokensaku.mhlw.go.jp/01/index.php?action_kouhyou_detail_004_kani=true&JigyosyoCd=0171200033-00&ServiceCd=170&Type=search" }, "geometry": { "type": "Point", "coordinates": [ 141.5705769, 42.8900023 ] } },
{ "type": "Feature", "properties": { "内容": "レンタルサービス湘南【福祉用具貸与】北海道伊達市松ヶ枝町１５７番１１０", "url2": "https://www.kaigokensaku.mhlw.go.jp/01/index.php?action_kouhyou_detail_004_kani=true&JigyosyoCd=0173700212-00&ServiceCd=170&Type=search" }, "geometry": { "type": "Point", "coordinates": [ 140.883904799999982, 42.4765841 ] } },
{ "type": "Feature", "properties": { "内容": "福祉用具貸与事業所Eはうす札幌【福祉用具貸与】北広島市西の里北1丁目1番地18", "url2": "https://www.kaigokensaku.mhlw.go.jp/01/index.php?action_kouhyou_detail_004_kani=true&JigyosyoCd=0171301088-00&ServiceCd=170&Type=search" }, "geometry": { "type": "Point", "coordinates": [ 141.5017592, 43.0155404 ] } },
{ "type": "Feature", "properties": { "内容": "福祉用具販売貸与事業所setsu【福祉用具貸与】北海道北広島市大曲幸町3丁目1番地11", "url2": "https://www.kaigokensaku.mhlw.go.jp/01/index.php?action_kouhyou_detail_004_kani=true&JigyosyoCd=0171300999-00&ServiceCd=170&Type=search" }, "geometry": { "type": "Point", "coordinates": [ 141.4737424, 42.9698482 ] } },
{ "type": "Feature", "properties": { "内容": "アット福祉用具販売貸与事業所【福祉用具貸与】石狩市花川北５条２丁目106", "url2": "https://www.kaigokensaku.mhlw.go.jp/01/index.php?action_kouhyou_detail_004_kani=true&JigyosyoCd=0177600392-00&ServiceCd=170&Type=search" }, "geometry": { "type": "Point", "coordinates": [ 141.318236299999967, 43.165585 ] } },
{ "type": "Feature", "properties": { "内容": "NORTHCARE【福祉用具貸与】北海道石狩市花川南9条4丁目35番地", "url2": "https://www.kaigokensaku.mhlw.go.jp/01/index.php?action_kouhyou_detail_004_kani=true&JigyosyoCd=0177640562-00&ServiceCd=170&Type=search" }, "geometry": { "type": "Point", "coordinates": [ 141.284458547238728, 43.137972439391248 ] } },
{ "type": "Feature", "properties": { "内容": "福祉用具貸与事業所RISE【福祉用具貸与】北海道石狩市花川北6条2丁目88番地", "url2": "https://www.kaigokensaku.mhlw.go.jp/01/index.php?action_kouhyou_detail_004_kani=true&JigyosyoCd=0177640737-00&ServiceCd=170&Type=search" }, "geometry": { "type": "Point", "coordinates": [ 141.318533699999989, 43.1707586 ] } },
{ "type": "Feature", "properties": { "内容": "福祉用具貸与事業所ぬくもりおたすけ隊【福祉用具貸与】北海道石狩市花川南9条4丁目86番地サービス付き高齢者向け住宅ぬくもり花川", "url2": "https://www.kaigokensaku.mhlw.go.jp/01/index.php?action_kouhyou_detail_004_kani=true&JigyosyoCd=0177600657-00&ServiceCd=170&Type=search" }, "geometry": { "type": "Point", "coordinates": [ 141.28702340000001, 43.1374818 ] } },
{ "type": "Feature", "properties": { "内容": "合同会社リハビリフォーム【福祉用具貸与】北海道石狩市花川南3条4丁目219", "url2": "https://www.kaigokensaku.mhlw.go.jp/01/index.php?action_kouhyou_detail_004_kani=true&JigyosyoCd=0177640711-00&ServiceCd=170&Type=search" }, "geometry": { "type": "Point", "coordinates": [ 141.301539055938235, 43.147690013084535 ] } },
{ "type": "Feature", "properties": { "内容": "株式会社　サンメディック【福祉用具貸与】北海道北斗市七重浜２丁目３２番３４号", "url2": "https://www.kaigokensaku.mhlw.go.jp/01/index.php?action_kouhyou_detail_004_kani=true&JigyosyoCd=0171500440-00&ServiceCd=170&Type=search" }, "geometry": { "type": "Point", "coordinates": [ 140.707451160249292, 41.817586589492542 ] } },
{ "type": "Feature", "properties": { "内容": "ひより屋北斗【福祉用具貸与】北海道北斗市中央2丁目3番9号", "url2": "https://www.kaigokensaku.mhlw.go.jp/01/index.php?action_kouhyou_detail_004_kani=true&JigyosyoCd=0171502008-00&ServiceCd=170&Type=search" }, "geometry": { "type": "Point", "coordinates": [ 140.6522749, 41.8232128 ] } },
{ "type": "Feature", "properties": { "内容": "有限会社にしむら薬局【福祉用具貸与】北海道松前郡松前町字松城12番地の１", "url2": "https://www.kaigokensaku.mhlw.go.jp/01/index.php?action_kouhyou_detail_004_kani=true&JigyosyoCd=0141443408-00&ServiceCd=170&Type=search" }, "geometry": { "type": "Point", "coordinates": [ 140.108565499999941, 41.4282116 ] } },
{ "type": "Feature", "properties": { "内容": "有限会社コーリュウ森営業所【福祉用具貸与】北海道茅部郡森町字森川町278-55", "url2": "https://www.kaigokensaku.mhlw.go.jp/01/index.php?action_kouhyou_detail_004_kani=true&JigyosyoCd=0171500408-00&ServiceCd=170&Type=search" }, "geometry": { "type": "Point", "coordinates": [ 140.579237400000011, 42.0994846 ] } },
{ "type": "Feature", "properties": { "内容": "株式会社あしすと【福祉用具貸与】北海道虻田郡倶知安町北４条東１丁目１番地", "url2": "https://www.kaigokensaku.mhlw.go.jp/01/index.php?action_kouhyou_detail_004_kani=true&JigyosyoCd=0172200339-00&ServiceCd=170&Type=search" }, "geometry": { "type": "Point", "coordinates": [ 140.753506099999981, 42.9044539 ] } },
{ "type": "Feature", "properties": { "内容": "福祉用具貸与いわない【福祉用具貸与】北海道岩内郡岩内町字清住１６７岩内町老人福祉センター内", "url2": "https://www.kaigokensaku.mhlw.go.jp/01/index.php?action_kouhyou_detail_004_kani=true&JigyosyoCd=0172300089-00&ServiceCd=170&Type=search" }, "geometry": { "type": "Point", "coordinates": [ 140.504892899999959, 42.979671 ] } },
{ "type": "Feature", "properties": { "内容": "有限会社栗林家具店【福祉用具貸与】北海道岩内郡岩内町字万代19番地の8", "url2": "https://www.kaigokensaku.mhlw.go.jp/01/index.php?action_kouhyou_detail_004_kani=true&JigyosyoCd=0172300261-00&ServiceCd=170&Type=search" }, "geometry": { "type": "Point", "coordinates": [ 140.5164469, 42.982607 ] } },
{ "type": "Feature", "properties": { "内容": "大橋畳家具店福祉用具貸与事業所【福祉用具貸与】北海道岩内郡岩内町大和2-5", "url2": "https://www.kaigokensaku.mhlw.go.jp/01/index.php?action_kouhyou_detail_004_kani=true&JigyosyoCd=0172300188-00&ServiceCd=170&Type=search" }, "geometry": { "type": "Point", "coordinates": [ 140.509696654631057, 42.98130553072999 ] } },
{ "type": "Feature", "properties": { "内容": "有限会社ひろし家具店福祉用具貸与事業所【福祉用具貸与】北海道余市郡余市町黒川町3丁目1番地", "url2": "https://www.kaigokensaku.mhlw.go.jp/01/index.php?action_kouhyou_detail_004_kani=true&JigyosyoCd=0172500209-00&ServiceCd=170&Type=search" }, "geometry": { "type": "Point", "coordinates": [ 140.792280900000037, 43.1903994 ] } },
{ "type": "Feature", "properties": { "内容": "ドラックストアーさとう福祉用具貸与事業所【福祉用具貸与】北海道余市郡余市町大川町4丁目77番地1", "url2": "https://www.kaigokensaku.mhlw.go.jp/01/index.php?action_kouhyou_detail_004_kani=true&JigyosyoCd=0172500019-00&ServiceCd=170&Type=search" }, "geometry": { "type": "Point", "coordinates": [ 140.794491224467492, 43.192305364811858 ] } },
{ "type": "Feature", "properties": { "内容": "有限会社山本【福祉用具貸与】北海道夕張郡長沼町錦町南１丁目1-17", "url2": "https://www.kaigokensaku.mhlw.go.jp/01/index.php?action_kouhyou_detail_004_kani=true&JigyosyoCd=0175800234-00&ServiceCd=170&Type=search" }, "geometry": { "type": "Point", "coordinates": [ 141.69023530000004, 43.0110141 ] } },
{ "type": "Feature", "properties": { "内容": "有限会社高杉【福祉用具貸与】北海道夕張郡栗山町中央2丁目189", "url2": "https://www.kaigokensaku.mhlw.go.jp/01/index.php?action_kouhyou_detail_004_kani=true&JigyosyoCd=0175809540-00&ServiceCd=170&Type=search" }, "geometry": { "type": "Point", "coordinates": [ 141.777112799999941, 43.0600955 ] } },
{ "type": "Feature", "properties": { "内容": "有限会社丸小旗矢金物店【福祉用具貸与】夕張郡栗山町中央２丁目６９番地", "url2": "https://www.kaigokensaku.mhlw.go.jp/01/index.php?action_kouhyou_detail_004_kani=true&JigyosyoCd=0175800168-00&ServiceCd=170&Type=search" }, "geometry": { "type": "Point", "coordinates": [ 141.777675166270427, 43.058555674657491 ] } },
{ "type": "Feature", "properties": { "内容": "株式会社　近藤組　スマイルサポートグループ【福祉用具貸与】北海道上川郡和寒町字三笠９９番地", "url2": "https://www.kaigokensaku.mhlw.go.jp/01/index.php?action_kouhyou_detail_004_kani=true&JigyosyoCd=0173200965-00&ServiceCd=170&Type=search" }, "geometry": { "type": "Point", "coordinates": [ 142.41786419999994, 44.021566 ] } },
{ "type": "Feature", "properties": { "内容": "株式会社馬場商店福祉用具貸与事業所【福祉用具貸与】北海道中川郡美深町大通北２丁目１０番地", "url2": "https://www.kaigokensaku.mhlw.go.jp/01/index.php?action_kouhyou_detail_004_kani=true&JigyosyoCd=0173200247-00&ServiceCd=170&Type=search" }, "geometry": { "type": "Point", "coordinates": [ 142.345266700000025, 44.4835674 ] } },
{ "type": "Feature", "properties": { "内容": "エア・ウォーター・ライフソリューション株式会社　浜頓別サービスセンター【福祉用具貸与】北海道枝幸郡浜頓別町智福２丁目２９番地", "url2": "https://www.kaigokensaku.mhlw.go.jp/01/index.php?action_kouhyou_detail_004_kani=true&JigyosyoCd=0176711182-00&ServiceCd=170&Type=search" }, "geometry": { "type": "Point", "coordinates": [ 142.356220411639413, 45.144725309506882 ] } },
{ "type": "Feature", "properties": { "内容": "岩津薬房株式会社【福祉用具貸与】北海道枝幸郡枝幸町新栄町４７４２番地", "url2": "https://www.kaigokensaku.mhlw.go.jp/01/index.php?action_kouhyou_detail_004_kani=true&JigyosyoCd=0176700177-00&ServiceCd=170&Type=search" }, "geometry": { "type": "Point", "coordinates": [ 142.581622097359912, 44.941889996356963 ] } },
{ "type": "Feature", "properties": { "内容": "株式会社ナガタ【福祉用具貸与】北海道斜里郡斜里町文光町４８番地２０", "url2": "https://www.kaigokensaku.mhlw.go.jp/01/index.php?action_kouhyou_detail_004_kani=true&JigyosyoCd=0175300516-00&ServiceCd=170&Type=search" }, "geometry": { "type": "Point", "coordinates": [ 144.660068582139587, 43.906012348523859 ] } },
{ "type": "Feature", "properties": { "内容": "有限会社　ウェルネスイシイ【福祉用具貸与】斜里郡清里町水元町8番地１", "url2": "https://www.kaigokensaku.mhlw.go.jp/01/index.php?action_kouhyou_detail_004_kani=true&JigyosyoCd=0175300144-00&ServiceCd=170&Type=search" }, "geometry": { "type": "Point", "coordinates": [ 144.595470200000022, 43.8397379 ] } },
{ "type": "Feature", "properties": { "内容": "福祉用具ショップ小清水【福祉用具貸与】北海道斜里郡小清水町字中里263番地", "url2": "https://www.kaigokensaku.mhlw.go.jp/01/index.php?action_kouhyou_detail_004_kani=true&JigyosyoCd=0175300821-00&ServiceCd=170&Type=search" }, "geometry": { "type": "Point", "coordinates": [ 144.4870181, 43.8836881 ] } },
{ "type": "Feature", "properties": { "内容": "遠軽町社協福祉用具貸与事業所【福祉用具貸与】紋別郡遠軽町1条通北1丁目1番地１遠軽町保健福祉総合センター内", "url2": "https://www.kaigokensaku.mhlw.go.jp/01/index.php?action_kouhyou_detail_004_kani=true&JigyosyoCd=0175400381-00&ServiceCd=170&Type=search" }, "geometry": { "type": "Point", "coordinates": [ 143.52976620000004, 44.0633838 ] } },
{ "type": "Feature", "properties": { "内容": "有限会社フレッシュケアーいわた【福祉用具貸与】紋別郡興部町字興部109", "url2": "https://www.kaigokensaku.mhlw.go.jp/01/index.php?action_kouhyou_detail_004_kani=true&JigyosyoCd=0175100114-00&ServiceCd=170&Type=search" }, "geometry": { "type": "Point", "coordinates": [ 143.127482742327857, 44.469743498963439 ] } },
{ "type": "Feature", "properties": { "内容": "株式会社ウェル福祉用具貸与販売事業所【福祉用具貸与】北海道白老郡白老町東町2丁目4番12号白老高齢者複合施設内1階", "url2": "https://www.kaigokensaku.mhlw.go.jp/01/index.php?action_kouhyou_detail_004_kani=true&JigyosyoCd=0173601949-00&ServiceCd=170&Type=search" }, "geometry": { "type": "Point", "coordinates": [ 141.426964699999985, 42.5962644 ] } },
{ "type": "Feature", "properties": { "内容": "げんき福祉用具貸与事業所【福祉用具貸与】北海道白老郡白老町大町2丁目1番21号", "url2": "https://www.kaigokensaku.mhlw.go.jp/01/index.php?action_kouhyou_detail_004_kani=true&JigyosyoCd=0173600560-00&ServiceCd=170&Type=search" }, "geometry": { "type": "Point", "coordinates": [ 141.3573434, 42.552643 ] } },
{ "type": "Feature", "properties": { "内容": "福祉用具レンタル・販売事業所Lifetime【福祉用具貸与】北海道勇払郡むかわ町花園2丁目45番地神野AP21号", "url2": "https://www.kaigokensaku.mhlw.go.jp/01/index.php?action_kouhyou_detail_004_kani=true&JigyosyoCd=0173629817-00&ServiceCd=170&Type=search" }, "geometry": { "type": "Point", "coordinates": [ 141.9323872, 42.5759197 ] } },
{ "type": "Feature", "properties": { "内容": "福祉用具レンタル・販売事業所GRACE【福祉用具貸与】北海道沙流郡日高町門別本町６２－１", "url2": "https://www.kaigokensaku.mhlw.go.jp/01/index.php?action_kouhyou_detail_004_kani=true&JigyosyoCd=0173801366-00&ServiceCd=170&Type=search" }, "geometry": { "type": "Point", "coordinates": [ 142.072856800000011, 42.4789168 ] } },
{ "type": "Feature", "properties": { "内容": "有効期限丸勝西村金物店介護福祉事業部【福祉用具貸与】北海道新冠郡新冠町字北星町18-9", "url2": "https://www.kaigokensaku.mhlw.go.jp/01/index.php?action_kouhyou_detail_004_kani=true&JigyosyoCd=0173801481-00&ServiceCd=170&Type=search" }, "geometry": { "type": "Point", "coordinates": [ 142.313678426983643, 42.365496426310649 ] } },
{ "type": "Feature", "properties": { "内容": "有限会社ハマシタ【福祉用具貸与】浦河郡浦河町築地３丁目４番２号", "url2": "https://www.kaigokensaku.mhlw.go.jp/01/index.php?action_kouhyou_detail_004_kani=true&JigyosyoCd=0173800319-00&ServiceCd=170&Type=search" }, "geometry": { "type": "Point", "coordinates": [ 142.765209199999958, 42.1734791 ] } },
{ "type": "Feature", "properties": { "内容": "福祉ショップべてる【福祉用具貸与】北海道浦河郡浦河町築地3丁目5番21号", "url2": "https://www.kaigokensaku.mhlw.go.jp/01/index.php?action_kouhyou_detail_004_kani=true&JigyosyoCd=0173801507-00&ServiceCd=170&Type=search" }, "geometry": { "type": "Point", "coordinates": [ 142.765935399999989, 42.1739034 ] } },
{ "type": "Feature", "properties": { "内容": "有限会社　酒井太陽堂薬房【福祉用具貸与】北海道様似郡様似町大通２丁目１番地", "url2": "https://www.kaigokensaku.mhlw.go.jp/01/index.php?action_kouhyou_detail_004_kani=true&JigyosyoCd=0173800210-00&ServiceCd=170&Type=search" }, "geometry": { "type": "Point", "coordinates": [ 142.935916099999986, 42.1264527 ] } },
{ "type": "Feature", "properties": { "内容": "株式会社丸正藤原商店介護福祉事業部【福祉用具貸与】北海道日高郡新ひだか町静内緑町７丁目１－２６", "url2": "https://www.kaigokensaku.mhlw.go.jp/01/index.php?action_kouhyou_detail_004_kani=true&JigyosyoCd=0173801127-00&ServiceCd=170&Type=search" }, "geometry": { "type": "Point", "coordinates": [ 142.375120899999956, 42.338165 ] } },
{ "type": "Feature", "properties": { "内容": "株式会社武岡商店　介護福祉事業部【福祉用具貸与】北海道日高郡新ひだか町静内吉野町１丁目１番４１号", "url2": "https://www.kaigokensaku.mhlw.go.jp/01/index.php?action_kouhyou_detail_004_kani=true&JigyosyoCd=0173800426-00&ServiceCd=170&Type=search" }, "geometry": { "type": "Point", "coordinates": [ 142.36603260000004, 42.3378869 ] } },
{ "type": "Feature", "properties": { "内容": "株式会社静内薬局【福祉用具貸与】日高郡新ひだか町静内吉野町1-1-8", "url2": "https://www.kaigokensaku.mhlw.go.jp/01/index.php?action_kouhyou_detail_004_kani=true&JigyosyoCd=0173801556-00&ServiceCd=170&Type=search" }, "geometry": { "type": "Point", "coordinates": [ 142.3665138, 42.3383708 ] } },
{ "type": "Feature", "properties": { "内容": "株式会社　中村薬局　介護事業部【福祉用具貸与】北海道日高郡新ひだか町三石港町５９番地", "url2": "https://www.kaigokensaku.mhlw.go.jp/01/index.php?action_kouhyou_detail_004_kani=true&JigyosyoCd=0143840510-00&ServiceCd=170&Type=search" }, "geometry": { "type": "Point", "coordinates": [ 142.550173300000012, 42.250607 ] } },
{ "type": "Feature", "properties": { "内容": "ケアライン合同会社【福祉用具貸与】北海道河東郡音更町北鈴蘭南5丁目6番地2", "url2": "https://www.kaigokensaku.mhlw.go.jp/01/index.php?action_kouhyou_detail_004_kani=true&JigyosyoCd=0174702142-00&ServiceCd=170&Type=search" }, "geometry": { "type": "Point", "coordinates": [ 143.188145873016396, 42.958229399356803 ] } },
{ "type": "Feature", "properties": { "内容": "有限会社やまぎし　福祉用具貸与事業所【福祉用具貸与】上川郡清水町本通３丁目１３番地", "url2": "https://www.kaigokensaku.mhlw.go.jp/01/index.php?action_kouhyou_detail_004_kani=true&JigyosyoCd=0174700930-00&ServiceCd=170&Type=search" }, "geometry": { "type": "Point", "coordinates": [ 142.882231700000034, 43.0149723 ] } },
{ "type": "Feature", "properties": { "内容": "介護ショップはなまる【福祉用具貸与】北海道河西郡芽室町東5条5丁目2番地１", "url2": "https://www.kaigokensaku.mhlw.go.jp/01/index.php?action_kouhyou_detail_004_kani=true&JigyosyoCd=0174701227-00&ServiceCd=170&Type=search" }, "geometry": { "type": "Point", "coordinates": [ 143.054783, 42.9157268 ] } },
{ "type": "Feature", "properties": { "内容": "ダスキンヘルスレント釧路ステーション【福祉用具貸与】北海道釧路郡釧路町桂２丁目２９－３", "url2": "https://www.kaigokensaku.mhlw.go.jp/01/index.php?action_kouhyou_detail_004_kani=true&JigyosyoCd=0174100883-00&ServiceCd=170&Type=search" }, "geometry": { "type": "Point", "coordinates": [ 144.40094160000001, 43.0055916 ] } },
{ "type": "Feature", "properties": { "内容": "福祉用具レンタルケアー・サポートまつやま【福祉用具貸与】北海道川上郡弟子屈町川湯温泉5丁目67番地102プレミエール101号室", "url2": "https://www.kaigokensaku.mhlw.go.jp/01/index.php?action_kouhyou_detail_004_kani=true&JigyosyoCd=0174300665-00&ServiceCd=170&Type=search" }, "geometry": { "type": "Point", "coordinates": [ 144.446587099999988, 43.6388239 ] } },
{ "type": "Feature", "properties": { "内容": "株式会社メルプ福祉事業部東部営業所【福祉用具貸与】北海道野付郡別海町別海常盤町138", "url2": "https://www.kaigokensaku.mhlw.go.jp/01/index.php?action_kouhyou_detail_004_kani=true&JigyosyoCd=0174200568-00&ServiceCd=170&Type=search" }, "geometry": { "type": "Point", "coordinates": [ 145.122598399999987, 43.3934043 ] } },
{ "type": "Feature", "properties": { "内容": "介護ショップケア太郎【福祉用具貸与】北海道野付郡別海町別海西本町９番地ファミリーショップＭＯＲＩＫＡＷＡ", "url2": "https://www.kaigokensaku.mhlw.go.jp/01/index.php?action_kouhyou_detail_004_kani=true&JigyosyoCd=0174200550-00&ServiceCd=170&Type=search" }, "geometry": { "type": "Point", "coordinates": [ 145.1247621, 43.3927933 ] } },
{ "type": "Feature", "properties": { "内容": "アズ介護サービス　ファミリア【福祉用具貸与】北海道標津郡中標津町東5条南1丁目1-1ピアビル1階", "url2": "https://www.kaigokensaku.mhlw.go.jp/01/index.php?action_kouhyou_detail_004_kani=true&JigyosyoCd=0174200501-00&ServiceCd=170&Type=search" }, "geometry": { "type": "Point", "coordinates": [ 144.978577299999984, 43.551143 ] } }
]
}
