{
"type": "FeatureCollection",
"name": "geo_01_訪問入浴介護",
"crs": { "type": "name", "properties": { "name": "urn:ogc:def:crs:OGC:1.3:CRS84" } },
"features": [
{ "type": "Feature", "properties": { "内容": "アサヒサンクリーン在宅介護センター札幌北【訪問入浴介護】札幌市北区麻生町６丁目６番９号あざぶマリオン１階", "url2": "https://www.kaigokensaku.mhlw.go.jp/01/index.php?action_kouhyou_detail_004_kani=true&JigyosyoCd=0170210231-00&ServiceCd=120&Type=search" }, "geometry": { "type": "Point", "coordinates": [ 141.340640400000012, 43.1125073 ] } },
{ "type": "Feature", "properties": { "内容": "アースサポート札幌【訪問入浴介護】北海道札幌市北区北25条西6丁目3番23号", "url2": "https://www.kaigokensaku.mhlw.go.jp/01/index.php?action_kouhyou_detail_004_kani=true&JigyosyoCd=0170201115-00&ServiceCd=120&Type=search" }, "geometry": { "type": "Point", "coordinates": [ 141.340639600000031, 43.0921057 ] } },
{ "type": "Feature", "properties": { "内容": "アサヒサンクリーン在宅介護センター札幌東【訪問入浴介護】札幌市東区北９条東16丁目１番13号", "url2": "https://www.kaigokensaku.mhlw.go.jp/01/index.php?action_kouhyou_detail_004_kani=true&JigyosyoCd=0170209894-00&ServiceCd=120&Type=search" }, "geometry": { "type": "Point", "coordinates": [ 141.378295900000012, 43.0762545 ] } },
{ "type": "Feature", "properties": { "内容": "ツクイ札幌東【訪問入浴介護】北海道札幌市東区北24条東21丁目7-22", "url2": "https://www.kaigokensaku.mhlw.go.jp/01/index.php?action_kouhyou_detail_004_kani=true&JigyosyoCd=0170209134-00&ServiceCd=120&Type=search" }, "geometry": { "type": "Point", "coordinates": [ 141.385783800000013, 43.0954519 ] } },
{ "type": "Feature", "properties": { "内容": "セントケア札幌白石【訪問入浴介護】南郷18丁目北3-9　MAPLE　HILLS南郷１階", "url2": "https://www.kaigokensaku.mhlw.go.jp/01/index.php?action_kouhyou_detail_004_kani=true&JigyosyoCd=0170515290-00&ServiceCd=120&Type=search" }, "geometry": { "type": "Point", "coordinates": [ 141.4347067, 43.0318034 ] } },
{ "type": "Feature", "properties": { "内容": "三井ヘルスサービス株式会社【訪問入浴介護】北海道札幌市豊平区平岸２条３丁目６－１３三井ビル平岸", "url2": "https://www.kaigokensaku.mhlw.go.jp/01/index.php?action_kouhyou_detail_004_kani=true&JigyosyoCd=0170500300-00&ServiceCd=120&Type=search" }, "geometry": { "type": "Point", "coordinates": [ 141.369441400000028, 43.0394969 ] } },
{ "type": "Feature", "properties": { "内容": "アサヒサンクリーン在宅介護センター札幌豊平【訪問入浴介護】札幌市豊平区中の島２条３丁目1-1グリーンコーポ中の島102", "url2": "https://www.kaigokensaku.mhlw.go.jp/01/index.php?action_kouhyou_detail_004_kani=true&JigyosyoCd=0170515894-00&ServiceCd=120&Type=search" }, "geometry": { "type": "Point", "coordinates": [ 141.3597834, 43.0362138 ] } },
{ "type": "Feature", "properties": { "内容": "アースサポート札幌南【訪問入浴介護】北海道札幌市南区澄川4条2丁目3番10号", "url2": "https://www.kaigokensaku.mhlw.go.jp/01/index.php?action_kouhyou_detail_004_kani=true&JigyosyoCd=0170503726-00&ServiceCd=120&Type=search" }, "geometry": { "type": "Point", "coordinates": [ 141.367672299999981, 43.016301 ] } },
{ "type": "Feature", "properties": { "内容": "セントケア札幌【訪問入浴介護】北海道札幌市西区琴似1条6丁目4-3　札幌琴似第一ビル１F", "url2": "https://www.kaigokensaku.mhlw.go.jp/01/index.php?action_kouhyou_detail_004_kani=true&JigyosyoCd=0170500110-00&ServiceCd=120&Type=search" }, "geometry": { "type": "Point", "coordinates": [ 141.301549099999988, 43.0741021 ] } },
{ "type": "Feature", "properties": { "内容": "ＳＯＭＰＯケア　札幌発寒　訪問入浴【訪問入浴介護】北海道札幌市西区発寒6条4丁目6番3号", "url2": "https://www.kaigokensaku.mhlw.go.jp/01/index.php?action_kouhyou_detail_004_kani=true&JigyosyoCd=0170404974-00&ServiceCd=120&Type=search" }, "geometry": { "type": "Point", "coordinates": [ 141.29242469999997, 43.0892759 ] } },
{ "type": "Feature", "properties": { "内容": "アースサポート札幌西【訪問入浴介護】北海道札幌市西区発寒4条2丁目3番10号", "url2": "https://www.kaigokensaku.mhlw.go.jp/01/index.php?action_kouhyou_detail_004_kani=true&JigyosyoCd=0170403133-00&ServiceCd=120&Type=search" }, "geometry": { "type": "Point", "coordinates": [ 141.297446700000023, 43.0855656 ] } },
{ "type": "Feature", "properties": { "内容": "合同会社レゾナ【訪問入浴介護】北海道札幌市西区八軒８条東２丁目２番２０号セントベル八軒３０５", "url2": "https://www.kaigokensaku.mhlw.go.jp/01/index.php?action_kouhyou_detail_004_kani=true&JigyosyoCd=0170406060-00&ServiceCd=120&Type=search" }, "geometry": { "type": "Point", "coordinates": [ 141.3189518, 43.0883905 ] } },
{ "type": "Feature", "properties": { "内容": "アサヒサンクリーン在宅介護センター札幌厚別【訪問入浴介護】北海道札幌市厚別区厚別中央３条１丁目６番３号", "url2": "https://www.kaigokensaku.mhlw.go.jp/01/index.php?action_kouhyou_detail_004_kani=true&JigyosyoCd=0170516108-00&ServiceCd=120&Type=search" }, "geometry": { "type": "Point", "coordinates": [ 141.45553670000001, 43.0336556 ] } },
{ "type": "Feature", "properties": { "内容": "アースサポート新札幌【訪問入浴介護】北海道札幌市厚別区厚別中央3条5丁目7番23号", "url2": "https://www.kaigokensaku.mhlw.go.jp/01/index.php?action_kouhyou_detail_004_kani=true&JigyosyoCd=0170506562-00&ServiceCd=120&Type=search" }, "geometry": { "type": "Point", "coordinates": [ 141.4719725, 43.0430762 ] } },
{ "type": "Feature", "properties": { "内容": "ＳＯＭＰＯケア函館昭和訪問入浴【訪問入浴介護】北海道函館市昭和4丁目30-35", "url2": "https://www.kaigokensaku.mhlw.go.jp/01/index.php?action_kouhyou_detail_004_kani=true&JigyosyoCd=0171404593-00&ServiceCd=120&Type=search" }, "geometry": { "type": "Point", "coordinates": [ 140.731966400000033, 41.8166858 ] } },
{ "type": "Feature", "properties": { "内容": "アースサポート函館【訪問入浴介護】北海道函館市富岡町３丁目１番１号", "url2": "https://www.kaigokensaku.mhlw.go.jp/01/index.php?action_kouhyou_detail_004_kani=true&JigyosyoCd=0171402258-00&ServiceCd=120&Type=search" }, "geometry": { "type": "Point", "coordinates": [ 140.752598499999976, 41.8075625 ] } },
{ "type": "Feature", "properties": { "内容": "アースサポート函館亀田港町【訪問入浴介護】北海道函館市亀田港町43-18", "url2": "https://www.kaigokensaku.mhlw.go.jp/01/index.php?action_kouhyou_detail_004_kani=true&JigyosyoCd=0171403389-00&ServiceCd=120&Type=search" }, "geometry": { "type": "Point", "coordinates": [ 140.7250187, 41.8101527 ] } },
{ "type": "Feature", "properties": { "内容": "藤井カンパニー合同会社【訪問入浴介護】北海道函館市富岡町1丁目29番14号コーポフジイⅡ　201号室", "url2": "https://www.kaigokensaku.mhlw.go.jp/01/index.php?action_kouhyou_detail_004_kani=true&JigyosyoCd=0171405459-00&ServiceCd=120&Type=search" }, "geometry": { "type": "Point", "coordinates": [ 140.746197099999989, 41.8042176 ] } },
{ "type": "Feature", "properties": { "内容": "アースサポート小樽【訪問入浴介護】北海道小樽市稲穂2丁目3番13号かもめビル", "url2": "https://www.kaigokensaku.mhlw.go.jp/01/index.php?action_kouhyou_detail_004_kani=true&JigyosyoCd=0172001505-00&ServiceCd=120&Type=search" }, "geometry": { "type": "Point", "coordinates": [ 140.99872240000002, 43.1971278 ] } },
{ "type": "Feature", "properties": { "内容": "アースサポート旭川【訪問入浴介護】北海道旭川市神居2条3丁目2番15号", "url2": "https://www.kaigokensaku.mhlw.go.jp/01/index.php?action_kouhyou_detail_004_kani=true&JigyosyoCd=0172903403-00&ServiceCd=120&Type=search" }, "geometry": { "type": "Point", "coordinates": [ 142.331205800000021, 43.7674459 ] } },
{ "type": "Feature", "properties": { "内容": "ツクイ旭川豊岡【訪問入浴介護】北海道旭川市豊岡7条8丁目5‐8", "url2": "https://www.kaigokensaku.mhlw.go.jp/01/index.php?action_kouhyou_detail_004_kani=true&JigyosyoCd=0172907941-00&ServiceCd=120&Type=search" }, "geometry": { "type": "Point", "coordinates": [ 142.419224899999989, 43.7639915 ] } },
{ "type": "Feature", "properties": { "内容": "株式会社訪問入浴介護サービス黒田【訪問入浴介護】北海道旭川市永山9条14丁目4番24号", "url2": "https://www.kaigokensaku.mhlw.go.jp/01/index.php?action_kouhyou_detail_004_kani=true&JigyosyoCd=0172903437-00&ServiceCd=120&Type=search" }, "geometry": { "type": "Point", "coordinates": [ 142.433118700000023, 43.7977991 ] } },
{ "type": "Feature", "properties": { "内容": "訪問入浴サービスほっとライフ【訪問入浴介護】北海道旭川市豊岡４条２丁目５番２４号", "url2": "https://www.kaigokensaku.mhlw.go.jp/01/index.php?action_kouhyou_detail_004_kani=true&JigyosyoCd=0172907180-00&ServiceCd=120&Type=search" }, "geometry": { "type": "Point", "coordinates": [ 142.39428655706098, 43.760221159596782 ] } },
{ "type": "Feature", "properties": { "内容": "ＳＯＭＰＯケア　室蘭入江　訪問入浴【訪問入浴介護】北海道室蘭市入江町1-11KAZU入江ビル　2階", "url2": "https://www.kaigokensaku.mhlw.go.jp/01/index.php?action_kouhyou_detail_004_kani=true&JigyosyoCd=0173502063-00&ServiceCd=120&Type=search" }, "geometry": { "type": "Point", "coordinates": [ 140.972974, 42.321247 ] } },
{ "type": "Feature", "properties": { "内容": "アースサポート室蘭【訪問入浴介護】北海道室蘭市寿町3丁目23番8号", "url2": "https://www.kaigokensaku.mhlw.go.jp/01/index.php?action_kouhyou_detail_004_kani=true&JigyosyoCd=0173501545-00&ServiceCd=120&Type=search" }, "geometry": { "type": "Point", "coordinates": [ 141.036571099999946, 42.3488442 ] } },
{ "type": "Feature", "properties": { "内容": "ＳＯＭＰＯケア　釧路愛国　訪問入浴【訪問入浴介護】北海道釧路市愛国東3-1-3今野貸事務所Ａ．Ｂ号", "url2": "https://www.kaigokensaku.mhlw.go.jp/01/index.php?action_kouhyou_detail_004_kani=true&JigyosyoCd=0174142430-00&ServiceCd=120&Type=search" }, "geometry": { "type": "Point", "coordinates": [ 144.388372789549294, 43.006916834507408 ] } },
{ "type": "Feature", "properties": { "内容": "アースサポート釧路【訪問入浴介護】北海道釧路市新富町9番21号", "url2": "https://www.kaigokensaku.mhlw.go.jp/01/index.php?action_kouhyou_detail_004_kani=true&JigyosyoCd=0174101584-00&ServiceCd=120&Type=search" }, "geometry": { "type": "Point", "coordinates": [ 144.391871, 42.9924703 ] } },
{ "type": "Feature", "properties": { "内容": "株式会社支援【訪問入浴介護】北海道帯広市西１７条南４丁目25番6号", "url2": "https://www.kaigokensaku.mhlw.go.jp/01/index.php?action_kouhyou_detail_004_kani=true&JigyosyoCd=0174602003-00&ServiceCd=120&Type=search" }, "geometry": { "type": "Point", "coordinates": [ 143.168958800000041, 42.9140905 ] } },
{ "type": "Feature", "properties": { "内容": "アースサポート帯広【訪問入浴介護】北海道帯広市東7条南14丁目１番地13", "url2": "https://www.kaigokensaku.mhlw.go.jp/01/index.php?action_kouhyou_detail_004_kani=true&JigyosyoCd=0174601401-00&ServiceCd=120&Type=search" }, "geometry": { "type": "Point", "coordinates": [ 143.216567899999973, 42.9167788 ] } },
{ "type": "Feature", "properties": { "内容": "ケアハウスグランドペアレント株式会社【訪問入浴介護】北海道帯広市南の森西2丁目4番地15", "url2": "https://www.kaigokensaku.mhlw.go.jp/01/index.php?action_kouhyou_detail_004_kani=true&JigyosyoCd=0174601542-00&ServiceCd=120&Type=search" }, "geometry": { "type": "Point", "coordinates": [ 143.16930739999998, 42.8839912 ] } },
{ "type": "Feature", "properties": { "内容": "ふれやか訪問入浴介護事業所【訪問入浴介護】北海道北見市大正56番地52", "url2": "https://www.kaigokensaku.mhlw.go.jp/01/index.php?action_kouhyou_detail_004_kani=true&JigyosyoCd=0175000728-00&ServiceCd=120&Type=search" }, "geometry": { "type": "Point", "coordinates": [ 143.840608, 43.8079242 ] } },
{ "type": "Feature", "properties": { "内容": "訪問入浴はな【訪問入浴介護】北海道北見市桜町6丁目1番地２", "url2": "https://www.kaigokensaku.mhlw.go.jp/01/index.php?action_kouhyou_detail_004_kani=true&JigyosyoCd=0175013002-00&ServiceCd=120&Type=search" }, "geometry": { "type": "Point", "coordinates": [ 143.9091527, 43.8087227 ] } },
{ "type": "Feature", "properties": { "内容": "アースサポート岩見沢【訪問入浴介護】北海道岩見沢市北３条西１１丁目１番３２号", "url2": "https://www.kaigokensaku.mhlw.go.jp/01/index.php?action_kouhyou_detail_004_kani=true&JigyosyoCd=0175700731-00&ServiceCd=120&Type=search" }, "geometry": { "type": "Point", "coordinates": [ 141.750700219049122, 43.205654482381121 ] } },
{ "type": "Feature", "properties": { "内容": "和幸ケア【訪問入浴介護】北海道岩見沢市志文町998-62", "url2": "https://www.kaigokensaku.mhlw.go.jp/01/index.php?action_kouhyou_detail_004_kani=true&JigyosyoCd=0175701333-00&ServiceCd=120&Type=search" }, "geometry": { "type": "Point", "coordinates": [ 141.7739013, 43.1714964 ] } },
{ "type": "Feature", "properties": { "内容": "アースサポート網走【訪問入浴介護】北海道網走市北5条西4丁目2番1号", "url2": "https://www.kaigokensaku.mhlw.go.jp/01/index.php?action_kouhyou_detail_004_kani=true&JigyosyoCd=0175300607-00&ServiceCd=120&Type=search" }, "geometry": { "type": "Point", "coordinates": [ 144.260360399999968, 44.025045 ] } },
{ "type": "Feature", "properties": { "内容": "指定訪問入浴・介護予防訪問入浴介護事業所　ぽかぽか【訪問入浴介護】北海道苫小牧市桜木町3丁目9番11号", "url2": "https://www.kaigokensaku.mhlw.go.jp/01/index.php?action_kouhyou_detail_004_kani=true&JigyosyoCd=0173629965-00&ServiceCd=120&Type=search" }, "geometry": { "type": "Point", "coordinates": [ 141.5501563, 42.6274763 ] } },
{ "type": "Feature", "properties": { "内容": "アースサポート　苫小牧【訪問入浴介護】北海道苫小牧市緑町１－２２－１５", "url2": "https://www.kaigokensaku.mhlw.go.jp/01/index.php?action_kouhyou_detail_004_kani=true&JigyosyoCd=0173601394-00&ServiceCd=120&Type=search" }, "geometry": { "type": "Point", "coordinates": [ 141.604765499999985, 42.6445566 ] } },
{ "type": "Feature", "properties": { "内容": "訪問入浴サービスたいよう【訪問入浴介護】苫小牧市日吉町4丁目1番14号", "url2": "https://www.kaigokensaku.mhlw.go.jp/01/index.php?action_kouhyou_detail_004_kani=true&JigyosyoCd=0173601626-00&ServiceCd=120&Type=search" }, "geometry": { "type": "Point", "coordinates": [ 141.558335299999953, 42.6238869 ] } },
{ "type": "Feature", "properties": { "内容": "赤平市社会福祉協議会　訪問入浴介護事業所【訪問入浴介護】北海道赤平市東大町３丁目４番地", "url2": "https://www.kaigokensaku.mhlw.go.jp/01/index.php?action_kouhyou_detail_004_kani=true&JigyosyoCd=0177200029-00&ServiceCd=120&Type=search" }, "geometry": { "type": "Point", "coordinates": [ 142.0573157, 43.5526807 ] } },
{ "type": "Feature", "properties": { "内容": "社会福祉法人紋別市社会福祉協議会【訪問入浴介護】北海道紋別市幸町７丁目１番１０号紋別市総合福祉センターはーとぴあ２１", "url2": "https://www.kaigokensaku.mhlw.go.jp/01/index.php?action_kouhyou_detail_004_kani=true&JigyosyoCd=0175100098-00&ServiceCd=120&Type=search" }, "geometry": { "type": "Point", "coordinates": [ 143.352056800000014, 44.3490098 ] } },
{ "type": "Feature", "properties": { "内容": "士別市社協訪問入浴事業所【訪問入浴介護】北海道士別市東５条３丁目１－１サポートセンターしべつ内", "url2": "https://www.kaigokensaku.mhlw.go.jp/01/index.php?action_kouhyou_detail_004_kani=true&JigyosyoCd=0173200635-00&ServiceCd=120&Type=search" }, "geometry": { "type": "Point", "coordinates": [ 142.398998200000051, 44.1792995 ] } },
{ "type": "Feature", "properties": { "内容": "アースサポート千歳【訪問入浴介護】北海道千歳市錦町1-14-1", "url2": "https://www.kaigokensaku.mhlw.go.jp/01/index.php?action_kouhyou_detail_004_kani=true&JigyosyoCd=0171100506-00&ServiceCd=120&Type=search" }, "geometry": { "type": "Point", "coordinates": [ 141.645901399999957, 42.8210658 ] } },
{ "type": "Feature", "properties": { "内容": "鶴の恩返し千歳【訪問入浴介護】北海道千歳市桜木5丁目1-6", "url2": "https://www.kaigokensaku.mhlw.go.jp/01/index.php?action_kouhyou_detail_004_kani=true&JigyosyoCd=0171101223-00&ServiceCd=120&Type=search" }, "geometry": { "type": "Point", "coordinates": [ 141.612365083603009, 42.841326456340909 ] } },
{ "type": "Feature", "properties": { "内容": "アースサポート滝川【訪問入浴介護】北海道滝川市東町８丁目３０６番地１６", "url2": "https://www.kaigokensaku.mhlw.go.jp/01/index.php?action_kouhyou_detail_004_kani=true&JigyosyoCd=0177500444-00&ServiceCd=120&Type=search" }, "geometry": { "type": "Point", "coordinates": [ 141.929198499999984, 43.5634726 ] } },
{ "type": "Feature", "properties": { "内容": "アースサポート深川【訪問入浴介護】北海道深川市4条3番4号", "url2": "https://www.kaigokensaku.mhlw.go.jp/01/index.php?action_kouhyou_detail_004_kani=true&JigyosyoCd=0177400686-00&ServiceCd=120&Type=search" }, "geometry": { "type": "Point", "coordinates": [ 142.03462499629515, 43.716233467752978 ] } },
{ "type": "Feature", "properties": { "内容": "訪問入浴ば～す【訪問入浴介護】北海道恵庭市戸磯595番8", "url2": "https://www.kaigokensaku.mhlw.go.jp/01/index.php?action_kouhyou_detail_004_kani=true&JigyosyoCd=0171200546-00&ServiceCd=120&Type=search" }, "geometry": { "type": "Point", "coordinates": [ 141.594425399999977, 42.8660533 ] } },
{ "type": "Feature", "properties": { "内容": "社会福祉法人福島町社会福祉協議会　指定訪問入浴介護事業所【訪問入浴介護】北海道松前郡福島町字三岳32-3福島町福祉センター内", "url2": "https://www.kaigokensaku.mhlw.go.jp/01/index.php?action_kouhyou_detail_004_kani=true&JigyosyoCd=0171500150-00&ServiceCd=120&Type=search" }, "geometry": { "type": "Point", "coordinates": [ 140.255184, 41.4860244 ] } },
{ "type": "Feature", "properties": { "内容": "グッドケア【訪問入浴介護】北海道古平郡古平町大字歌棄町204番地9　れい明の里介護支援センター内", "url2": "https://www.kaigokensaku.mhlw.go.jp/01/index.php?action_kouhyou_detail_004_kani=true&JigyosyoCd=0172500167-00&ServiceCd=120&Type=search" }, "geometry": { "type": "Point", "coordinates": [ 140.661371289410454, 43.248753792790033 ] } },
{ "type": "Feature", "properties": { "内容": "さまに訪問入浴サービス事業所【訪問入浴介護】北海道様似郡様似町大通２丁目98番地の２", "url2": "https://www.kaigokensaku.mhlw.go.jp/01/index.php?action_kouhyou_detail_004_kani=true&JigyosyoCd=0173800020-00&ServiceCd=120&Type=search" }, "geometry": { "type": "Point", "coordinates": [ 142.936363300000039, 42.1270055 ] } },
{ "type": "Feature", "properties": { "内容": "在宅老人ケアセンターらんらん訪問入浴介護事業所【訪問入浴介護】北海道河東郡音更町柏寿台１番地５", "url2": "https://www.kaigokensaku.mhlw.go.jp/01/index.php?action_kouhyou_detail_004_kani=true&JigyosyoCd=0174700146-00&ServiceCd=120&Type=search" }, "geometry": { "type": "Point", "coordinates": [ 143.193308964464677, 43.003808776528317 ] } },
{ "type": "Feature", "properties": { "内容": "別海町訪問入浴介護事業所【訪問入浴介護】北海道野付郡別海町別海西本町103番地3別海町老人保健施設すこやか内", "url2": "https://www.kaigokensaku.mhlw.go.jp/01/index.php?action_kouhyou_detail_004_kani=true&JigyosyoCd=0154280010-00&ServiceCd=120&Type=search" }, "geometry": { "type": "Point", "coordinates": [ 145.1231598, 43.3909683 ] } },
{ "type": "Feature", "properties": { "内容": "中標津町社協ケアサービスセンター【訪問入浴介護】北海道標津郡中標津町西10条南9丁目1", "url2": "https://www.kaigokensaku.mhlw.go.jp/01/index.php?action_kouhyou_detail_004_kani=true&JigyosyoCd=0174200030-00&ServiceCd=120&Type=search" }, "geometry": { "type": "Point", "coordinates": [ 144.971586800000068, 43.5370528 ] } }
]
}
