{
"type": "FeatureCollection",
"name": "geo_01_特定施設入居者生活介護（有料老人ホーム）",
"crs": { "type": "name", "properties": { "name": "urn:ogc:def:crs:OGC:1.3:CRS84" } },
"features": [
{ "type": "Feature", "properties": { "内容": "介護付き有料老人ホームふれあいの里グランハイム旭ヶ丘【特定施設入居者生活介護（有料老人ホーム）】北海道札幌市中央区南11条西23丁目3番1号ふれあいの里グランハイム旭ヶ丘", "url2": "https://www.kaigokensaku.mhlw.go.jp/01/index.php?action_kouhyou_detail_004_kani=true&JigyosyoCd=0170101463-00&ServiceCd=331&Type=search" }, "geometry": { "type": "Point", "coordinates": [ 141.321874900000012, 43.040939 ] } },
{ "type": "Feature", "properties": { "内容": "介護付き有料老人ホーム　ソレイユアネックス【特定施設入居者生活介護（有料老人ホーム）】札幌市中央区南7条西11丁目1-1", "url2": "https://www.kaigokensaku.mhlw.go.jp/01/index.php?action_kouhyou_detail_004_kani=true&JigyosyoCd=0170101323-00&ServiceCd=331&Type=search" }, "geometry": { "type": "Point", "coordinates": [ 141.341885600000012, 43.0512972 ] } },
{ "type": "Feature", "properties": { "内容": "シルバーハイツ中島公園【特定施設入居者生活介護（有料老人ホーム）】札幌市中央区南9条西6丁目1番36-2号", "url2": "https://www.kaigokensaku.mhlw.go.jp/01/index.php?action_kouhyou_detail_004_kani=true&JigyosyoCd=0170101646-00&ServiceCd=331&Type=search" }, "geometry": { "type": "Point", "coordinates": [ 141.351130199999943, 43.0484612 ] } },
{ "type": "Feature", "properties": { "内容": "メディカル・リハビリホームグランダ山鼻【特定施設入居者生活介護（有料老人ホーム）】北海道札幌市中央区南20条西12丁目2番27号", "url2": "https://www.kaigokensaku.mhlw.go.jp/01/index.php?action_kouhyou_detail_004_kani=true&JigyosyoCd=0170100390-00&ServiceCd=331&Type=search" }, "geometry": { "type": "Point", "coordinates": [ 141.34146938771454, 43.032419990930833 ] } },
{ "type": "Feature", "properties": { "内容": "ケアメゾン山鼻1号館【特定施設入居者生活介護（有料老人ホーム）】北海道札幌市中央区南21条西12丁目3番3号", "url2": "https://www.kaigokensaku.mhlw.go.jp/01/index.php?action_kouhyou_detail_004_kani=true&JigyosyoCd=0170105571-00&ServiceCd=331&Type=search" }, "geometry": { "type": "Point", "coordinates": [ 141.343155700000011, 43.0310035 ] } },
{ "type": "Feature", "properties": { "内容": "ケアメゾン山鼻2号館【特定施設入居者生活介護（有料老人ホーム）】北海道札幌市中央区南24条西15丁目1番9号", "url2": "https://www.kaigokensaku.mhlw.go.jp/01/index.php?action_kouhyou_detail_004_kani=true&JigyosyoCd=0170105589-00&ServiceCd=331&Type=search" }, "geometry": { "type": "Point", "coordinates": [ 141.338510599999978, 43.026736399999983 ] } },
{ "type": "Feature", "properties": { "内容": "介護付有料老人ホーム　ヴィラフローラ南円山【特定施設入居者生活介護（有料老人ホーム）】札幌市中央区南8条西26丁目1-1", "url2": "https://www.kaigokensaku.mhlw.go.jp/01/index.php?action_kouhyou_detail_004_kani=true&JigyosyoCd=0170101281-00&ServiceCd=331&Type=search" }, "geometry": { "type": "Point", "coordinates": [ 141.320847, 43.0451913 ] } },
{ "type": "Feature", "properties": { "内容": "そんぽの家苗穂【特定施設入居者生活介護（有料老人ホーム）】北海道札幌市中央区北二条東十三丁目1番2号", "url2": "https://www.kaigokensaku.mhlw.go.jp/01/index.php?action_kouhyou_detail_004_kani=true&JigyosyoCd=0170104269-00&ServiceCd=331&Type=search" }, "geometry": { "type": "Point", "coordinates": [ 141.378232900000057, 43.0670792 ] } },
{ "type": "Feature", "properties": { "内容": "フルールハピネスしのろ【特定施設入居者生活介護（有料老人ホーム）】札幌市北区篠路10条1丁目1番1号", "url2": "https://www.kaigokensaku.mhlw.go.jp/01/index.php?action_kouhyou_detail_004_kani=true&JigyosyoCd=0170202279-00&ServiceCd=331&Type=search" }, "geometry": { "type": "Point", "coordinates": [ 141.35342890000004, 43.1579055 ] } },
{ "type": "Feature", "properties": { "内容": "福福の里ケアサポート新川【特定施設入居者生活介護（有料老人ホーム）】北海道札幌市北区新川西１条４丁目２番８号", "url2": "https://www.kaigokensaku.mhlw.go.jp/01/index.php?action_kouhyou_detail_004_kani=true&JigyosyoCd=0170206924-00&ServiceCd=331&Type=search" }, "geometry": { "type": "Point", "coordinates": [ 141.277423900000031, 43.125513500000018 ] } },
{ "type": "Feature", "properties": { "内容": "介護付有料老人ホーム　楽居館【特定施設入居者生活介護（有料老人ホーム）】札幌市北区麻生町６丁目１３番４号", "url2": "https://www.kaigokensaku.mhlw.go.jp/01/index.php?action_kouhyou_detail_004_kani=true&JigyosyoCd=0170202162-00&ServiceCd=331&Type=search" }, "geometry": { "type": "Point", "coordinates": [ 141.338924600000041, 43.1118002 ] } },
{ "type": "Feature", "properties": { "内容": "介護付有料老人ホーム　フルールハピネスしのろ【特定施設入居者生活介護（有料老人ホーム）】北海道札幌市北区篠路10条１丁目１－１", "url2": "https://www.kaigokensaku.mhlw.go.jp/01/index.php?action_kouhyou_detail_004_kani=true&JigyosyoCd=0170208011-00&ServiceCd=331&Type=search" }, "geometry": { "type": "Point", "coordinates": [ 141.353385006745953, 43.157874834046794 ] } },
{ "type": "Feature", "properties": { "内容": "フェリスヴィラ東茨戸【特定施設入居者生活介護（有料老人ホーム）】北海道札幌市北区東茨戸2条2丁目7番20号", "url2": "https://www.kaigokensaku.mhlw.go.jp/01/index.php?action_kouhyou_detail_004_kani=true&JigyosyoCd=0170208029-00&ServiceCd=331&Type=search" }, "geometry": { "type": "Point", "coordinates": [ 141.356669373016302, 43.164920810826146 ] } },
{ "type": "Feature", "properties": { "内容": "医療法人社団誠仁会　介護付有料老人ホーム「ホーム北大通り」【特定施設入居者生活介護（有料老人ホーム）】札幌市北区北23条西4丁目2-23　プレイス24", "url2": "https://www.kaigokensaku.mhlw.go.jp/01/index.php?action_kouhyou_detail_004_kani=true&JigyosyoCd=0170203483-00&ServiceCd=331&Type=search" }, "geometry": { "type": "Point", "coordinates": [ 141.343385484655784, 43.089959075392279 ] } },
{ "type": "Feature", "properties": { "内容": "介護付きホーム　ふれあいの里　藍華【特定施設入居者生活介護（有料老人ホーム）】あいの里1条6丁目1-20", "url2": "https://www.kaigokensaku.mhlw.go.jp/01/index.php?action_kouhyou_detail_004_kani=true&JigyosyoCd=0170210074-00&ServiceCd=331&Type=search" }, "geometry": { "type": "Point", "coordinates": [ 141.4016087, 43.1554109 ] } },
{ "type": "Feature", "properties": { "内容": "介護付有料老人ホームらくら拓北壱番館【特定施設入居者生活介護（有料老人ホーム）】北海道札幌市北区拓北６条１丁目５－１５", "url2": "https://www.kaigokensaku.mhlw.go.jp/01/index.php?action_kouhyou_detail_004_kani=true&JigyosyoCd=0170203616-00&ServiceCd=331&Type=search" }, "geometry": { "type": "Point", "coordinates": [ 141.374424399999953, 43.1561817 ] } },
{ "type": "Feature", "properties": { "内容": "ライフドリーム新道東【特定施設入居者生活介護（有料老人ホーム）】北海道札幌市東区北34条東21丁目１－７", "url2": "https://www.kaigokensaku.mhlw.go.jp/01/index.php?action_kouhyou_detail_004_kani=true&JigyosyoCd=0170512974-00&ServiceCd=331&Type=search" }, "geometry": { "type": "Point", "coordinates": [ 141.378688300000022, 43.1038998 ] } },
{ "type": "Feature", "properties": { "内容": "介護付有料老人ホームうらら伏古【特定施設入居者生活介護（有料老人ホーム）】札幌市東区伏古９条２丁目６番１号", "url2": "https://www.kaigokensaku.mhlw.go.jp/01/index.php?action_kouhyou_detail_004_kani=true&JigyosyoCd=0170202543-00&ServiceCd=331&Type=search" }, "geometry": { "type": "Point", "coordinates": [ 141.392882200000031, 43.0942153 ] } },
{ "type": "Feature", "properties": { "内容": "介護付有料老人ホームせんり【特定施設入居者生活介護（有料老人ホーム）】北海道札幌市東区北24条東22丁目7－7", "url2": "https://www.kaigokensaku.mhlw.go.jp/01/index.php?action_kouhyou_detail_004_kani=true&JigyosyoCd=0170202592-00&ServiceCd=331&Type=search" }, "geometry": { "type": "Point", "coordinates": [ 141.387041, 43.095603900000015 ] } },
{ "type": "Feature", "properties": { "内容": "介護付有料老人ホーム　麻生の郷【特定施設入居者生活介護（有料老人ホーム）】北海道札幌市東区北39条東1丁目2番1号", "url2": "https://www.kaigokensaku.mhlw.go.jp/01/index.php?action_kouhyou_detail_004_kani=true&JigyosyoCd=0170209282-00&ServiceCd=331&Type=search" }, "geometry": { "type": "Point", "coordinates": [ 141.345483699999988, 43.1071398 ] } },
{ "type": "Feature", "properties": { "内容": "グッドタイムホーム・伏古【特定施設入居者生活介護（有料老人ホーム）】北海道札幌市東区伏古３条５丁目１番２０号", "url2": "https://www.kaigokensaku.mhlw.go.jp/01/index.php?action_kouhyou_detail_004_kani=true&JigyosyoCd=0170208995-00&ServiceCd=331&Type=search" }, "geometry": { "type": "Point", "coordinates": [ 141.39375290000001, 43.0835252 ] } },
{ "type": "Feature", "properties": { "内容": "ライフドリーム札幌東【特定施設入居者生活介護（有料老人ホーム）】札幌市東区苗穂町16丁目4-11", "url2": "https://www.kaigokensaku.mhlw.go.jp/01/index.php?action_kouhyou_detail_004_kani=true&JigyosyoCd=0170512982-00&ServiceCd=331&Type=search" }, "geometry": { "type": "Point", "coordinates": [ 141.397244799999953, 43.0708599 ] } },
{ "type": "Feature", "properties": { "内容": "介護付き有料老人ホーム　ノーステラス環状東【特定施設入居者生活介護（有料老人ホーム）】本町2条1丁目1番6号フィッシュランドビル", "url2": "https://www.kaigokensaku.mhlw.go.jp/01/index.php?action_kouhyou_detail_004_kani=true&JigyosyoCd=0170209803-00&ServiceCd=331&Type=search" }, "geometry": { "type": "Point", "coordinates": [ 141.3792291, 43.0820826 ] } },
{ "type": "Feature", "properties": { "内容": "介護付き有料老人ホーム　カルナシア栄町【特定施設入居者生活介護（有料老人ホーム）】北海道札幌市東区北46条東18丁目4番15号", "url2": "https://www.kaigokensaku.mhlw.go.jp/01/index.php?action_kouhyou_detail_004_kani=true&JigyosyoCd=0170209563-00&ServiceCd=331&Type=search" }, "geometry": { "type": "Point", "coordinates": [ 141.3696373, 43.1193511 ] } },
{ "type": "Feature", "properties": { "内容": "SOMPOケアラヴィーレ白石南郷【特定施設入居者生活介護（有料老人ホーム）】北海道札幌市白石区南郷通3丁目北2番1号ラヴィーレ白石南郷", "url2": "https://www.kaigokensaku.mhlw.go.jp/01/index.php?action_kouhyou_detail_004_kani=true&JigyosyoCd=0170515688-00&ServiceCd=331&Type=search" }, "geometry": { "type": "Point", "coordinates": [ 141.4026608, 43.0449805 ] } },
{ "type": "Feature", "properties": { "内容": "ベストライフ白石【特定施設入居者生活介護（有料老人ホーム）】北海道札幌市白石区本通14北5-15", "url2": "https://www.kaigokensaku.mhlw.go.jp/01/index.php?action_kouhyou_detail_004_kani=true&JigyosyoCd=0170514301-00&ServiceCd=331&Type=search" }, "geometry": { "type": "Point", "coordinates": [ 141.429525399999989, 43.0387703 ] } },
{ "type": "Feature", "properties": { "内容": "ベストライフ東札幌【特定施設入居者生活介護（有料老人ホーム）】北海道札幌市白石区東札幌1条2丁目3-1", "url2": "https://www.kaigokensaku.mhlw.go.jp/01/index.php?action_kouhyou_detail_004_kani=true&JigyosyoCd=0170514319-00&ServiceCd=331&Type=search" }, "geometry": { "type": "Point", "coordinates": [ 141.3825053, 43.0492075 ] } },
{ "type": "Feature", "properties": { "内容": "ライフドリーム藤美【特定施設入居者生活介護（有料老人ホーム）】北海道札幌市白石区菊水元町2条1丁目8番36号", "url2": "https://www.kaigokensaku.mhlw.go.jp/01/index.php?action_kouhyou_detail_004_kani=true&JigyosyoCd=0170500524-00&ServiceCd=331&Type=search" }, "geometry": { "type": "Point", "coordinates": [ 141.39797550000003, 43.0669743 ] } },
{ "type": "Feature", "properties": { "内容": "カルナシア菊水【特定施設入居者生活介護（有料老人ホーム）】菊水8条1丁目6番20号", "url2": "https://www.kaigokensaku.mhlw.go.jp/01/index.php?action_kouhyou_detail_004_kani=true&JigyosyoCd=0170515423-00&ServiceCd=331&Type=search" }, "geometry": { "type": "Point", "coordinates": [ 141.3797755, 43.0614883 ] } },
{ "type": "Feature", "properties": { "内容": "グッドタイムホーム・平和通【特定施設入居者生活介護（有料老人ホーム）】北海道札幌市白石区平和通16丁目北9番1号", "url2": "https://www.kaigokensaku.mhlw.go.jp/01/index.php?action_kouhyou_detail_004_kani=true&JigyosyoCd=0170515449-00&ServiceCd=331&Type=search" }, "geometry": { "type": "Point", "coordinates": [ 141.436798900000014, 43.0443646 ] } },
{ "type": "Feature", "properties": { "内容": "介護付有料老人ホーム　あさひガーデン【特定施設入居者生活介護（有料老人ホーム）】北海道札幌市白石区北郷1条3丁目1番55号", "url2": "https://www.kaigokensaku.mhlw.go.jp/01/index.php?action_kouhyou_detail_004_kani=true&JigyosyoCd=0170504492-00&ServiceCd=331&Type=search" }, "geometry": { "type": "Point", "coordinates": [ 141.408683, 43.0588059 ] } },
{ "type": "Feature", "properties": { "内容": "グッドタイムホーム・米里【特定施設入居者生活介護（有料老人ホーム）】北海道札幌市白石区米里1条2丁目9番10号", "url2": "https://www.kaigokensaku.mhlw.go.jp/01/index.php?action_kouhyou_detail_004_kani=true&JigyosyoCd=0170514178-00&ServiceCd=331&Type=search" }, "geometry": { "type": "Point", "coordinates": [ 141.416930299999962, 43.0766643 ] } },
{ "type": "Feature", "properties": { "内容": "光ハイツ・ヴェラス月寒公園【特定施設入居者生活介護（有料老人ホーム）】札幌市豊平区美園9条8丁目5-1", "url2": "https://www.kaigokensaku.mhlw.go.jp/01/index.php?action_kouhyou_detail_004_kani=true&JigyosyoCd=0170500425-00&ServiceCd=331&Type=search" }, "geometry": { "type": "Point", "coordinates": [ 141.387244499999952, 43.0333826 ] } },
{ "type": "Feature", "properties": { "内容": "ニチイケアセンター豊平【特定施設入居者生活介護（有料老人ホーム）】北海道札幌市豊平区西岡４条３条７番１８号", "url2": "https://www.kaigokensaku.mhlw.go.jp/01/index.php?action_kouhyou_detail_004_kani=true&JigyosyoCd=0170506141-00&ServiceCd=331&Type=search" }, "geometry": { "type": "Point", "coordinates": [ 141.3768728, 42.9922483 ] } },
{ "type": "Feature", "properties": { "内容": "シルバーハイツ羊ヶ丘１・２番館【特定施設入居者生活介護（有料老人ホーム）】札幌市豊平区福住３条３丁目６番１号シルバーハイツ羊ヶ丘１・２番館", "url2": "https://www.kaigokensaku.mhlw.go.jp/01/index.php?action_kouhyou_detail_004_kani=true&JigyosyoCd=0170500565-00&ServiceCd=331&Type=search" }, "geometry": { "type": "Point", "coordinates": [ 141.4047885, 43.0142882 ] } },
{ "type": "Feature", "properties": { "内容": "ケア付き住宅徳洲会【特定施設入居者生活介護（有料老人ホーム）】札幌市豊平区月寒東３条１６丁目６番６号ケア付き住宅徳洲会", "url2": "https://www.kaigokensaku.mhlw.go.jp/01/index.php?action_kouhyou_detail_004_kani=true&JigyosyoCd=0170504948-00&ServiceCd=331&Type=search" }, "geometry": { "type": "Point", "coordinates": [ 141.419244899999967, 43.024854 ] } },
{ "type": "Feature", "properties": { "内容": "有料老人ホーム　グッドタイムホーム・福住【特定施設入居者生活介護（有料老人ホーム）】北海道札幌市豊平区福住2条5丁目1番36号", "url2": "https://www.kaigokensaku.mhlw.go.jp/01/index.php?action_kouhyou_detail_004_kani=true&JigyosyoCd=0170514145-00&ServiceCd=331&Type=search" }, "geometry": { "type": "Point", "coordinates": [ 141.397220299999987, 43.0140157 ] } },
{ "type": "Feature", "properties": { "内容": "介護付有料老人ホーム「天」【特定施設入居者生活介護（有料老人ホーム）】札幌市豊平区月寒中央通6丁目3番1号", "url2": "https://www.kaigokensaku.mhlw.go.jp/01/index.php?action_kouhyou_detail_004_kani=true&JigyosyoCd=0170505010-00&ServiceCd=331&Type=search" }, "geometry": { "type": "Point", "coordinates": [ 141.395346600000039, 43.0327162 ] } },
{ "type": "Feature", "properties": { "内容": "介護付有料老人ホ－ム「ゆうゆうじてき」月寒公園【特定施設入居者生活介護（有料老人ホーム）】札幌市豊平区月寒西1条5丁目1番1号", "url2": "https://www.kaigokensaku.mhlw.go.jp/01/index.php?action_kouhyou_detail_004_kani=true&JigyosyoCd=0170506786-00&ServiceCd=331&Type=search" }, "geometry": { "type": "Point", "coordinates": [ 141.392159790429361, 43.032669557225816 ] } },
{ "type": "Feature", "properties": { "内容": "シルバーハイツ羊ヶ丘３番館【特定施設入居者生活介護（有料老人ホーム）】札幌市豊平区月寒東４条１５丁目４番３８号", "url2": "https://www.kaigokensaku.mhlw.go.jp/01/index.php?action_kouhyou_detail_004_kani=true&JigyosyoCd=0170502041-00&ServiceCd=331&Type=search" }, "geometry": { "type": "Point", "coordinates": [ 141.422204520237756, 43.027622887580691 ] } },
{ "type": "Feature", "properties": { "内容": "光ハイツ・ヴェラス　藤野【特定施設入居者生活介護（有料老人ホーム）】札幌市南区藤野3条11丁目10-11", "url2": "https://www.kaigokensaku.mhlw.go.jp/01/index.php?action_kouhyou_detail_004_kani=true&JigyosyoCd=0170500433-00&ServiceCd=331&Type=search" }, "geometry": { "type": "Point", "coordinates": [ 141.278440300000057, 42.9605992 ] } },
{ "type": "Feature", "properties": { "内容": "光ハイツ・ヴェラス　石山【特定施設入居者生活介護（有料老人ホーム）】札幌市南区石山1条3丁目3-33光ハイツ・ヴェラス", "url2": "https://www.kaigokensaku.mhlw.go.jp/01/index.php?action_kouhyou_detail_004_kani=true&JigyosyoCd=0170500417-00&ServiceCd=331&Type=search" }, "geometry": { "type": "Point", "coordinates": [ 141.3325802, 42.9680277 ] } },
{ "type": "Feature", "properties": { "内容": "介護付有料老人ホームかわぞえ【特定施設入居者生活介護（有料老人ホーム）】札幌市南区川沿1条2丁目5番25号", "url2": "https://www.kaigokensaku.mhlw.go.jp/01/index.php?action_kouhyou_detail_004_kani=true&JigyosyoCd=0170504336-00&ServiceCd=331&Type=search" }, "geometry": { "type": "Point", "coordinates": [ 141.33517889999996, 43.0020514 ] } },
{ "type": "Feature", "properties": { "内容": "アウルコート真駒内【特定施設入居者生活介護（有料老人ホーム）】札幌市南区真駒内南町４丁目５番３号アウルコート真駒内", "url2": "https://www.kaigokensaku.mhlw.go.jp/01/index.php?action_kouhyou_detail_004_kani=true&JigyosyoCd=0170504724-00&ServiceCd=331&Type=search" }, "geometry": { "type": "Point", "coordinates": [ 141.350044799999978, 42.9811211 ] } },
{ "type": "Feature", "properties": { "内容": "光ハイツ・ヴェラス真駒内公園【特定施設入居者生活介護（有料老人ホーム）】札幌市南区真駒内緑町1丁目1番1号光ハイツ・ヴェラス真駒内公園", "url2": "https://www.kaigokensaku.mhlw.go.jp/01/index.php?action_kouhyou_detail_004_kani=true&JigyosyoCd=0170504310-00&ServiceCd=331&Type=search" }, "geometry": { "type": "Point", "coordinates": [ 141.349752800000033, 42.9942945 ] } },
{ "type": "Feature", "properties": { "内容": "SOMPOケアラヴィーレ真駒内【特定施設入居者生活介護（有料老人ホーム）】真駒内南町1丁目7番10号", "url2": "https://www.kaigokensaku.mhlw.go.jp/01/index.php?action_kouhyou_detail_004_kani=true&JigyosyoCd=0170515696-00&ServiceCd=331&Type=search" }, "geometry": { "type": "Point", "coordinates": [ 141.351457628836073, 42.984026767389643 ] } },
{ "type": "Feature", "properties": { "内容": "ケアタウン徳洲会札幌西【特定施設入居者生活介護（有料老人ホーム）】札幌市西区西野７条３丁目１－２０", "url2": "https://www.kaigokensaku.mhlw.go.jp/01/index.php?action_kouhyou_detail_004_kani=true&JigyosyoCd=0170402606-00&ServiceCd=331&Type=search" }, "geometry": { "type": "Point", "coordinates": [ 141.272819, 43.0664003 ] } },
{ "type": "Feature", "properties": { "内容": "ベストライフ札幌西【特定施設入居者生活介護（有料老人ホーム）】北海道札幌市西区発寒7条14丁目13-1", "url2": "https://www.kaigokensaku.mhlw.go.jp/01/index.php?action_kouhyou_detail_004_kani=true&JigyosyoCd=0170405393-00&ServiceCd=331&Type=search" }, "geometry": { "type": "Point", "coordinates": [ 141.2718687, 43.0984703 ] } },
{ "type": "Feature", "properties": { "内容": "敬老園札幌【特定施設入居者生活介護（有料老人ホーム）】札幌市西区西野10条6丁目2番20号", "url2": "https://www.kaigokensaku.mhlw.go.jp/01/index.php?action_kouhyou_detail_004_kani=true&JigyosyoCd=0170400402-00&ServiceCd=331&Type=search" }, "geometry": { "type": "Point", "coordinates": [ 141.259942300000034, 43.0620228 ] } },
{ "type": "Feature", "properties": { "内容": "介護付有料老人ホームほのぼの宮の沢【特定施設入居者生活介護（有料老人ホーム）】札幌市西区発寒六条９丁目１番５号", "url2": "https://www.kaigokensaku.mhlw.go.jp/01/index.php?action_kouhyou_detail_004_kani=true&JigyosyoCd=0170402127-00&ServiceCd=331&Type=search" }, "geometry": { "type": "Point", "coordinates": [ 141.279469791022592, 43.088196201517114 ] } },
{ "type": "Feature", "properties": { "内容": "生きがいの森　萬寿円【特定施設入居者生活介護（有料老人ホーム）】札幌市西区西野7条10丁目19-1", "url2": "https://www.kaigokensaku.mhlw.go.jp/01/index.php?action_kouhyou_detail_004_kani=true&JigyosyoCd=0170402044-00&ServiceCd=331&Type=search" }, "geometry": { "type": "Point", "coordinates": [ 141.257728, 43.0718353 ] } },
{ "type": "Feature", "properties": { "内容": "光ハイツ・ヴェラス　琴似【特定施設入居者生活介護（有料老人ホーム）】札幌市西区二十四軒4条1丁目3-1", "url2": "https://www.kaigokensaku.mhlw.go.jp/01/index.php?action_kouhyou_detail_004_kani=true&JigyosyoCd=0170400816-00&ServiceCd=331&Type=search" }, "geometry": { "type": "Point", "coordinates": [ 141.312076299999944, 43.0787312 ] } },
{ "type": "Feature", "properties": { "内容": "ヴェラス・クオーレ山の手【特定施設入居者生活介護（有料老人ホーム）】札幌市西区山の手６条２丁目１－１", "url2": "https://www.kaigokensaku.mhlw.go.jp/01/index.php?action_kouhyou_detail_004_kani=true&JigyosyoCd=0170402911-00&ServiceCd=331&Type=search" }, "geometry": { "type": "Point", "coordinates": [ 141.293959577909817, 43.074328641009366 ] } },
{ "type": "Feature", "properties": { "内容": "ラークヒルズ札幌【特定施設入居者生活介護（有料老人ホーム）】北海道札幌市厚別区厚別中央３条２丁目１２番１号", "url2": "https://www.kaigokensaku.mhlw.go.jp/01/index.php?action_kouhyou_detail_004_kani=true&JigyosyoCd=0170500623-00&ServiceCd=331&Type=search" }, "geometry": { "type": "Point", "coordinates": [ 141.460861247221374, 43.035756851214757 ] } },
{ "type": "Feature", "properties": { "内容": "ベストライフ大谷地【特定施設入居者生活介護（有料老人ホーム）】北海道札幌市厚別区大谷地東5－7－1", "url2": "https://www.kaigokensaku.mhlw.go.jp/01/index.php?action_kouhyou_detail_004_kani=true&JigyosyoCd=0170514293-00&ServiceCd=331&Type=search" }, "geometry": { "type": "Point", "coordinates": [ 141.457631099999986, 43.0232083 ] } },
{ "type": "Feature", "properties": { "内容": "株式会社　創生事業団【特定施設入居者生活介護（有料老人ホーム）】北海道札幌市厚別区厚別東３条７丁目21番1号グッドタイムホーム・厚別", "url2": "https://www.kaigokensaku.mhlw.go.jp/01/index.php?action_kouhyou_detail_004_kani=true&JigyosyoCd=0170514186-00&ServiceCd=331&Type=search" }, "geometry": { "type": "Point", "coordinates": [ 141.4908604, 43.0514916 ] } },
{ "type": "Feature", "properties": { "内容": "ルルドの泉【特定施設入居者生活介護（有料老人ホーム）】札幌市厚別区厚別東３条６丁目５番３５号", "url2": "https://www.kaigokensaku.mhlw.go.jp/01/index.php?action_kouhyou_detail_004_kani=true&JigyosyoCd=0170505184-00&ServiceCd=331&Type=search" }, "geometry": { "type": "Point", "coordinates": [ 141.488801500000022, 43.0486148 ] } },
{ "type": "Feature", "properties": { "内容": "介護付有料老人ホーム「遊楽館」青葉【特定施設入居者生活介護（有料老人ホーム）】札幌市厚別区青葉町８丁目６－２４", "url2": "https://www.kaigokensaku.mhlw.go.jp/01/index.php?action_kouhyou_detail_004_kani=true&JigyosyoCd=0170505150-00&ServiceCd=331&Type=search" }, "geometry": { "type": "Point", "coordinates": [ 141.477589599999988, 43.0253337 ] } },
{ "type": "Feature", "properties": { "内容": "ニチイケアセンター厚別【特定施設入居者生活介護（有料老人ホーム）】北海道札幌市厚別区厚別東四条4丁目11番31号", "url2": "https://www.kaigokensaku.mhlw.go.jp/01/index.php?action_kouhyou_detail_004_kani=true&JigyosyoCd=0170506133-00&ServiceCd=331&Type=search" }, "geometry": { "type": "Point", "coordinates": [ 141.482707600000026, 43.0489368 ] } },
{ "type": "Feature", "properties": { "内容": "ラ・ナシカ　ていね【特定施設入居者生活介護（有料老人ホーム）】札幌市手稲区手稲本町2条3丁目3-5", "url2": "https://www.kaigokensaku.mhlw.go.jp/01/index.php?action_kouhyou_detail_004_kani=true&JigyosyoCd=0170401913-00&ServiceCd=331&Type=search" }, "geometry": { "type": "Point", "coordinates": [ 141.2409328, 43.1178607 ] } },
{ "type": "Feature", "properties": { "内容": "介護付有料老人ホームフルールハピネスていね【特定施設入居者生活介護（有料老人ホーム）】北海道札幌市手稲区明日風3丁目１１－１", "url2": "https://www.kaigokensaku.mhlw.go.jp/01/index.php?action_kouhyou_detail_004_kani=true&JigyosyoCd=0170402226-00&ServiceCd=331&Type=search" }, "geometry": { "type": "Point", "coordinates": [ 141.223702, 43.1386716 ] } },
{ "type": "Feature", "properties": { "内容": "グッドタイムホーム・北野【特定施設入居者生活介護（有料老人ホーム）】北海道札幌市清田区北野７条５丁目１２番４６号", "url2": "https://www.kaigokensaku.mhlw.go.jp/01/index.php?action_kouhyou_detail_004_kani=true&JigyosyoCd=0170514160-00&ServiceCd=331&Type=search" }, "geometry": { "type": "Point", "coordinates": [ 141.452688759524506, 43.017152276858695 ] } },
{ "type": "Feature", "properties": { "内容": "ケアタウン徳洲会札幌南【特定施設入居者生活介護（有料老人ホーム）】札幌市清田区里塚２条２丁目４番２１号ケアタウン徳洲会札幌南", "url2": "https://www.kaigokensaku.mhlw.go.jp/01/index.php?action_kouhyou_detail_004_kani=true&JigyosyoCd=0170505895-00&ServiceCd=331&Type=search" }, "geometry": { "type": "Point", "coordinates": [ 141.461535, 42.9892401 ] } },
{ "type": "Feature", "properties": { "内容": "介護付有料老人ホームぬくもりの里悠楽苑【特定施設入居者生活介護（有料老人ホーム）】北海道札幌市清田区美しが丘５条９丁目９番２０号", "url2": "https://www.kaigokensaku.mhlw.go.jp/01/index.php?action_kouhyou_detail_004_kani=true&JigyosyoCd=0170503148-00&ServiceCd=331&Type=search" }, "geometry": { "type": "Point", "coordinates": [ 141.461999900000023, 42.973169800000015 ] } },
{ "type": "Feature", "properties": { "内容": "介護付有料老人ホーム　パートナーハウス２号館【特定施設入居者生活介護（有料老人ホーム）】札幌市清田区北野１条２丁目１０－４０", "url2": "https://www.kaigokensaku.mhlw.go.jp/01/index.php?action_kouhyou_detail_004_kani=true&JigyosyoCd=0170504427-00&ServiceCd=331&Type=search" }, "geometry": { "type": "Point", "coordinates": [ 141.4325781, 43.0080343 ] } },
{ "type": "Feature", "properties": { "内容": "介護付有料老人ホーム　　ノテ真栄【特定施設入居者生活介護（有料老人ホーム）】札幌市清田区真栄5条2丁目１－１２", "url2": "https://www.kaigokensaku.mhlw.go.jp/01/index.php?action_kouhyou_detail_004_kani=true&JigyosyoCd=0170506778-00&ServiceCd=331&Type=search" }, "geometry": { "type": "Point", "coordinates": [ 141.4377207, 42.9836623 ] } },
{ "type": "Feature", "properties": { "内容": "ベストライフ札幌清田【特定施設入居者生活介護（有料老人ホーム）】北海道札幌市清田区平岡4条3丁目3-25", "url2": "https://www.kaigokensaku.mhlw.go.jp/01/index.php?action_kouhyou_detail_004_kani=true&JigyosyoCd=0170514327-00&ServiceCd=331&Type=search" }, "geometry": { "type": "Point", "coordinates": [ 141.4546667, 43.0024615 ] } },
{ "type": "Feature", "properties": { "内容": "介護付有料老人ホームばんだい【特定施設入居者生活介護（有料老人ホーム）】北海道函館市万代町6番23号", "url2": "https://www.kaigokensaku.mhlw.go.jp/01/index.php?action_kouhyou_detail_004_kani=true&JigyosyoCd=0171404866-00&ServiceCd=331&Type=search" }, "geometry": { "type": "Point", "coordinates": [ 140.733032800000046, 41.7877952 ] } },
{ "type": "Feature", "properties": { "内容": "介護付有料老人ホームみやまえ【特定施設入居者生活介護（有料老人ホーム）】北海道函館市宮前町7番15号", "url2": "https://www.kaigokensaku.mhlw.go.jp/01/index.php?action_kouhyou_detail_004_kani=true&JigyosyoCd=0171404874-00&ServiceCd=331&Type=search" }, "geometry": { "type": "Point", "coordinates": [ 140.737676017094429, 41.788611057212805 ] } },
{ "type": "Feature", "properties": { "内容": "介護付き有料老人ホーム白ゆり【特定施設入居者生活介護（有料老人ホーム）】北海道函館市富岡町1丁目23番12号", "url2": "https://www.kaigokensaku.mhlw.go.jp/01/index.php?action_kouhyou_detail_004_kani=true&JigyosyoCd=0171404908-00&ServiceCd=331&Type=search" }, "geometry": { "type": "Point", "coordinates": [ 140.746752199999946, 41.801394 ] } },
{ "type": "Feature", "properties": { "内容": "グッドタイムホーム・桔梗【特定施設入居者生活介護（有料老人ホーム）】北海道函館市桔梗１丁目２７番８号グッドタイムホーム・桔梗", "url2": "https://www.kaigokensaku.mhlw.go.jp/01/index.php?action_kouhyou_detail_004_kani=true&JigyosyoCd=0171404346-00&ServiceCd=331&Type=search" }, "geometry": { "type": "Point", "coordinates": [ 140.730416699999978, 41.8262899 ] } },
{ "type": "Feature", "properties": { "内容": "グッドタイムホーム・富岡【特定施設入居者生活介護（有料老人ホーム）】函館市富岡町3丁目22番3号グッドタイムホーム・富岡", "url2": "https://www.kaigokensaku.mhlw.go.jp/01/index.php?action_kouhyou_detail_004_kani=true&JigyosyoCd=0171404353-00&ServiceCd=331&Type=search" }, "geometry": { "type": "Point", "coordinates": [ 140.753748457061192, 41.811578001297967 ] } },
{ "type": "Feature", "properties": { "内容": "グッドタイムホーム・湯川【特定施設入居者生活介護（有料老人ホーム）】北海道函館市湯川町1丁目11番6号", "url2": "https://www.kaigokensaku.mhlw.go.jp/01/index.php?action_kouhyou_detail_004_kani=true&JigyosyoCd=0171404940-00&ServiceCd=331&Type=search" }, "geometry": { "type": "Point", "coordinates": [ 140.779972, 41.7770408 ] } },
{ "type": "Feature", "properties": { "内容": "とどほっけ介護付有料老人ホームほのぼの【特定施設入居者生活介護（有料老人ホーム）】北海道函館市新浜町１８８番地２椴法華総合福祉センターほのぼの", "url2": "https://www.kaigokensaku.mhlw.go.jp/01/index.php?action_kouhyou_detail_004_kani=true&JigyosyoCd=0171401367-00&ServiceCd=331&Type=search" }, "geometry": { "type": "Point", "coordinates": [ 141.138751800000023, 41.8308196 ] } },
{ "type": "Feature", "properties": { "内容": "介護付き有料老人ホームふれあいの里悠【特定施設入居者生活介護（有料老人ホーム）】北海道函館市海岸町５番２５号", "url2": "https://www.kaigokensaku.mhlw.go.jp/01/index.php?action_kouhyou_detail_004_kani=true&JigyosyoCd=0171405277-00&ServiceCd=331&Type=search" }, "geometry": { "type": "Point", "coordinates": [ 140.731055199999986, 41.7793609 ] } },
{ "type": "Feature", "properties": { "内容": "泰安の郷和華竹【特定施設入居者生活介護（有料老人ホーム）】小樽市若竹町26番1号", "url2": "https://www.kaigokensaku.mhlw.go.jp/01/index.php?action_kouhyou_detail_004_kani=true&JigyosyoCd=0172001224-00&ServiceCd=331&Type=search" }, "geometry": { "type": "Point", "coordinates": [ 141.025029600000039, 43.1780443 ] } },
{ "type": "Feature", "properties": { "内容": "ラ・ナシカ　あさり【特定施設入居者生活介護（有料老人ホーム）】北海道小樽市新光1丁目6-25", "url2": "https://www.kaigokensaku.mhlw.go.jp/01/index.php?action_kouhyou_detail_004_kani=true&JigyosyoCd=0172001182-00&ServiceCd=331&Type=search" }, "geometry": { "type": "Point", "coordinates": [ 141.053269, 43.1761011 ] } },
{ "type": "Feature", "properties": { "内容": "介護付き有料老人ホームアクア小樽長橋【特定施設入居者生活介護（有料老人ホーム）】北海道小樽市長橋５丁目６番４号", "url2": "https://www.kaigokensaku.mhlw.go.jp/01/index.php?action_kouhyou_detail_004_kani=true&JigyosyoCd=0172003089-00&ServiceCd=331&Type=search" }, "geometry": { "type": "Point", "coordinates": [ 140.9746016, 43.2060384 ] } },
{ "type": "Feature", "properties": { "内容": "混合型特定施設入居者生活介護エールⅠ【特定施設入居者生活介護（有料老人ホーム）】北海道旭川市永山北2条11丁目26番地の8", "url2": "https://www.kaigokensaku.mhlw.go.jp/01/index.php?action_kouhyou_detail_004_kani=true&JigyosyoCd=0172908063-00&ServiceCd=331&Type=search" }, "geometry": { "type": "Point", "coordinates": [ 142.4345036, 43.820267299999976 ] } },
{ "type": "Feature", "properties": { "内容": "介護付有料老人ホーム　さくら旭川【特定施設入居者生活介護（有料老人ホーム）】北海道旭川市4条通22丁目1721-64", "url2": "https://www.kaigokensaku.mhlw.go.jp/01/index.php?action_kouhyou_detail_004_kani=true&JigyosyoCd=0172902918-00&ServiceCd=331&Type=search" }, "geometry": { "type": "Point", "coordinates": [ 142.382253499999933, 43.7623231 ] } },
{ "type": "Feature", "properties": { "内容": "介護付有料老人ホーム貴【特定施設入居者生活介護（有料老人ホーム）】北海道旭川市春光5条7丁目11番16号", "url2": "https://www.kaigokensaku.mhlw.go.jp/01/index.php?action_kouhyou_detail_004_kani=true&JigyosyoCd=0172902538-00&ServiceCd=331&Type=search" }, "geometry": { "type": "Point", "coordinates": [ 142.3672808, 43.8049985 ] } },
{ "type": "Feature", "properties": { "内容": "シルバーハイツＥ湯【特定施設入居者生活介護（有料老人ホーム）】旭川市豊岡13条6丁目4番8号", "url2": "https://www.kaigokensaku.mhlw.go.jp/01/index.php?action_kouhyou_detail_004_kani=true&JigyosyoCd=0172902728-00&ServiceCd=331&Type=search" }, "geometry": { "type": "Point", "coordinates": [ 142.411302299999988, 43.770907 ] } },
{ "type": "Feature", "properties": { "内容": "介護付有料老人ホーム忠和【特定施設入居者生活介護（有料老人ホーム）】旭川市忠和１条４丁目３番２１号", "url2": "https://www.kaigokensaku.mhlw.go.jp/01/index.php?action_kouhyou_detail_004_kani=true&JigyosyoCd=0172902405-00&ServiceCd=331&Type=search" }, "geometry": { "type": "Point", "coordinates": [ 142.320801241664213, 43.78212789760564 ] } },
{ "type": "Feature", "properties": { "内容": "介護付有料老人ホーム秀【特定施設入居者生活介護（有料老人ホーム）】北海道旭川市永山1条20丁目6番13号", "url2": "https://www.kaigokensaku.mhlw.go.jp/01/index.php?action_kouhyou_detail_004_kani=true&JigyosyoCd=0172903049-00&ServiceCd=331&Type=search" }, "geometry": { "type": "Point", "coordinates": [ 142.435634299999947, 43.8134863 ] } },
{ "type": "Feature", "properties": { "内容": "混合型特特定施設入居者生活介護　マーズガーデン【特定施設入居者生活介護（有料老人ホーム）】北海道旭川市末広東2条2丁目1番1号介護付き有料老人ホーム　マーズガーデン", "url2": "https://www.kaigokensaku.mhlw.go.jp/01/index.php?action_kouhyou_detail_004_kani=true&JigyosyoCd=0172906976-00&ServiceCd=331&Type=search" }, "geometry": { "type": "Point", "coordinates": [ 142.387269400000037, 43.8001919 ] } },
{ "type": "Feature", "properties": { "内容": "エバ－グリ－ン七条【特定施設入居者生活介護（有料老人ホーム）】旭川市７条通８丁目３９番地５", "url2": "https://www.kaigokensaku.mhlw.go.jp/01/index.php?action_kouhyou_detail_004_kani=true&JigyosyoCd=0172904229-00&ServiceCd=331&Type=search" }, "geometry": { "type": "Point", "coordinates": [ 142.363935699999956, 43.772263 ] } },
{ "type": "Feature", "properties": { "内容": "介護付有料老人ホーム　クオーレ【特定施設入居者生活介護（有料老人ホーム）】北海道旭川市永山北2条11丁目26番地の3", "url2": "https://www.kaigokensaku.mhlw.go.jp/01/index.php?action_kouhyou_detail_004_kani=true&JigyosyoCd=0172906596-00&ServiceCd=331&Type=search" }, "geometry": { "type": "Point", "coordinates": [ 142.434656481378624, 43.820214385487887 ] } },
{ "type": "Feature", "properties": { "内容": "介護付有料老人ホームさくら東【特定施設入居者生活介護（有料老人ホーム）】北海道旭川市豊岡7条4丁目1-6", "url2": "https://www.kaigokensaku.mhlw.go.jp/01/index.php?action_kouhyou_detail_004_kani=true&JigyosyoCd=0172906992-00&ServiceCd=331&Type=search" }, "geometry": { "type": "Point", "coordinates": [ 142.390324599999985, 43.7652508 ] } },
{ "type": "Feature", "properties": { "内容": "ニチイケアセンター旭川北【特定施設入居者生活介護（有料老人ホーム）】北海道旭川市永山3条7丁目1-25", "url2": "https://www.kaigokensaku.mhlw.go.jp/01/index.php?action_kouhyou_detail_004_kani=true&JigyosyoCd=0172903585-00&ServiceCd=331&Type=search" }, "geometry": { "type": "Point", "coordinates": [ 142.408913, 43.7937405 ] } },
{ "type": "Feature", "properties": { "内容": "介護付有料老人ホームカムイ【特定施設入居者生活介護（有料老人ホーム）】北海道旭川市神居６条１２丁目１番１５号", "url2": "https://www.kaigokensaku.mhlw.go.jp/01/index.php?action_kouhyou_detail_004_kani=true&JigyosyoCd=0172906638-00&ServiceCd=331&Type=search" }, "geometry": { "type": "Point", "coordinates": [ 142.330884435581993, 43.755640669885999 ] } },
{ "type": "Feature", "properties": { "内容": "グッドタイムホーム・東光【特定施設入居者生活介護（有料老人ホーム）】旭川市東光1条5丁目4番7号グッドタイムホーム・東光", "url2": "https://www.kaigokensaku.mhlw.go.jp/01/index.php?action_kouhyou_detail_004_kani=true&JigyosyoCd=0172907792-00&ServiceCd=331&Type=search" }, "geometry": { "type": "Point", "coordinates": [ 142.4070908, 43.7545021 ] } },
{ "type": "Feature", "properties": { "内容": "介護付有料老人ホームあかり【特定施設入居者生活介護（有料老人ホーム）】北海道旭川市東光8条9丁目１-２０", "url2": "https://www.kaigokensaku.mhlw.go.jp/01/index.php?action_kouhyou_detail_004_kani=true&JigyosyoCd=0172907537-00&ServiceCd=331&Type=search" }, "geometry": { "type": "Point", "coordinates": [ 142.4191276, 43.7467657 ] } },
{ "type": "Feature", "properties": { "内容": "介護付有料老人ホーム七福神弁天館【特定施設入居者生活介護（有料老人ホーム）】旭川市宮下通4丁目1番14号", "url2": "https://www.kaigokensaku.mhlw.go.jp/01/index.php?action_kouhyou_detail_004_kani=true&JigyosyoCd=0172903676-00&ServiceCd=331&Type=search" }, "geometry": { "type": "Point", "coordinates": [ 142.352962171258582, 43.766481358312447 ] } },
{ "type": "Feature", "properties": { "内容": "ラ・ナシカあさひかわ【特定施設入居者生活介護（有料老人ホーム）】旭川市近文町17丁目2784", "url2": "https://www.kaigokensaku.mhlw.go.jp/01/index.php?action_kouhyou_detail_004_kani=true&JigyosyoCd=0172903346-00&ServiceCd=331&Type=search" }, "geometry": { "type": "Point", "coordinates": [ 142.329874199999949, 43.7866852 ] } },
{ "type": "Feature", "properties": { "内容": "混合型特定施設入所者生活介護事業所すみれ神楽【特定施設入居者生活介護（有料老人ホーム）】北海道旭川市神楽３条１２丁目１番４３号", "url2": "https://www.kaigokensaku.mhlw.go.jp/01/index.php?action_kouhyou_detail_004_kani=true&JigyosyoCd=0172908303-00&ServiceCd=331&Type=search" }, "geometry": { "type": "Point", "coordinates": [ 142.3598153, 43.7525367 ] } },
{ "type": "Feature", "properties": { "内容": "介護付有料老人ホームさくら南【特定施設入居者生活介護（有料老人ホーム）】北海道旭川市南1条通21丁目1974-6介護付有料老人ホーム　さくら南", "url2": "https://www.kaigokensaku.mhlw.go.jp/01/index.php?action_kouhyou_detail_004_kani=true&JigyosyoCd=0172906588-00&ServiceCd=331&Type=search" }, "geometry": { "type": "Point", "coordinates": [ 142.378170800000021, 43.7579374 ] } },
{ "type": "Feature", "properties": { "内容": "介護付有料老人ホームチエロ【特定施設入居者生活介護（有料老人ホーム）】北海道室蘭市中島町１丁目８番５号", "url2": "https://www.kaigokensaku.mhlw.go.jp/01/index.php?action_kouhyou_detail_004_kani=true&JigyosyoCd=0173501800-00&ServiceCd=331&Type=search" }, "geometry": { "type": "Point", "coordinates": [ 141.012415555763226, 42.351295782120523 ] } },
{ "type": "Feature", "properties": { "内容": "さわやか室蘭館【特定施設入居者生活介護（有料老人ホーム）】北海道室蘭市幸町9番8号", "url2": "https://www.kaigokensaku.mhlw.go.jp/01/index.php?action_kouhyou_detail_004_kani=true&JigyosyoCd=0173501933-00&ServiceCd=331&Type=search" }, "geometry": { "type": "Point", "coordinates": [ 140.969123099999962, 42.3156111 ] } },
{ "type": "Feature", "properties": { "内容": "介護付有料老人ホーム歩々はすか【特定施設入居者生活介護（有料老人ホーム）】北海道釧路市昭和中央６丁目９番１２号", "url2": "https://www.kaigokensaku.mhlw.go.jp/01/index.php?action_kouhyou_detail_004_kani=true&JigyosyoCd=0174101824-00&ServiceCd=331&Type=search" }, "geometry": { "type": "Point", "coordinates": [ 144.352570799999967, 43.0280935 ] } },
{ "type": "Feature", "properties": { "内容": "ニチイケアセンター星が浦【特定施設入居者生活介護（有料老人ホーム）】北海道釧路市星が浦大通3-1-5", "url2": "https://www.kaigokensaku.mhlw.go.jp/01/index.php?action_kouhyou_detail_004_kani=true&JigyosyoCd=0174101543-00&ServiceCd=331&Type=search" }, "geometry": { "type": "Point", "coordinates": [ 144.318716099999961, 43.0125547 ] } },
{ "type": "Feature", "properties": { "内容": "介護付有料老人ホームハートハウス楽楽【特定施設入居者生活介護（有料老人ホーム）】新川町13番5号", "url2": "https://www.kaigokensaku.mhlw.go.jp/01/index.php?action_kouhyou_detail_004_kani=true&JigyosyoCd=0174142927-00&ServiceCd=331&Type=search" }, "geometry": { "type": "Point", "coordinates": [ 140.7359041, 41.7750654 ] } },
{ "type": "Feature", "properties": { "内容": "特定施設入居者生活介護事業所　ハートピア【特定施設入居者生活介護（有料老人ホーム）】釧路市大楽毛5-1-16", "url2": "https://www.kaigokensaku.mhlw.go.jp/01/index.php?action_kouhyou_detail_004_kani=true&JigyosyoCd=0174101253-00&ServiceCd=331&Type=search" }, "geometry": { "type": "Point", "coordinates": [ 144.271324099999987, 43.0094471 ] } },
{ "type": "Feature", "properties": { "内容": "特定施設入居者生活介護事業所　ハートピア　I【特定施設入居者生活介護（有料老人ホーム）】釧路市大楽毛５－１－１８", "url2": "https://www.kaigokensaku.mhlw.go.jp/01/index.php?action_kouhyou_detail_004_kani=true&JigyosyoCd=0174101287-00&ServiceCd=331&Type=search" }, "geometry": { "type": "Point", "coordinates": [ 144.271890699999972, 43.0095582 ] } },
{ "type": "Feature", "properties": { "内容": "グッドタイムホーム・釧路【特定施設入居者生活介護（有料老人ホーム）】北海道釧路市北大通4丁目１番地１北大通4丁目ビル", "url2": "https://www.kaigokensaku.mhlw.go.jp/01/index.php?action_kouhyou_detail_004_kani=true&JigyosyoCd=0174142489-00&ServiceCd=331&Type=search" }, "geometry": { "type": "Point", "coordinates": [ 144.385103, 42.9835814 ] } },
{ "type": "Feature", "properties": { "内容": "シルバーシティときわ台ヒルズ【特定施設入居者生活介護（有料老人ホーム）】北海道釧路市春採7丁目5番1号", "url2": "https://www.kaigokensaku.mhlw.go.jp/01/index.php?action_kouhyou_detail_004_kani=true&JigyosyoCd=0174101311-00&ServiceCd=331&Type=search" }, "geometry": { "type": "Point", "coordinates": [ 144.415404699999954, 42.9776291 ] } },
{ "type": "Feature", "properties": { "内容": "介護付有料老人ホームはまなす芦野館【特定施設入居者生活介護（有料老人ホーム）】北海道釧路市芦野1丁目27番1号", "url2": "https://www.kaigokensaku.mhlw.go.jp/01/index.php?action_kouhyou_detail_004_kani=true&JigyosyoCd=0174101402-00&ServiceCd=331&Type=search" }, "geometry": { "type": "Point", "coordinates": [ 144.401941099999931, 43.0121189 ] } },
{ "type": "Feature", "properties": { "内容": "介護付有料老人ホーム悠和館【特定施設入居者生活介護（有料老人ホーム）】北海道釧路市愛国191番地の5747介護付有料老人ホーム悠和館", "url2": "https://www.kaigokensaku.mhlw.go.jp/01/index.php?action_kouhyou_detail_004_kani=true&JigyosyoCd=0174142059-00&ServiceCd=331&Type=search" }, "geometry": { "type": "Point", "coordinates": [ 144.394941, 43.0278615 ] } },
{ "type": "Feature", "properties": { "内容": "介護付有料老人ホームいっ歩　はなどり【特定施設入居者生活介護（有料老人ホーム）】北海道釧路市星が浦大通５丁目３番４号", "url2": "https://www.kaigokensaku.mhlw.go.jp/01/index.php?action_kouhyou_detail_004_kani=true&JigyosyoCd=0174142828-00&ServiceCd=331&Type=search" }, "geometry": { "type": "Point", "coordinates": [ 144.3031439, 43.0119296 ] } },
{ "type": "Feature", "properties": { "内容": "あいけあガーデン共栄大通【特定施設入居者生活介護（有料老人ホーム）】北海道釧路市共栄大通５丁目２番８号", "url2": "https://www.kaigokensaku.mhlw.go.jp/01/index.php?action_kouhyou_detail_004_kani=true&JigyosyoCd=0174101857-00&ServiceCd=331&Type=search" }, "geometry": { "type": "Point", "coordinates": [ 144.379899799999947, 42.9970445 ] } },
{ "type": "Feature", "properties": { "内容": "あいけあガーデン春採【特定施設入居者生活介護（有料老人ホーム）】北海道釧路市春採８丁目８番４号", "url2": "https://www.kaigokensaku.mhlw.go.jp/01/index.php?action_kouhyou_detail_004_kani=true&JigyosyoCd=0174102053-00&ServiceCd=331&Type=search" }, "geometry": { "type": "Point", "coordinates": [ 144.425884200000041, 42.9754215 ] } },
{ "type": "Feature", "properties": { "内容": "介護付き有料老人ホーム　ことのは【特定施設入居者生活介護（有料老人ホーム）】北海道釧路市貝塚１丁目６番３４号", "url2": "https://www.kaigokensaku.mhlw.go.jp/01/index.php?action_kouhyou_detail_004_kani=true&JigyosyoCd=0174142604-00&ServiceCd=331&Type=search" }, "geometry": { "type": "Point", "coordinates": [ 144.409513523278775, 42.993121075151286 ] } },
{ "type": "Feature", "properties": { "内容": "シルバーシティ十勝おびひろ【特定施設入居者生活介護（有料老人ホーム）】北海道帯広市西6条南10丁目51番地1", "url2": "https://www.kaigokensaku.mhlw.go.jp/01/index.php?action_kouhyou_detail_004_kani=true&JigyosyoCd=0174601617-00&ServiceCd=331&Type=search" }, "geometry": { "type": "Point", "coordinates": [ 143.195714400000043, 42.9200327 ] } },
{ "type": "Feature", "properties": { "内容": "介護付有料老人ホーム川北くらぶ【特定施設入居者生活介護（有料老人ホーム）】北海道帯広市西６条北５丁目１４番地５", "url2": "https://www.kaigokensaku.mhlw.go.jp/01/index.php?action_kouhyou_detail_004_kani=true&JigyosyoCd=0174601872-00&ServiceCd=331&Type=search" }, "geometry": { "type": "Point", "coordinates": [ 143.212925600000062, 42.935343 ] } },
{ "type": "Feature", "properties": { "内容": "ニチイケアセンター帯広緑ヶ丘【特定施設入居者生活介護（有料老人ホーム）】北海道帯広市西16条南6丁目30番10号", "url2": "https://www.kaigokensaku.mhlw.go.jp/01/index.php?action_kouhyou_detail_004_kani=true&JigyosyoCd=0174601385-00&ServiceCd=331&Type=search" }, "geometry": { "type": "Point", "coordinates": [ 143.176572299999947, 42.9042754 ] } },
{ "type": "Feature", "properties": { "内容": "シルバーヒルズるくる【特定施設入居者生活介護（有料老人ホーム）】北海道帯広市西３条南６丁目２番地１", "url2": "https://www.kaigokensaku.mhlw.go.jp/01/index.php?action_kouhyou_detail_004_kani=true&JigyosyoCd=0174600924-00&ServiceCd=331&Type=search" }, "geometry": { "type": "Point", "coordinates": [ 143.200333099999966, 42.9254934 ] } },
{ "type": "Feature", "properties": { "内容": "ライフシップ　ケア帯広【特定施設入居者生活介護（有料老人ホーム）】北海道帯広市西7条南6丁目1-4", "url2": "https://www.kaigokensaku.mhlw.go.jp/01/index.php?action_kouhyou_detail_004_kani=true&JigyosyoCd=0174602391-00&ServiceCd=331&Type=search" }, "geometry": { "type": "Point", "coordinates": [ 143.193034600000033, 42.9251882 ] } },
{ "type": "Feature", "properties": { "内容": "グッドタイムホーム・帯広【特定施設入居者生活介護（有料老人ホーム）】北海道帯広市東3条南12丁目1番3号", "url2": "https://www.kaigokensaku.mhlw.go.jp/01/index.php?action_kouhyou_detail_004_kani=true&JigyosyoCd=0174602706-00&ServiceCd=331&Type=search" }, "geometry": { "type": "Point", "coordinates": [ 143.210124799999988, 42.919083499999985 ] } },
{ "type": "Feature", "properties": { "内容": "介護付有料老人ホームフルールハピネスおびひろ【特定施設入居者生活介護（有料老人ホーム）】帯広市東１０条南５丁目１番地", "url2": "https://www.kaigokensaku.mhlw.go.jp/01/index.php?action_kouhyou_detail_004_kani=true&JigyosyoCd=0174601484-00&ServiceCd=331&Type=search" }, "geometry": { "type": "Point", "coordinates": [ 143.220875100000058, 42.927811 ] } },
{ "type": "Feature", "properties": { "内容": "介護付き有料老人ホームまごころ【特定施設入居者生活介護（有料老人ホーム）】北見市田端町１８番地６", "url2": "https://www.kaigokensaku.mhlw.go.jp/01/index.php?action_kouhyou_detail_004_kani=true&JigyosyoCd=0175012426-00&ServiceCd=331&Type=search" }, "geometry": { "type": "Point", "coordinates": [ 143.912674699999968, 43.8163261 ] } },
{ "type": "Feature", "properties": { "内容": "ニチイケアセンター東三輪【特定施設入居者生活介護（有料老人ホーム）】北海道北見市東三輪１丁目８６－３", "url2": "https://www.kaigokensaku.mhlw.go.jp/01/index.php?action_kouhyou_detail_004_kani=true&JigyosyoCd=0175011808-00&ServiceCd=331&Type=search" }, "geometry": { "type": "Point", "coordinates": [ 143.8606347, 43.8008807 ] } },
{ "type": "Feature", "properties": { "内容": "介護付有料老人ホーム　みんと倶楽部【特定施設入居者生活介護（有料老人ホーム）】北海道北見市東三輪2丁目53番7", "url2": "https://www.kaigokensaku.mhlw.go.jp/01/index.php?action_kouhyou_detail_004_kani=true&JigyosyoCd=0175000827-00&ServiceCd=331&Type=search" }, "geometry": { "type": "Point", "coordinates": [ 143.880227710450754, 43.812090608215833 ] } },
{ "type": "Feature", "properties": { "内容": "介護付有料老人ホームサンヴィレッジ岩見沢元町【特定施設入居者生活介護（有料老人ホーム）】岩見沢市元町３条東５丁目１番５号サンヴィレッジ岩見沢元町", "url2": "https://www.kaigokensaku.mhlw.go.jp/01/index.php?action_kouhyou_detail_004_kani=true&JigyosyoCd=0175700707-00&ServiceCd=331&Type=search" }, "geometry": { "type": "Point", "coordinates": [ 141.76665550000007, 43.211259 ] } },
{ "type": "Feature", "properties": { "内容": "サンヴィレッジ岩見沢元町【特定施設入居者生活介護（有料老人ホーム）】北海道岩見沢市元町３条５丁目１-５", "url2": "https://www.kaigokensaku.mhlw.go.jp/01/index.php?action_kouhyou_detail_004_kani=true&JigyosyoCd=0175809490-00&ServiceCd=331&Type=search" }, "geometry": { "type": "Point", "coordinates": [ 141.76665550000007, 43.211259 ] } },
{ "type": "Feature", "properties": { "内容": "介護付有料老人ホームオアシス１･２番館【特定施設入居者生活介護（有料老人ホーム）】北海道岩見沢市２条西５丁目２－７", "url2": "https://www.kaigokensaku.mhlw.go.jp/01/index.php?action_kouhyou_detail_004_kani=true&JigyosyoCd=0175701069-00&ServiceCd=331&Type=search" }, "geometry": { "type": "Point", "coordinates": [ 141.761059199999977, 43.2029653 ] } },
{ "type": "Feature", "properties": { "内容": "介護付有料老人ホ－ムふれあいの里　いわみざわ華心【特定施設入居者生活介護（有料老人ホーム）】北海道岩見沢市西川町467番地1", "url2": "https://www.kaigokensaku.mhlw.go.jp/01/index.php?action_kouhyou_detail_004_kani=true&JigyosyoCd=0175700871-00&ServiceCd=331&Type=search" }, "geometry": { "type": "Point", "coordinates": [ 141.738563099999965, 43.211572 ] } },
{ "type": "Feature", "properties": { "内容": "リブウェル岩見沢【特定施設入居者生活介護（有料老人ホーム）】北海道岩見沢市５条西７丁目１番３号", "url2": "https://www.kaigokensaku.mhlw.go.jp/01/index.php?action_kouhyou_detail_004_kani=true&JigyosyoCd=0175701275-00&ServiceCd=331&Type=search" }, "geometry": { "type": "Point", "coordinates": [ 141.7615084, 43.2000818 ] } },
{ "type": "Feature", "properties": { "内容": "介護付有料老人ホーム「海の丘」【特定施設入居者生活介護（有料老人ホーム）】北海道苫小牧市錦岡４９５－１２４３", "url2": "https://www.kaigokensaku.mhlw.go.jp/01/index.php?action_kouhyou_detail_004_kani=true&JigyosyoCd=0173601097-00&ServiceCd=331&Type=search" }, "geometry": { "type": "Point", "coordinates": [ 141.481517, 42.6168094 ] } },
{ "type": "Feature", "properties": { "内容": "介護付有料老人ホーム菜の花【特定施設入居者生活介護（有料老人ホーム）】苫小牧市明徳町４丁目６番２１号", "url2": "https://www.kaigokensaku.mhlw.go.jp/01/index.php?action_kouhyou_detail_004_kani=true&JigyosyoCd=0173601527-00&ServiceCd=331&Type=search" }, "geometry": { "type": "Point", "coordinates": [ 141.488319400000023, 42.6134435 ] } },
{ "type": "Feature", "properties": { "内容": "介護付有料老人ホーム花音【特定施設入居者生活介護（有料老人ホーム）】北海道江別市大麻北町520番地5", "url2": "https://www.kaigokensaku.mhlw.go.jp/01/index.php?action_kouhyou_detail_004_kani=true&JigyosyoCd=0171001019-00&ServiceCd=331&Type=search" }, "geometry": { "type": "Point", "coordinates": [ 141.501678800000036, 43.0874061 ] } },
{ "type": "Feature", "properties": { "内容": "江別ケアパークそよ風【特定施設入居者生活介護（有料老人ホーム）】北海道江別市1条3丁目12-2江別ケアパークそよ風", "url2": "https://www.kaigokensaku.mhlw.go.jp/01/index.php?action_kouhyou_detail_004_kani=true&JigyosyoCd=0171000714-00&ServiceCd=331&Type=search" }, "geometry": { "type": "Point", "coordinates": [ 141.559353099999953, 43.111872 ] } },
{ "type": "Feature", "properties": { "内容": "特定施設入居者生活介護もみの木【特定施設入居者生活介護（有料老人ホーム）】北海道江別市野幌寿町30番地4トーアいこいの杜生活支援センター", "url2": "https://www.kaigokensaku.mhlw.go.jp/01/index.php?action_kouhyou_detail_004_kani=true&JigyosyoCd=0171000912-00&ServiceCd=331&Type=search" }, "geometry": { "type": "Point", "coordinates": [ 141.521803299999988, 43.1013749 ] } },
{ "type": "Feature", "properties": { "内容": "ふれあいの里　華仙【特定施設入居者生活介護（有料老人ホーム）】北海道江別市上江別西町5番地の5", "url2": "https://www.kaigokensaku.mhlw.go.jp/01/index.php?action_kouhyou_detail_004_kani=true&JigyosyoCd=0171001134-00&ServiceCd=331&Type=search" }, "geometry": { "type": "Point", "coordinates": [ 141.552644729001173, 43.106351965182789 ] } },
{ "type": "Feature", "properties": { "内容": "混合型特定施設入居者生活介護ふじ【特定施設入居者生活介護（有料老人ホーム）】北海道士別市大通北８丁目171番地７介護付有料老人ホーム", "url2": "https://www.kaigokensaku.mhlw.go.jp/01/index.php?action_kouhyou_detail_004_kani=true&JigyosyoCd=0173200973-00&ServiceCd=331&Type=search" }, "geometry": { "type": "Point", "coordinates": [ 142.388003200000014, 44.1876535 ] } },
{ "type": "Feature", "properties": { "内容": "介護付有料老人ホーム至福の館士別の金さん銀さん【特定施設入居者生活介護（有料老人ホーム）】北海道士別市大通東15丁目３１４４番地174介護付有料老人ホーム　至福の館　士別の金さん銀さん", "url2": "https://www.kaigokensaku.mhlw.go.jp/01/index.php?action_kouhyou_detail_004_kani=true&JigyosyoCd=0173200908-00&ServiceCd=331&Type=search" }, "geometry": { "type": "Point", "coordinates": [ 142.396450756483432, 44.167275185237024 ] } },
{ "type": "Feature", "properties": { "内容": "介護付有料老人ホーム勢和【特定施設入居者生活介護（有料老人ホーム）】北海道根室市定基町３丁目３番地", "url2": "https://www.kaigokensaku.mhlw.go.jp/01/index.php?action_kouhyou_detail_004_kani=true&JigyosyoCd=0174200402-00&ServiceCd=331&Type=search" }, "geometry": { "type": "Point", "coordinates": [ 145.573007599999983, 43.3282344 ] } },
{ "type": "Feature", "properties": { "内容": "介護付有料老人ホームフルールハピネスたきかわ【特定施設入居者生活介護（有料老人ホーム）】北海道滝川市栄町1丁目11番30号", "url2": "https://www.kaigokensaku.mhlw.go.jp/01/index.php?action_kouhyou_detail_004_kani=true&JigyosyoCd=0177500345-00&ServiceCd=331&Type=search" }, "geometry": { "type": "Point", "coordinates": [ 141.903340599999979, 43.5528089 ] } },
{ "type": "Feature", "properties": { "内容": "介護付有料老人ホームあおぞら【特定施設入居者生活介護（有料老人ホーム）】滝川市花月町３丁目６番１７号", "url2": "https://www.kaigokensaku.mhlw.go.jp/01/index.php?action_kouhyou_detail_004_kani=true&JigyosyoCd=0177500352-00&ServiceCd=331&Type=search" }, "geometry": { "type": "Point", "coordinates": [ 141.905804399999965, 43.5500315 ] } },
{ "type": "Feature", "properties": { "内容": "有料老人ホームらくら砂川【特定施設入居者生活介護（有料老人ホーム）】北海道砂川市西2条北3丁目1-1SUNAGAWAエヌタワービル", "url2": "https://www.kaigokensaku.mhlw.go.jp/01/index.php?action_kouhyou_detail_004_kani=true&JigyosyoCd=0177100872-00&ServiceCd=331&Type=search" }, "geometry": { "type": "Point", "coordinates": [ 141.906521099999964, 43.4939734 ] } },
{ "type": "Feature", "properties": { "内容": "介護付有料老人ホームねんりん館【特定施設入居者生活介護（有料老人ホーム）】砂川市西4条北17丁目１番１号", "url2": "https://www.kaigokensaku.mhlw.go.jp/01/index.php?action_kouhyou_detail_004_kani=true&JigyosyoCd=0177100468-00&ServiceCd=331&Type=search" }, "geometry": { "type": "Point", "coordinates": [ 141.909756916857276, 43.513438378263949 ] } },
{ "type": "Feature", "properties": { "内容": "介護付有料老人ホームこんにちわ金さん銀さん【特定施設入居者生活介護（有料老人ホーム）】北海道深川市音江町1丁目3番13号", "url2": "https://www.kaigokensaku.mhlw.go.jp/01/index.php?action_kouhyou_detail_004_kani=true&JigyosyoCd=0177400447-00&ServiceCd=331&Type=search" }, "geometry": { "type": "Point", "coordinates": [ 142.070820899999944, 43.6953781 ] } },
{ "type": "Feature", "properties": { "内容": "花・水・木　富良野【特定施設入居者生活介護（有料老人ホーム）】北海道富良野市幸町9番3号介護付き有料老人ホーム　花・水・木富良野", "url2": "https://www.kaigokensaku.mhlw.go.jp/01/index.php?action_kouhyou_detail_004_kani=true&JigyosyoCd=0173000522-00&ServiceCd=331&Type=search" }, "geometry": { "type": "Point", "coordinates": [ 142.3872778, 43.3433981 ] } },
{ "type": "Feature", "properties": { "内容": "グッドタイムホーム・登別　壱番館【特定施設入居者生活介護（有料老人ホーム）】北海道登別市常盤町3丁目1番地9", "url2": "https://www.kaigokensaku.mhlw.go.jp/01/index.php?action_kouhyou_detail_004_kani=true&JigyosyoCd=0173502386-00&ServiceCd=331&Type=search" }, "geometry": { "type": "Point", "coordinates": [ 141.1065975, 42.416695700000034 ] } },
{ "type": "Feature", "properties": { "内容": "さらさ　伊達【特定施設入居者生活介護（有料老人ホーム）】伊達市山下町８番７号", "url2": "https://www.kaigokensaku.mhlw.go.jp/01/index.php?action_kouhyou_detail_004_kani=true&JigyosyoCd=0173700493-00&ServiceCd=331&Type=search" }, "geometry": { "type": "Point", "coordinates": [ 140.855457099999967, 42.4697785 ] } },
{ "type": "Feature", "properties": { "内容": "介護付有料老人ホームチエロだて【特定施設入居者生活介護（有料老人ホーム）】北海道伊達市舟岡町340番地1", "url2": "https://www.kaigokensaku.mhlw.go.jp/01/index.php?action_kouhyou_detail_004_kani=true&JigyosyoCd=0173700592-00&ServiceCd=331&Type=search" }, "geometry": { "type": "Point", "coordinates": [ 140.8785117, 42.4602551 ] } },
{ "type": "Feature", "properties": { "内容": "介護付有料老人ホームサンヴィレッジ北広島【特定施設入居者生活介護（有料老人ホーム）】北海道北広島市中央6丁目9-2", "url2": "https://www.kaigokensaku.mhlw.go.jp/01/index.php?action_kouhyou_detail_004_kani=true&JigyosyoCd=0171300700-00&ServiceCd=331&Type=search" }, "geometry": { "type": "Point", "coordinates": [ 141.566575595330846, 42.977263338793691 ] } },
{ "type": "Feature", "properties": { "内容": "介護付有料老人ホームあんじゅう七重浜【特定施設入居者生活介護（有料老人ホーム）】北海道北斗市七重浜一丁目4番17号", "url2": "https://www.kaigokensaku.mhlw.go.jp/01/index.php?action_kouhyou_detail_004_kani=true&JigyosyoCd=0171501174-00&ServiceCd=331&Type=search" }, "geometry": { "type": "Point", "coordinates": [ 140.709782200000063, 41.8119494 ] } },
{ "type": "Feature", "properties": { "内容": "介護付有料老人ホーム晴れやか【特定施設入居者生活介護（有料老人ホーム）】北海道北斗市飯生１丁目６番７号", "url2": "https://www.kaigokensaku.mhlw.go.jp/01/index.php?action_kouhyou_detail_004_kani=true&JigyosyoCd=0171501752-00&ServiceCd=331&Type=search" }, "geometry": { "type": "Point", "coordinates": [ 140.644952955155986, 41.820628127783117 ] } },
{ "type": "Feature", "properties": { "内容": "有料老人ホームらくら当別【特定施設入居者生活介護（有料老人ホーム）】北海道石狩郡当別町太美町2343番地39", "url2": "https://www.kaigokensaku.mhlw.go.jp/01/index.php?action_kouhyou_detail_004_kani=true&JigyosyoCd=0171000094-00&ServiceCd=331&Type=search" }, "geometry": { "type": "Point", "coordinates": [ 141.444497779762287, 43.188087039939909 ] } },
{ "type": "Feature", "properties": { "内容": "介護付有料老人ホーム　フルールハピネスななえ【特定施設入居者生活介護（有料老人ホーム）】北海道亀田郡七飯町本町３丁目９番１７号", "url2": "https://www.kaigokensaku.mhlw.go.jp/01/index.php?action_kouhyou_detail_004_kani=true&JigyosyoCd=0171502016-00&ServiceCd=331&Type=search" }, "geometry": { "type": "Point", "coordinates": [ 140.6914903, 41.8938883 ] } },
{ "type": "Feature", "properties": { "内容": "特定施設入居者生活介護施設　豊生園【特定施設入居者生活介護（有料老人ホーム）】茅部郡森町字上台町３２６番地の８豊生園", "url2": "https://www.kaigokensaku.mhlw.go.jp/01/index.php?action_kouhyou_detail_004_kani=true&JigyosyoCd=0171501273-00&ServiceCd=331&Type=search" }, "geometry": { "type": "Point", "coordinates": [ 140.5611424, 42.0977064 ] } },
{ "type": "Feature", "properties": { "内容": "ゆいま～る厚沢部【特定施設入居者生活介護（有料老人ホーム）】北海道檜山郡厚沢部町新町115番地", "url2": "https://www.kaigokensaku.mhlw.go.jp/01/index.php?action_kouhyou_detail_004_kani=true&JigyosyoCd=0171600448-00&ServiceCd=331&Type=search" }, "geometry": { "type": "Point", "coordinates": [ 140.2262498, 41.919662 ] } },
{ "type": "Feature", "properties": { "内容": "介護付有料老人ホーム七福神恵比寿館【特定施設入居者生活介護（有料老人ホーム）】北海道岩内郡岩内町字栄7番地3", "url2": "https://www.kaigokensaku.mhlw.go.jp/01/index.php?action_kouhyou_detail_004_kani=true&JigyosyoCd=0172300279-00&ServiceCd=331&Type=search" }, "geometry": { "type": "Point", "coordinates": [ 140.518307899999968, 42.9809739 ] } },
{ "type": "Feature", "properties": { "内容": "介護付有料老人ホームかえでの杜【特定施設入居者生活介護（有料老人ホーム）】北海道夕張郡長沼町西町1丁目8番1号介護付有料老人ホームかえでの杜", "url2": "https://www.kaigokensaku.mhlw.go.jp/01/index.php?action_kouhyou_detail_004_kani=true&JigyosyoCd=0175809532-00&ServiceCd=331&Type=search" }, "geometry": { "type": "Point", "coordinates": [ 141.68335496745911, 43.014920105927317 ] } },
{ "type": "Feature", "properties": { "内容": "介護付有料老人ホームプライエボーリくりやま【特定施設入居者生活介護（有料老人ホーム）】北海道夕張郡栗山町中央3丁目192番地1", "url2": "https://www.kaigokensaku.mhlw.go.jp/01/index.php?action_kouhyou_detail_004_kani=true&JigyosyoCd=0175809466-00&ServiceCd=331&Type=search" }, "geometry": { "type": "Point", "coordinates": [ 141.778514099999938, 43.0548789 ] } },
{ "type": "Feature", "properties": { "内容": "廣樹庵【特定施設入居者生活介護（有料老人ホーム）】北海道夕張郡栗山町字中里61-12", "url2": "https://www.kaigokensaku.mhlw.go.jp/01/index.php?action_kouhyou_detail_004_kani=true&JigyosyoCd=0175809474-00&ServiceCd=331&Type=search" }, "geometry": { "type": "Point", "coordinates": [ 141.79804009999998, 43.0526325 ] } },
{ "type": "Feature", "properties": { "内容": "介護付有料老人ホームサンヴィレッジ栗山【特定施設入居者生活介護（有料老人ホーム）】北海道夕張郡栗山町松風3丁目45-1", "url2": "https://www.kaigokensaku.mhlw.go.jp/01/index.php?action_kouhyou_detail_004_kani=true&JigyosyoCd=0175809482-00&ServiceCd=331&Type=search" }, "geometry": { "type": "Point", "coordinates": [ 141.788202, 43.059398 ] } },
{ "type": "Feature", "properties": { "内容": "介護付有料老人ホーム　アットホームサルビア【特定施設入居者生活介護（有料老人ホーム）】北海道雨竜郡秩父別町1542番地1", "url2": "https://www.kaigokensaku.mhlw.go.jp/01/index.php?action_kouhyou_detail_004_kani=true&JigyosyoCd=0177400488-00&ServiceCd=331&Type=search" }, "geometry": { "type": "Point", "coordinates": [ -218.044863381616153, 43.767172661847695 ] } },
{ "type": "Feature", "properties": { "内容": "さわやか東神楽館【特定施設入居者生活介護（有料老人ホーム）】北海道上川郡東神楽町北1条東2丁目9番18号", "url2": "https://www.kaigokensaku.mhlw.go.jp/01/index.php?action_kouhyou_detail_004_kani=true&JigyosyoCd=0173100447-00&ServiceCd=331&Type=search" }, "geometry": { "type": "Point", "coordinates": [ 142.460391699999946, 43.6974731 ] } },
{ "type": "Feature", "properties": { "内容": "介護付きホーム　ファミリー【特定施設入居者生活介護（有料老人ホーム）】北海道上川郡東川町北町5丁目４－１１", "url2": "https://www.kaigokensaku.mhlw.go.jp/01/index.php?action_kouhyou_detail_004_kani=true&JigyosyoCd=0173100298-00&ServiceCd=331&Type=search" }, "geometry": { "type": "Point", "coordinates": [ 142.494337299999984, 43.705481499999983 ] } },
{ "type": "Feature", "properties": { "内容": "介護付有料老人ホームさくら園ましけ【特定施設入居者生活介護（有料老人ホーム）】北海道増毛郡増毛町南暑寒町９丁目105番地の２", "url2": "https://www.kaigokensaku.mhlw.go.jp/01/index.php?action_kouhyou_detail_004_kani=true&JigyosyoCd=0176400463-00&ServiceCd=331&Type=search" }, "geometry": { "type": "Point", "coordinates": [ 141.520995916146859, 43.848225284269525 ] } },
{ "type": "Feature", "properties": { "内容": "介護付有料老人ホーム陽光園【特定施設入居者生活介護（有料老人ホーム）】北海道留萌郡小平町字小平町４３３番地２９", "url2": "https://www.kaigokensaku.mhlw.go.jp/01/index.php?action_kouhyou_detail_004_kani=true&JigyosyoCd=0176400422-00&ServiceCd=331&Type=search" }, "geometry": { "type": "Point", "coordinates": [ 141.670202199999949, 44.0165242 ] } },
{ "type": "Feature", "properties": { "内容": "介護付有料老人ホーム悠悠【特定施設入居者生活介護（有料老人ホーム）】北海道白老郡白老町高砂町３丁目１番６号", "url2": "https://www.kaigokensaku.mhlw.go.jp/01/index.php?action_kouhyou_detail_004_kani=true&JigyosyoCd=0173629809-00&ServiceCd=331&Type=search" }, "geometry": { "type": "Point", "coordinates": [ 141.3491835, 42.5470219 ] } },
{ "type": "Feature", "properties": { "内容": "特定施設入居者生活介護ことの葉おとふけ【特定施設入居者生活介護（有料老人ホーム）】北海道河東郡音更町木野大通西13丁目1番11", "url2": "https://www.kaigokensaku.mhlw.go.jp/01/index.php?action_kouhyou_detail_004_kani=true&JigyosyoCd=0174702068-00&ServiceCd=331&Type=search" }, "geometry": { "type": "Point", "coordinates": [ 143.206087599999989, 42.9619584 ] } },
{ "type": "Feature", "properties": { "内容": "特定施設入居者生活介護カーサクオリス【特定施設入居者生活介護（有料老人ホーム）】釧路郡釧路町木場１丁目１０番地３", "url2": "https://www.kaigokensaku.mhlw.go.jp/01/index.php?action_kouhyou_detail_004_kani=true&JigyosyoCd=0174300681-00&ServiceCd=331&Type=search" }, "geometry": { "type": "Point", "coordinates": [ 144.407396400000039, 43.0062642 ] } },
{ "type": "Feature", "properties": { "内容": "介護付有料老人ホームはまなす睦館【特定施設入居者生活介護（有料老人ホーム）】北海道釧路郡釧路町睦2丁目1番地6", "url2": "https://www.kaigokensaku.mhlw.go.jp/01/index.php?action_kouhyou_detail_004_kani=true&JigyosyoCd=0174300590-00&ServiceCd=331&Type=search" }, "geometry": { "type": "Point", "coordinates": [ 144.412131600000066, 43.0120334 ] } },
{ "type": "Feature", "properties": { "内容": "あいけあガーデン東陽【特定施設入居者生活介護（有料老人ホーム）】北海道釧路郡釧路町東陽西１丁目２５番地６", "url2": "https://www.kaigokensaku.mhlw.go.jp/01/index.php?action_kouhyou_detail_004_kani=true&JigyosyoCd=0174300830-00&ServiceCd=331&Type=search" }, "geometry": { "type": "Point", "coordinates": [ 144.432060500000034, 42.9988633 ] } }
]
}
