{
"type": "FeatureCollection",
"name": "geo_01_看護小規模多機能型居宅介護（複合型サービス）",
"crs": { "type": "name", "properties": { "name": "urn:ogc:def:crs:OGC:1.3:CRS84" } },
"features": [
{ "type": "Feature", "properties": { "内容": "看護小規模多機能ホーム『ミヤビーの家』【看護小規模多機能型居宅介護（複合型サービス）】札幌市中央区宮の森2条13丁目12-10", "url2": "https://www.kaigokensaku.mhlw.go.jp/01/index.php?action_kouhyou_detail_004_kani=true&JigyosyoCd=0190101105-00&ServiceCd=&Type=search" }, "geometry": { "type": "Point", "coordinates": [ 141.29939940674592, 43.054423515044704 ] } },
{ "type": "Feature", "properties": { "内容": "看多機　アイケア山鼻【看護小規模多機能型居宅介護（複合型サービス）】北海道札幌市中央区南１９条西７丁目2-17-101秋葉アパート１０１号室", "url2": "https://www.kaigokensaku.mhlw.go.jp/01/index.php?action_kouhyou_detail_004_kani=true&JigyosyoCd=0190101147-00&ServiceCd=&Type=search" }, "geometry": { "type": "Point", "coordinates": [ 141.350150595106498, 43.034718152280405 ] } },
{ "type": "Feature", "properties": { "内容": "複合型サービスふれあい【看護小規模多機能型居宅介護（複合型サービス）】札幌市中央区南16条西8丁目2-37", "url2": "https://www.kaigokensaku.mhlw.go.jp/01/index.php?action_kouhyou_detail_004_kani=true&JigyosyoCd=0190100347-00&ServiceCd=&Type=search" }, "geometry": { "type": "Point", "coordinates": [ 141.348755798811311, 43.038363846861422 ] } },
{ "type": "Feature", "properties": { "内容": "複合型サービスふれあい198【看護小規模多機能型居宅介護（複合型サービス）】北海道札幌市中央区南19条西8丁目2-10", "url2": "https://www.kaigokensaku.mhlw.go.jp/01/index.php?action_kouhyou_detail_004_kani=true&JigyosyoCd=0190101154-00&ServiceCd=&Type=search" }, "geometry": { "type": "Point", "coordinates": [ 141.349295161184074, 43.033934258530678 ] } },
{ "type": "Feature", "properties": { "内容": "看多機　つなぐ【看護小規模多機能型居宅介護（複合型サービス）】北海道札幌市中央区南12条西10丁目1－12ふれあいの森南12条館２階", "url2": "https://www.kaigokensaku.mhlw.go.jp/01/index.php?action_kouhyou_detail_004_kani=true&JigyosyoCd=0190101121-00&ServiceCd=&Type=search" }, "geometry": { "type": "Point", "coordinates": [ 141.343398799999989, 43.0442088 ] } },
{ "type": "Feature", "properties": { "内容": "看護小規模多機能型居宅介護事業所　海陽亭【看護小規模多機能型居宅介護（複合型サービス）】北海道札幌市中央区南11条西1丁目5-8海陽亭", "url2": "https://www.kaigokensaku.mhlw.go.jp/01/index.php?action_kouhyou_detail_004_kani=true&JigyosyoCd=0190100727-00&ServiceCd=&Type=search" }, "geometry": { "type": "Point", "coordinates": [ 141.356852099999969, 43.0462922 ] } },
{ "type": "Feature", "properties": { "内容": "看護小規模多機能ら・すれ【看護小規模多機能型居宅介護（複合型サービス）】北海道札幌市北区屯田11条3丁目7番20号高齢者複合施設ら・すれ", "url2": "https://www.kaigokensaku.mhlw.go.jp/01/index.php?action_kouhyou_detail_004_kani=true&JigyosyoCd=0190200923-00&ServiceCd=&Type=search" }, "geometry": { "type": "Point", "coordinates": [ 141.342108, 43.1484259 ] } },
{ "type": "Feature", "properties": { "内容": "勤医協看護小規模多機能型居宅介護　紬【看護小規模多機能型居宅介護（複合型サービス）】北海道札幌市北区北32条西8丁目1番1号勤医協北32条在宅総合センター", "url2": "https://www.kaigokensaku.mhlw.go.jp/01/index.php?action_kouhyou_detail_004_kani=true&JigyosyoCd=0190201772-00&ServiceCd=&Type=search" }, "geometry": { "type": "Point", "coordinates": [ 141.336058920901451, 43.098025247160365 ] } },
{ "type": "Feature", "properties": { "内容": "看護小規模多機能型居宅介護事業所　えくぼ元町【看護小規模多機能型居宅介護（複合型サービス）】札幌市東区北25条東20丁目7番1号", "url2": "https://www.kaigokensaku.mhlw.go.jp/01/index.php?action_kouhyou_detail_004_kani=true&JigyosyoCd=0190201343-00&ServiceCd=&Type=search" }, "geometry": { "type": "Point", "coordinates": [ 141.3834829, 43.0963731 ] } },
{ "type": "Feature", "properties": { "内容": "看護小規模多機能型居宅介護あおい北40条【看護小規模多機能型居宅介護（複合型サービス）】北海道札幌市東区北40条東9丁目3-5住宅型有料老人ホームあおい北40条館", "url2": "https://www.kaigokensaku.mhlw.go.jp/01/index.php?action_kouhyou_detail_004_kani=true&JigyosyoCd=0190201582-00&ServiceCd=&Type=search" }, "geometry": { "type": "Point", "coordinates": [ 141.358914700000014, 43.1100383 ] } },
{ "type": "Feature", "properties": { "内容": "看護小規模多機能型居宅介護あおい新道東【看護小規模多機能型居宅介護（複合型サービス）】北海道札幌市東区北35条東15丁目1-11", "url2": "https://www.kaigokensaku.mhlw.go.jp/01/index.php?action_kouhyou_detail_004_kani=true&JigyosyoCd=0190201624-00&ServiceCd=&Type=search" }, "geometry": { "type": "Point", "coordinates": [ 141.368236700000011, 43.1054674 ] } },
{ "type": "Feature", "properties": { "内容": "サテライトあおい元町【看護小規模多機能型居宅介護（複合型サービス）】北海道札幌市東区北21条東19丁目1－6", "url2": "https://www.kaigokensaku.mhlw.go.jp/01/index.php?action_kouhyou_detail_004_kani=true&JigyosyoCd=0190201723-00&ServiceCd=&Type=search" }, "geometry": { "type": "Point", "coordinates": [ 141.378764600000011, 43.0905672 ] } },
{ "type": "Feature", "properties": { "内容": "あおい北47条【看護小規模多機能型居宅介護（複合型サービス）】北海道札幌市東区北47条東3丁目4番10号有料老人ホーム　あおい北47条館", "url2": "https://www.kaigokensaku.mhlw.go.jp/01/index.php?action_kouhyou_detail_004_kani=true&JigyosyoCd=0190202168-00&ServiceCd=&Type=search" }, "geometry": { "type": "Point", "coordinates": [ 141.34700620000001, 43.1176763 ] } },
{ "type": "Feature", "properties": { "内容": "ツクイ札幌麻生【看護小規模多機能型居宅介護（複合型サービス）】北海道札幌市東区北35条東1丁目5－７", "url2": "https://www.kaigokensaku.mhlw.go.jp/01/index.php?action_kouhyou_detail_004_kani=true&JigyosyoCd=0190201921-00&ServiceCd=&Type=search" }, "geometry": { "type": "Point", "coordinates": [ 141.347259, 43.1034763 ] } },
{ "type": "Feature", "properties": { "内容": "看護小規模多機能型居宅介護絆苗穂通り館【看護小規模多機能型居宅介護（複合型サービス）】北海道札幌市東区伏古5条3丁目4番22号", "url2": "https://www.kaigokensaku.mhlw.go.jp/01/index.php?action_kouhyou_detail_004_kani=true&JigyosyoCd=0190200949-00&ServiceCd=&Type=search" }, "geometry": { "type": "Point", "coordinates": [ 141.39311404299167, 43.087393239759457 ] } },
{ "type": "Feature", "properties": { "内容": "複合型サービス事業所　なごみ【看護小規模多機能型居宅介護（複合型サービス）】北海道札幌市東区東苗穂３条１丁目２－９０東苗穂ナーシングケアセンターひだまり内", "url2": "https://www.kaigokensaku.mhlw.go.jp/01/index.php?action_kouhyou_detail_004_kani=true&JigyosyoCd=0190200535-00&ServiceCd=&Type=search" }, "geometry": { "type": "Point", "coordinates": [ 141.399163826914219, 43.087784804183613 ] } },
{ "type": "Feature", "properties": { "内容": "勤医協ひがし看護小規模多機能型居宅介護　こもれび【看護小規模多機能型居宅介護（複合型サービス）】北海道札幌市東区東苗穂5条1丁目１１の１", "url2": "https://www.kaigokensaku.mhlw.go.jp/01/index.php?action_kouhyou_detail_004_kani=true&JigyosyoCd=0190201780-00&ServiceCd=&Type=search" }, "geometry": { "type": "Point", "coordinates": [ 141.4034193, 43.0904307 ] } },
{ "type": "Feature", "properties": { "内容": "あおい栄町【看護小規模多機能型居宅介護（複合型サービス）】札幌市東区北４５条東１４丁目２－３", "url2": "https://www.kaigokensaku.mhlw.go.jp/01/index.php?action_kouhyou_detail_004_kani=true&JigyosyoCd=0190200964-00&ServiceCd=&Type=search" }, "geometry": { "type": "Point", "coordinates": [ 141.3627028, 43.1169331 ] } },
{ "type": "Feature", "properties": { "内容": "ＳＯＭＰＯケア　札幌川下　看護小規模多機能【看護小規模多機能型居宅介護（複合型サービス）】北海道札幌市白石区川下3条6丁目6-1", "url2": "https://www.kaigokensaku.mhlw.go.jp/01/index.php?action_kouhyou_detail_004_kani=true&JigyosyoCd=0190502286-00&ServiceCd=&Type=search" }, "geometry": { "type": "Point", "coordinates": [ 141.448452, 43.0496722 ] } },
{ "type": "Feature", "properties": { "内容": "看護小規模ホーム　はばたき【看護小規模多機能型居宅介護（複合型サービス）】北海道札幌市白石区本郷通３丁目南４－１１スピタール南郷丘", "url2": "https://www.kaigokensaku.mhlw.go.jp/01/index.php?action_kouhyou_detail_004_kani=true&JigyosyoCd=0190501189-00&ServiceCd=&Type=search" }, "geometry": { "type": "Point", "coordinates": [ 141.405564499999969, 43.0462958 ] } },
{ "type": "Feature", "properties": { "内容": "社会福祉法人ノテ福祉会　看護小規模多機能型居宅介護ノテ北郷【看護小規模多機能型居宅介護（複合型サービス）】北海道札幌市白石区北郷1条5丁目４－４８小規模多機能型居宅介護ノテ北郷", "url2": "https://www.kaigokensaku.mhlw.go.jp/01/index.php?action_kouhyou_detail_004_kani=true&JigyosyoCd=0190503102-00&ServiceCd=&Type=search" }, "geometry": { "type": "Point", "coordinates": [ 141.41690650000001, 43.0544797 ] } },
{ "type": "Feature", "properties": { "内容": "勤医協柏ヶ丘看護小規模多機能型居宅介護　絆【看護小規模多機能型居宅介護（複合型サービス）】北海道札幌市白石区本通7丁目北2番16号", "url2": "https://www.kaigokensaku.mhlw.go.jp/01/index.php?action_kouhyou_detail_004_kani=true&JigyosyoCd=0190501403-00&ServiceCd=&Type=search" }, "geometry": { "type": "Point", "coordinates": [ 141.416757800000028, 43.046485 ] } },
{ "type": "Feature", "properties": { "内容": "複合型居宅介護　しらかば【看護小規模多機能型居宅介護（複合型サービス）】北海道札幌市豊平区月寒東3条18丁目20番48号サービス付き高齢者向け住宅しらかばの杜　1Ｆ", "url2": "https://www.kaigokensaku.mhlw.go.jp/01/index.php?action_kouhyou_detail_004_kani=true&JigyosyoCd=0190501312-00&ServiceCd=&Type=search" }, "geometry": { "type": "Point", "coordinates": [ 141.423642100000052, 43.0185327 ] } },
{ "type": "Feature", "properties": { "内容": "看護小規模多機能型居宅介護　ノテ月寒【看護小規模多機能型居宅介護（複合型サービス）】札幌市豊平区月寒東3条11丁目1‐55", "url2": "https://www.kaigokensaku.mhlw.go.jp/01/index.php?action_kouhyou_detail_004_kani=true&JigyosyoCd=0190503441-00&ServiceCd=&Type=search" }, "geometry": { "type": "Point", "coordinates": [ 141.414583, 43.029535 ] } },
{ "type": "Feature", "properties": { "内容": "看護小規模多機能型居宅介護　ノテ中の島【看護小規模多機能型居宅介護（複合型サービス）】北海道札幌市豊平区中の島2条5丁目5-1", "url2": "https://www.kaigokensaku.mhlw.go.jp/01/index.php?action_kouhyou_detail_004_kani=true&JigyosyoCd=0190503573-00&ServiceCd=&Type=search" }, "geometry": { "type": "Point", "coordinates": [ 141.3620197, 43.0306978 ] } },
{ "type": "Feature", "properties": { "内容": "勤医協ひらぎし看護小規模多機能型居宅介護　りんごの里【看護小規模多機能型居宅介護（複合型サービス）】札幌市豊平区平岸6条12丁目9-25", "url2": "https://www.kaigokensaku.mhlw.go.jp/01/index.php?action_kouhyou_detail_004_kani=true&JigyosyoCd=0190501320-00&ServiceCd=&Type=search" }, "geometry": { "type": "Point", "coordinates": [ 141.379651100000046, 43.0272388 ] } },
{ "type": "Feature", "properties": { "内容": "看護小規模多機能型居宅介護　ノテ真駒内【看護小規模多機能型居宅介護（複合型サービス）】北海道札幌市南区真駒内泉町3丁目1番6－2号", "url2": "https://www.kaigokensaku.mhlw.go.jp/01/index.php?action_kouhyou_detail_004_kani=true&JigyosyoCd=0190503193-00&ServiceCd=&Type=search" }, "geometry": { "type": "Point", "coordinates": [ 141.3555029, 42.9883524 ] } },
{ "type": "Feature", "properties": { "内容": "看護小規模多機能ステーション真駒内の丘【看護小規模多機能型居宅介護（複合型サービス）】北海道札幌市南区真駒内柏丘８丁目７番１号", "url2": "https://www.kaigokensaku.mhlw.go.jp/01/index.php?action_kouhyou_detail_004_kani=true&JigyosyoCd=0190501783-00&ServiceCd=&Type=search" }, "geometry": { "type": "Point", "coordinates": [ 141.347556, 42.9854149 ] } },
{ "type": "Feature", "properties": { "内容": "SOMPOケア　札幌発寒　看護小規模多機能【看護小規模多機能型居宅介護（複合型サービス）】北海道札幌市西区発寒6条４丁目６番３号そんぽの家S　札幌発寒", "url2": "https://www.kaigokensaku.mhlw.go.jp/01/index.php?action_kouhyou_detail_004_kani=true&JigyosyoCd=0190400853-00&ServiceCd=&Type=search" }, "geometry": { "type": "Point", "coordinates": [ 141.292366600000037, 43.0892947 ] } },
{ "type": "Feature", "properties": { "内容": "株式会社BRAVE【看護小規模多機能型居宅介護（複合型サービス）】北海道札幌市西区西野二条5丁目5番1号西野さくら館", "url2": "https://www.kaigokensaku.mhlw.go.jp/01/index.php?action_kouhyou_detail_004_kani=true&JigyosyoCd=0190401604-00&ServiceCd=&Type=search" }, "geometry": { "type": "Point", "coordinates": [ 141.279045543513689, 43.077800698709474 ] } },
{ "type": "Feature", "properties": { "内容": "看護小規模多機能型居宅介護アクア八軒【看護小規模多機能型居宅介護（複合型サービス）】北海道札幌市西区八軒10条東1丁目1番37号", "url2": "https://www.kaigokensaku.mhlw.go.jp/01/index.php?action_kouhyou_detail_004_kani=true&JigyosyoCd=0190401513-00&ServiceCd=&Type=search" }, "geometry": { "type": "Point", "coordinates": [ 141.319461499999989, 43.0914165 ] } },
{ "type": "Feature", "properties": { "内容": "看護小規模多機能型居宅介護はぴねす発寒【看護小規模多機能型居宅介護（複合型サービス）】北海道札幌市西区発寒7条14丁目2-23", "url2": "https://www.kaigokensaku.mhlw.go.jp/01/index.php?action_kouhyou_detail_004_kani=true&JigyosyoCd=0190401018-00&ServiceCd=&Type=search" }, "geometry": { "type": "Point", "coordinates": [ 141.267472199999986, 43.0988871 ] } },
{ "type": "Feature", "properties": { "内容": "看護小規模多機能型居宅介護　交雄会あかり厚別【看護小規模多機能型居宅介護（複合型サービス）】北海道札幌市厚別区大谷地東5丁目7-20", "url2": "https://www.kaigokensaku.mhlw.go.jp/01/index.php?action_kouhyou_detail_004_kani=true&JigyosyoCd=0190503326-00&ServiceCd=&Type=search" }, "geometry": { "type": "Point", "coordinates": [ 141.459606590663157, 43.022818244697163 ] } },
{ "type": "Feature", "properties": { "内容": "ＳＯＭＰＯケア　札幌青葉　看護小規模多機能【看護小規模多機能型居宅介護（複合型サービス）】北海道札幌市厚別区青葉町13丁目5番40号", "url2": "https://www.kaigokensaku.mhlw.go.jp/01/index.php?action_kouhyou_detail_004_kani=true&JigyosyoCd=0190502278-00&ServiceCd=&Type=search" }, "geometry": { "type": "Point", "coordinates": [ 141.480022299999973, 43.0331773 ] } },
{ "type": "Feature", "properties": { "内容": "看護小規模多機能型居宅介護　あおい新さっぽろ【看護小規模多機能型居宅介護（複合型サービス）】札幌市厚別区厚別東1条2丁目2-15あおい新さっぽろ館", "url2": "https://www.kaigokensaku.mhlw.go.jp/01/index.php?action_kouhyou_detail_004_kani=true&JigyosyoCd=0190503086-00&ServiceCd=&Type=search" }, "geometry": { "type": "Point", "coordinates": [ 141.4843869, 43.0403321 ] } },
{ "type": "Feature", "properties": { "内容": "看護小規模多機能型居宅介護あおいもみじ台北【看護小規模多機能型居宅介護（複合型サービス）】北海道札幌市厚別区もみじ台北6丁目1‐7住宅型有料老人ホームあおいもみじ台北館", "url2": "https://www.kaigokensaku.mhlw.go.jp/01/index.php?action_kouhyou_detail_004_kani=true&JigyosyoCd=0190503300-00&ServiceCd=&Type=search" }, "geometry": { "type": "Point", "coordinates": [ 141.491576400000014, 43.0345966 ] } },
{ "type": "Feature", "properties": { "内容": "看護小規模多機能型居宅介護新札幌ひばりが丘【看護小規模多機能型居宅介護（複合型サービス）】北海道札幌市厚別区厚別中央３条2丁目12番40号社会医療法人貞仁会新札幌ひばりが丘病院ウェルフェアセンター", "url2": "https://www.kaigokensaku.mhlw.go.jp/01/index.php?action_kouhyou_detail_004_kani=true&JigyosyoCd=0190503664-00&ServiceCd=&Type=search" }, "geometry": { "type": "Point", "coordinates": [ 141.461282242991643, 43.035873589485007 ] } },
{ "type": "Feature", "properties": { "内容": "看護小規模多機能型居宅介護ノテ新さっぽろ【看護小規模多機能型居宅介護（複合型サービス）】北海道札幌市厚別区上野幌1条1丁目2-28", "url2": "https://www.kaigokensaku.mhlw.go.jp/01/index.php?action_kouhyou_detail_004_kani=true&JigyosyoCd=0190503458-00&ServiceCd=&Type=search" }, "geometry": { "type": "Point", "coordinates": [ 141.467794700000013, 43.0235111 ] } },
{ "type": "Feature", "properties": { "内容": "看護小規模多機能型居宅介護事業所レガートひばりが丘【看護小規模多機能型居宅介護（複合型サービス）】厚別南２丁目２－２７有料老人ホームカペラひばりが丘", "url2": "https://www.kaigokensaku.mhlw.go.jp/01/index.php?action_kouhyou_detail_004_kani=true&JigyosyoCd=0190502609-00&ServiceCd=&Type=search" }, "geometry": { "type": "Point", "coordinates": [ 141.46655013187717, 43.03112717995397 ] } },
{ "type": "Feature", "properties": { "内容": "看護小規模多機能型居宅介護我が家　手稲【看護小規模多機能型居宅介護（複合型サービス）】北海道札幌市手稲区前田５条１５丁目７－２０", "url2": "https://www.kaigokensaku.mhlw.go.jp/01/index.php?action_kouhyou_detail_004_kani=true&JigyosyoCd=0190401406-00&ServiceCd=&Type=search" }, "geometry": { "type": "Point", "coordinates": [ 141.2420241, 43.1318835 ] } },
{ "type": "Feature", "properties": { "内容": "看護小規模多機能型居宅介護事業所　エオス【看護小規模多機能型居宅介護（複合型サービス）】北海道札幌市手稲区曙5条3丁目3番5号サービス付き高齢者向け住宅　アリアーテ", "url2": "https://www.kaigokensaku.mhlw.go.jp/01/index.php?action_kouhyou_detail_004_kani=true&JigyosyoCd=0190400622-00&ServiceCd=&Type=search" }, "geometry": { "type": "Point", "coordinates": [ 141.231964014155551, 43.132388577804882 ] } },
{ "type": "Feature", "properties": { "内容": "あおい星置【看護小規模多機能型居宅介護（複合型サービス）】札幌市手稲区星置3条１丁目2番45号", "url2": "https://www.kaigokensaku.mhlw.go.jp/01/index.php?action_kouhyou_detail_004_kani=true&JigyosyoCd=0190401687-00&ServiceCd=&Type=search" }, "geometry": { "type": "Point", "coordinates": [ 141.218119300000012, 43.1382199 ] } },
{ "type": "Feature", "properties": { "内容": "勤医協看護小規模多機能型居宅介護　結【看護小規模多機能型居宅介護（複合型サービス）】札幌市手稲区新発寒6条3丁目９番3号", "url2": "https://www.kaigokensaku.mhlw.go.jp/01/index.php?action_kouhyou_detail_004_kani=true&JigyosyoCd=0190401117-00&ServiceCd=&Type=search" }, "geometry": { "type": "Point", "coordinates": [ 141.2790975, 43.1172732 ] } },
{ "type": "Feature", "properties": { "内容": "看護小規模多機能型居宅介護　ノテ北野【看護小規模多機能型居宅介護（複合型サービス）】北海道札幌市清田区北野7条2丁目9-1", "url2": "https://www.kaigokensaku.mhlw.go.jp/01/index.php?action_kouhyou_detail_004_kani=true&JigyosyoCd=0190503268-00&ServiceCd=&Type=search" }, "geometry": { "type": "Point", "coordinates": [ 141.4379583, 43.0235872 ] } },
{ "type": "Feature", "properties": { "内容": "看護小規模多機能型居宅介護事業所ひよしわとな【看護小規模多機能型居宅介護（複合型サービス）】北海道函館市日吉４丁目12－18看護小規模多機能型居宅介護事業所　ひよし　わとな", "url2": "https://www.kaigokensaku.mhlw.go.jp/01/index.php?action_kouhyou_detail_004_kani=true&JigyosyoCd=0191400852-00&ServiceCd=&Type=search" }, "geometry": { "type": "Point", "coordinates": [ 140.790432199999941, 41.8060779 ] } },
{ "type": "Feature", "properties": { "内容": "SOMPOケア　函館昭和　看護小規模多機能【看護小規模多機能型居宅介護（複合型サービス）】北海道函館市昭和４丁目30番35号", "url2": "https://www.kaigokensaku.mhlw.go.jp/01/index.php?action_kouhyou_detail_004_kani=true&JigyosyoCd=0191400969-00&ServiceCd=&Type=search" }, "geometry": { "type": "Point", "coordinates": [ 140.731966400000033, 41.8166858 ] } },
{ "type": "Feature", "properties": { "内容": "複合型サービス恵【看護小規模多機能型居宅介護（複合型サービス）】北海道函館市川上町457番地1複合施設　恵", "url2": "https://www.kaigokensaku.mhlw.go.jp/01/index.php?action_kouhyou_detail_004_kani=true&JigyosyoCd=0191400423-00&ServiceCd=&Type=search" }, "geometry": { "type": "Point", "coordinates": [ 141.0691584, 41.764501300000056 ] } },
{ "type": "Feature", "properties": { "内容": "複合型サービス事業所谷地頭緑蔭園【看護小規模多機能型居宅介護（複合型サービス）】北海道函館市谷地頭町23-5", "url2": "https://www.kaigokensaku.mhlw.go.jp/01/index.php?action_kouhyou_detail_004_kani=true&JigyosyoCd=0191400548-00&ServiceCd=&Type=search" }, "geometry": { "type": "Point", "coordinates": [ 140.715518199999963, 41.7544938 ] } },
{ "type": "Feature", "properties": { "内容": "看多機　アイケア奥沢口【看護小規模多機能型居宅介護（複合型サービス）】北海道小樽市奥沢1丁目16番2号", "url2": "https://www.kaigokensaku.mhlw.go.jp/01/index.php?action_kouhyou_detail_004_kani=true&JigyosyoCd=0192000198-00&ServiceCd=&Type=search" }, "geometry": { "type": "Point", "coordinates": [ 141.006444800000054, 43.1826433 ] } },
{ "type": "Feature", "properties": { "内容": "看護小規模多機能型ホームアイケアぜに函【看護小規模多機能型居宅介護（複合型サービス）】北海道小樽市銭函2丁目7番28号", "url2": "https://www.kaigokensaku.mhlw.go.jp/01/index.php?action_kouhyou_detail_004_kani=true&JigyosyoCd=0192000263-00&ServiceCd=&Type=search" }, "geometry": { "type": "Point", "coordinates": [ 141.160412299999962, 43.1414307 ] } },
{ "type": "Feature", "properties": { "内容": "看多機　アイケア花園【看護小規模多機能型居宅介護（複合型サービス）】北海道小樽市花園4丁目5-16", "url2": "https://www.kaigokensaku.mhlw.go.jp/01/index.php?action_kouhyou_detail_004_kani=true&JigyosyoCd=0192000552-00&ServiceCd=&Type=search" }, "geometry": { "type": "Point", "coordinates": [ 140.998812959481143, 43.189387116598091 ] } },
{ "type": "Feature", "properties": { "内容": "ナーシングマルチケアはる風【看護小規模多機能型居宅介護（複合型サービス）】北海道旭川市忠和３条７丁目３番１７号", "url2": "https://www.kaigokensaku.mhlw.go.jp/01/index.php?action_kouhyou_detail_004_kani=true&JigyosyoCd=0192902856-00&ServiceCd=&Type=search" }, "geometry": { "type": "Point", "coordinates": [ 142.3256757, 43.7747969 ] } },
{ "type": "Feature", "properties": { "内容": "看護小規模多機能型ホームアミューズ旭岡【看護小規模多機能型居宅介護（複合型サービス）】北海道旭川市旭岡５丁目４－２０", "url2": "https://www.kaigokensaku.mhlw.go.jp/01/index.php?action_kouhyou_detail_004_kani=true&JigyosyoCd=0192902831-00&ServiceCd=&Type=search" }, "geometry": { "type": "Point", "coordinates": [ 142.324389033729574, 43.798049135371201 ] } },
{ "type": "Feature", "properties": { "内容": "看護小規模多機能型居宅介護なかま【看護小規模多機能型居宅介護（複合型サービス）】北海道旭川市神楽3条4丁目2番14号老人保健施設かたくりの郷3階", "url2": "https://www.kaigokensaku.mhlw.go.jp/01/index.php?action_kouhyou_detail_004_kani=true&JigyosyoCd=0192902898-00&ServiceCd=&Type=search" }, "geometry": { "type": "Point", "coordinates": [ 142.3482232, 43.7622649 ] } },
{ "type": "Feature", "properties": { "内容": "看護小規模多機能型居宅介護つむぎ【看護小規模多機能型居宅介護（複合型サービス）】北海道室蘭市東町5丁目3番5号", "url2": "https://www.kaigokensaku.mhlw.go.jp/01/index.php?action_kouhyou_detail_004_kani=true&JigyosyoCd=0193500287-00&ServiceCd=&Type=search" }, "geometry": { "type": "Point", "coordinates": [ 141.022734500000013, 42.3416381 ] } },
{ "type": "Feature", "properties": { "内容": "看護小規模多機能型介護こまば【看護小規模多機能型居宅介護（複合型サービス）】釧路市駒場町3番24号看護小規模多機能型介護　こまば", "url2": "https://www.kaigokensaku.mhlw.go.jp/01/index.php?action_kouhyou_detail_004_kani=true&JigyosyoCd=0194100327-00&ServiceCd=&Type=search" }, "geometry": { "type": "Point", "coordinates": [ 144.367066123364225, 43.000198730048304 ] } },
{ "type": "Feature", "properties": { "内容": "道東勤医協看護小規模多機能型居宅介護すこやか【看護小規模多機能型居宅介護（複合型サービス）】北海道L釧路市治水町３番14号釧路協立病院４階", "url2": "https://www.kaigokensaku.mhlw.go.jp/01/index.php?action_kouhyou_detail_004_kani=true&JigyosyoCd=0194100509-00&ServiceCd=&Type=search" }, "geometry": { "type": "Point", "coordinates": [ 144.371483, 43.008474 ] } },
{ "type": "Feature", "properties": { "内容": "看護小規模多機能型居宅介護あんさんぶる開西【看護小規模多機能型居宅介護（複合型サービス）】北海道帯広市西２３条南３丁目２７ー４", "url2": "https://www.kaigokensaku.mhlw.go.jp/01/index.php?action_kouhyou_detail_004_kani=true&JigyosyoCd=0194600128-00&ServiceCd=&Type=search" }, "geometry": { "type": "Point", "coordinates": [ 143.130989799999952, 42.9130701 ] } },
{ "type": "Feature", "properties": { "内容": "社会医療法人北斗　看護小規模多機能型居宅介護カンタキあおぞら【看護小規模多機能型居宅介護（複合型サービス）】北海道帯広市西18条南4丁目15-10", "url2": "https://www.kaigokensaku.mhlw.go.jp/01/index.php?action_kouhyou_detail_004_kani=true&JigyosyoCd=0194600524-00&ServiceCd=&Type=search" }, "geometry": { "type": "Point", "coordinates": [ 143.164975899999945, 42.9094299 ] } },
{ "type": "Feature", "properties": { "内容": "看護小規模多機能居宅介護りんどう【看護小規模多機能型居宅介護（複合型サービス）】北海道帯広市西16条北1丁目27番地144", "url2": "https://www.kaigokensaku.mhlw.go.jp/01/index.php?action_kouhyou_detail_004_kani=true&JigyosyoCd=0194600425-00&ServiceCd=&Type=search" }, "geometry": { "type": "Point", "coordinates": [ 143.175212193115271, 42.931910133167989 ] } },
{ "type": "Feature", "properties": { "内容": "看護小規模多機能たんぽぽ【看護小規模多機能型居宅介護（複合型サービス）】北海道北見市常盤町５丁目４番７", "url2": "https://www.kaigokensaku.mhlw.go.jp/01/index.php?action_kouhyou_detail_004_kani=true&JigyosyoCd=0195000013-00&ServiceCd=&Type=search" }, "geometry": { "type": "Point", "coordinates": [ 143.8913741, 43.7931936 ] } },
{ "type": "Feature", "properties": { "内容": "看護小規模多機能型居宅介護施設　まちの看護師さん【看護小規模多機能型居宅介護（複合型サービス）】北海道岩見沢市7条西3丁目22番地1", "url2": "https://www.kaigokensaku.mhlw.go.jp/01/index.php?action_kouhyou_detail_004_kani=true&JigyosyoCd=0195700133-00&ServiceCd=&Type=search" }, "geometry": { "type": "Point", "coordinates": [ 141.767235485844424, 43.199225667958082 ] } },
{ "type": "Feature", "properties": { "内容": "共生型看護小規模多機能ホームあんずの華【看護小規模多機能型居宅介護（複合型サービス）】北海道江別市元江別本町10番地の23", "url2": "https://www.kaigokensaku.mhlw.go.jp/01/index.php?action_kouhyou_detail_004_kani=true&JigyosyoCd=0191000546-00&ServiceCd=&Type=search" }, "geometry": { "type": "Point", "coordinates": [ 141.5299502, 43.1077003 ] } },
{ "type": "Feature", "properties": { "内容": "看護小規模多機能型居宅介護　日本介護江別【看護小規模多機能型居宅介護（複合型サービス）】北海道江別市大麻元町１５４番地12", "url2": "https://www.kaigokensaku.mhlw.go.jp/01/index.php?action_kouhyou_detail_004_kani=true&JigyosyoCd=0191000587-00&ServiceCd=&Type=search" }, "geometry": { "type": "Point", "coordinates": [ 141.497306400000014, 43.085137200000013 ] } },
{ "type": "Feature", "properties": { "内容": "ナーシングホームみのりの丘【看護小規模多機能型居宅介護（複合型サービス）】北海道江別市大麻東町15-30", "url2": "https://www.kaigokensaku.mhlw.go.jp/01/index.php?action_kouhyou_detail_004_kani=true&JigyosyoCd=0191000595-00&ServiceCd=&Type=search" }, "geometry": { "type": "Point", "coordinates": [ 141.5018442, 43.0816178 ] } },
{ "type": "Feature", "properties": { "内容": "看護小規模多機能ホームひなた【看護小規模多機能型居宅介護（複合型サービス）】北海道紋別市大山町１丁目３６番１４号", "url2": "https://www.kaigokensaku.mhlw.go.jp/01/index.php?action_kouhyou_detail_004_kani=true&JigyosyoCd=0195100110-00&ServiceCd=&Type=search" }, "geometry": { "type": "Point", "coordinates": [ 143.34511091722959, 44.339543635184135 ] } },
{ "type": "Feature", "properties": { "内容": "看護小規模多機能型居宅介護カンターレ【看護小規模多機能型居宅介護（複合型サービス）】北海道名寄市字緑丘11-23", "url2": "https://www.kaigokensaku.mhlw.go.jp/01/index.php?action_kouhyou_detail_004_kani=true&JigyosyoCd=0172902132-00&ServiceCd=&Type=search" }, "geometry": { "type": "Point", "coordinates": [ 142.480158800000027, 44.3434315 ] } },
{ "type": "Feature", "properties": { "内容": "看護小規模多機能型居宅介護事業所VIAREST千歳緑町【看護小規模多機能型居宅介護（複合型サービス）】北海道千歳市緑町１丁目３番２２号VIAREST千歳緑町", "url2": "https://www.kaigokensaku.mhlw.go.jp/01/index.php?action_kouhyou_detail_004_kani=true&JigyosyoCd=0191100411-00&ServiceCd=&Type=search" }, "geometry": { "type": "Point", "coordinates": [ 141.6391092, 42.8234571 ] } },
{ "type": "Feature", "properties": { "内容": "看護小規模多機能ホームやさしい介護ちとせサテライト【看護小規模多機能型居宅介護（複合型サービス）】千歳市桂木2丁目6番18号やさしい介護桂木", "url2": "https://www.kaigokensaku.mhlw.go.jp/01/index.php?action_kouhyou_detail_004_kani=true&JigyosyoCd=0191100429-00&ServiceCd=&Type=search" }, "geometry": { "type": "Point", "coordinates": [ 141.6254784, 42.8182289 ] } },
{ "type": "Feature", "properties": { "内容": "看護小規模多機能ホームやさしい介護幸福【看護小規模多機能型居宅介護（複合型サービス）】北海道千歳市幸福２丁目10-10共生型ケアホームやさしい介護幸福", "url2": "https://www.kaigokensaku.mhlw.go.jp/01/index.php?action_kouhyou_detail_004_kani=true&JigyosyoCd=0191100379-00&ServiceCd=&Type=search" }, "geometry": { "type": "Point", "coordinates": [ 141.6675418, 42.8486806 ] } },
{ "type": "Feature", "properties": { "内容": "複合型サービス「豊里」【看護小規模多機能型居宅介護（複合型サービス）】北海道千歳市豊里１丁目３－３", "url2": "https://www.kaigokensaku.mhlw.go.jp/01/index.php?action_kouhyou_detail_004_kani=true&JigyosyoCd=0191100106-00&ServiceCd=&Type=search" }, "geometry": { "type": "Point", "coordinates": [ 141.665976199999932, 42.8394059 ] } },
{ "type": "Feature", "properties": { "内容": "看護小規模多機能ホームやさしい介護ちとせ【看護小規模多機能型居宅介護（複合型サービス）】北海道千歳市大和2丁目3-7", "url2": "https://www.kaigokensaku.mhlw.go.jp/01/index.php?action_kouhyou_detail_004_kani=true&JigyosyoCd=0191100346-00&ServiceCd=&Type=search" }, "geometry": { "type": "Point", "coordinates": [ 141.631808299999989, 42.8192395 ] } },
{ "type": "Feature", "properties": { "内容": "北広島複合型サービス四恩園【看護小規模多機能型居宅介護（複合型サービス）】北海道北広島市緑陽町1丁目2番地北広島団地地域サポートセンターともに内", "url2": "https://www.kaigokensaku.mhlw.go.jp/01/index.php?action_kouhyou_detail_004_kani=true&JigyosyoCd=0191300086-00&ServiceCd=&Type=search" }, "geometry": { "type": "Point", "coordinates": [ 141.545210142852738, 42.966836863901605 ] } },
{ "type": "Feature", "properties": { "内容": "医療法人喬成会　ナースイン花ぴりか【看護小規模多機能型居宅介護（複合型サービス）】北海道石狩市花川南7条4丁目376番地1", "url2": "https://www.kaigokensaku.mhlw.go.jp/01/index.php?action_kouhyou_detail_004_kani=true&JigyosyoCd=0197600422-00&ServiceCd=&Type=search" }, "geometry": { "type": "Point", "coordinates": [ 141.292293699999959, 43.1409455 ] } },
{ "type": "Feature", "properties": { "内容": "看護小規模多機能型居宅介護　サスイシリの里【看護小規模多機能型居宅介護（複合型サービス）】北海道石狩市花川北7条1丁目11番地", "url2": "https://www.kaigokensaku.mhlw.go.jp/01/index.php?action_kouhyou_detail_004_kani=true&JigyosyoCd=0197600430-00&ServiceCd=&Type=search" }, "geometry": { "type": "Point", "coordinates": [ 141.282961, 43.1459336 ] } },
{ "type": "Feature", "properties": { "内容": "看護小規模多機能そう【看護小規模多機能型居宅介護（複合型サービス）】北海道虻田郡豊浦町字幸町８７番地２", "url2": "https://www.kaigokensaku.mhlw.go.jp/01/index.php?action_kouhyou_detail_004_kani=true&JigyosyoCd=0193700135-00&ServiceCd=&Type=search" }, "geometry": { "type": "Point", "coordinates": [ 140.7089286, 42.5851736 ] } },
{ "type": "Feature", "properties": { "内容": "浦河赤十字看護小規模多機能型居宅介護カンタキうらら【看護小規模多機能型居宅介護（複合型サービス）】北海道浦河郡浦河町東町ちのみ1丁目2番1号", "url2": "https://www.kaigokensaku.mhlw.go.jp/01/index.php?action_kouhyou_detail_004_kani=true&JigyosyoCd=0193800273-00&ServiceCd=&Type=search" }, "geometry": { "type": "Point", "coordinates": [ 142.787842399999988, 42.1592026 ] } }
]
}
