{
"type": "FeatureCollection",
"name": "geo_01_地域密着型特定施設入居者生活介護（有料老人ホーム）",
"crs": { "type": "name", "properties": { "name": "urn:ogc:def:crs:OGC:1.3:CRS84" } },
"features": [
{ "type": "Feature", "properties": { "内容": "介護付有料老人ホーム　パートナーハウス【地域密着型特定施設入居者生活介護（有料老人ホーム）】札幌市白石区平和通2丁目南6-28", "url2": "https://www.kaigokensaku.mhlw.go.jp/01/index.php?action_kouhyou_detail_004_kani=true&JigyosyoCd=0170503551-00&ServiceCd=361&Type=search" }, "geometry": { "type": "Point", "coordinates": [ 141.409613799999988, 43.0522176 ] } },
{ "type": "Feature", "properties": { "内容": "グッドタイムホーム・松風【地域密着型特定施設入居者生活介護（有料老人ホーム）】北海道函館市松風町13番15号グッドタイムホーム・松風", "url2": "https://www.kaigokensaku.mhlw.go.jp/01/index.php?action_kouhyou_detail_004_kani=true&JigyosyoCd=0191400803-00&ServiceCd=361&Type=search" }, "geometry": { "type": "Point", "coordinates": [ 140.734109399999966, 41.7708361 ] } },
{ "type": "Feature", "properties": { "内容": "介護付有料老人ホーム光風園【地域密着型特定施設入居者生活介護（有料老人ホーム）】北海道函館市宮前町11番8号", "url2": "https://www.kaigokensaku.mhlw.go.jp/01/index.php?action_kouhyou_detail_004_kani=true&JigyosyoCd=0191401132-00&ServiceCd=361&Type=search" }, "geometry": { "type": "Point", "coordinates": [ 140.734852002631982, 41.788419741888283 ] } },
{ "type": "Feature", "properties": { "内容": "介護付き有料老人ホーム白ゆり乃木【地域密着型特定施設入居者生活介護（有料老人ホーム）】北海道函館市乃木町4番53号", "url2": "https://www.kaigokensaku.mhlw.go.jp/01/index.php?action_kouhyou_detail_004_kani=true&JigyosyoCd=0191401157-00&ServiceCd=361&Type=search" }, "geometry": { "type": "Point", "coordinates": [ 140.763832099999945, 41.7823276 ] } },
{ "type": "Feature", "properties": { "内容": "有料老人ホーム　フルールハピネスみなと【地域密着型特定施設入居者生活介護（有料老人ホーム）】北海道函館市港町3丁目4番2号株式会社　萌福祉サービス", "url2": "https://www.kaigokensaku.mhlw.go.jp/01/index.php?action_kouhyou_detail_004_kani=true&JigyosyoCd=0191401272-00&ServiceCd=361&Type=search" }, "geometry": { "type": "Point", "coordinates": [ 140.7177194, 41.8111526 ] } },
{ "type": "Feature", "properties": { "内容": "介護付有料老人ホームあい日吉【地域密着型特定施設入居者生活介護（有料老人ホーム）】北海道函館市日吉町2丁目22-12", "url2": "https://www.kaigokensaku.mhlw.go.jp/01/index.php?action_kouhyou_detail_004_kani=true&JigyosyoCd=0191400654-00&ServiceCd=361&Type=search" }, "geometry": { "type": "Point", "coordinates": [ 140.7928832, 41.7961679 ] } },
{ "type": "Feature", "properties": { "内容": "介護付有料老人ホームあい美原【地域密着型特定施設入居者生活介護（有料老人ホーム）】北海道函館市美原3丁目13番32号", "url2": "https://www.kaigokensaku.mhlw.go.jp/01/index.php?action_kouhyou_detail_004_kani=true&JigyosyoCd=0191400662-00&ServiceCd=361&Type=search" }, "geometry": { "type": "Point", "coordinates": [ 140.752307500000029, 41.818678 ] } },
{ "type": "Feature", "properties": { "内容": "介護付有料老人ホームこうじゅ【地域密着型特定施設入居者生活介護（有料老人ホーム）】北海道函館市亀田町7-1ケアステーションこうじゅ", "url2": "https://www.kaigokensaku.mhlw.go.jp/01/index.php?action_kouhyou_detail_004_kani=true&JigyosyoCd=0191400399-00&ServiceCd=361&Type=search" }, "geometry": { "type": "Point", "coordinates": [ 140.7343062, 41.7922635 ] } },
{ "type": "Feature", "properties": { "内容": "社会福祉法人函館大庚会　介護付有料老人ホームこん【地域密着型特定施設入居者生活介護（有料老人ホーム）】函館市本町２９番７号", "url2": "https://www.kaigokensaku.mhlw.go.jp/01/index.php?action_kouhyou_detail_004_kani=true&JigyosyoCd=0191400209-00&ServiceCd=361&Type=search" }, "geometry": { "type": "Point", "coordinates": [ 140.754438299999947, 41.7869729 ] } },
{ "type": "Feature", "properties": { "内容": "グッドタイムホーム・松風【地域密着型特定施設入居者生活介護（有料老人ホーム）】北海道函館市松風町13番15号グッドタイムホーム・松風", "url2": "https://www.kaigokensaku.mhlw.go.jp/01/index.php?action_kouhyou_detail_004_kani=true&JigyosyoCd=0191401496-00&ServiceCd=361&Type=search" }, "geometry": { "type": "Point", "coordinates": [ 140.7340929, 41.7708355 ] } },
{ "type": "Feature", "properties": { "内容": "グッドタイムホーム・日吉弐番館【地域密着型特定施設入居者生活介護（有料老人ホーム）】北海道函館市日吉４丁目１５番１１号", "url2": "https://www.kaigokensaku.mhlw.go.jp/01/index.php?action_kouhyou_detail_004_kani=true&JigyosyoCd=0191401439-00&ServiceCd=361&Type=search" }, "geometry": { "type": "Point", "coordinates": [ 140.790137499999986, 41.8049379 ] } },
{ "type": "Feature", "properties": { "内容": "さらさ岩見沢【地域密着型特定施設入居者生活介護（有料老人ホーム）】北海道岩見沢市北２条西６丁目12-3", "url2": "https://www.kaigokensaku.mhlw.go.jp/01/index.php?action_kouhyou_detail_004_kani=true&JigyosyoCd=0195700042-00&ServiceCd=361&Type=search" }, "geometry": { "type": "Point", "coordinates": [ 141.7562845, 43.2065425 ] } },
{ "type": "Feature", "properties": { "内容": "有限会社リアン　のぞみの里岩見沢　のぞみ幌向２号館【地域密着型特定施設入居者生活介護（有料老人ホーム）】北海道岩見沢市幌向南３条３丁目２７０番地３０", "url2": "https://www.kaigokensaku.mhlw.go.jp/01/index.php?action_kouhyou_detail_004_kani=true&JigyosyoCd=0195700067-00&ServiceCd=361&Type=search" }, "geometry": { "type": "Point", "coordinates": [ 141.6614002, 43.145346 ] } },
{ "type": "Feature", "properties": { "内容": "有料老人ホームウイシュの家【地域密着型特定施設入居者生活介護（有料老人ホーム）】留萌市見晴町2丁目１８", "url2": "https://www.kaigokensaku.mhlw.go.jp/01/index.php?action_kouhyou_detail_004_kani=true&JigyosyoCd=0196400014-00&ServiceCd=361&Type=search" }, "geometry": { "type": "Point", "coordinates": [ 141.648092200000065, 43.9341877 ] } },
{ "type": "Feature", "properties": { "内容": "介護付き有料老人ホーム　天寿【地域密着型特定施設入居者生活介護（有料老人ホーム）】北海道留萌市沖見町4丁目11番1号", "url2": "https://www.kaigokensaku.mhlw.go.jp/01/index.php?action_kouhyou_detail_004_kani=true&JigyosyoCd=0196400196-00&ServiceCd=361&Type=search" }, "geometry": { "type": "Point", "coordinates": [ 141.634708810975638, 43.929501214347376 ] } },
{ "type": "Feature", "properties": { "内容": "介護付有料老人ホーム蓮音【地域密着型特定施設入居者生活介護（有料老人ホーム）】北海道江別市緑ヶ丘24番地1", "url2": "https://www.kaigokensaku.mhlw.go.jp/01/index.php?action_kouhyou_detail_004_kani=true&JigyosyoCd=0191000348-00&ServiceCd=361&Type=search" }, "geometry": { "type": "Point", "coordinates": [ 141.5332982, 43.0828241 ] } },
{ "type": "Feature", "properties": { "内容": "介護付有料老人ホーム陽光の里【地域密着型特定施設入居者生活介護（有料老人ホーム）】北海道苫前郡苫前町字古丹別２３９番地の４", "url2": "https://www.kaigokensaku.mhlw.go.jp/01/index.php?action_kouhyou_detail_004_kani=true&JigyosyoCd=0196400170-00&ServiceCd=361&Type=search" }, "geometry": { "type": "Point", "coordinates": [ 141.7131, 44.2592741 ] } },
{ "type": "Feature", "properties": { "内容": "グループリビン麦【地域密着型特定施設入居者生活介護（有料老人ホーム）】北海道十勝郡浦幌町字住吉町54番地の5", "url2": "https://www.kaigokensaku.mhlw.go.jp/01/index.php?action_kouhyou_detail_004_kani=true&JigyosyoCd=0194700043-00&ServiceCd=361&Type=search" }, "geometry": { "type": "Point", "coordinates": [ 143.655849, 42.8062331 ] } }
]
}
