{
"type": "FeatureCollection",
"name": "geo_01_認知症対応型通所介護",
"crs": { "type": "name", "properties": { "name": "urn:ogc:def:crs:OGC:1.3:CRS84" } },
"features": [
{ "type": "Feature", "properties": { "内容": "認知症対応型デイサービスファミリーケア桑園【認知症対応型通所介護】札幌市中央区北四条西十五丁目1番地1第2コアレックスビル2階", "url": "https://www.kaigokensaku.mhlw.go.jp/01/index.php?action_kouhyou_detail_004_kani=true&JigyosyoCd=0190100297-00&ServiceCd=720&Type=search", "url2": "http://www.familycare-hokkaido.jp/" }, "geometry": { "type": "Point", "coordinates": [ 141.33246429999997, 43.0636228 ] } },
{ "type": "Feature", "properties": { "内容": "信寿園デイサービスセンター【認知症対応型通所介護】札幌市中央区南8条西10丁目1035-5", "url": "https://www.kaigokensaku.mhlw.go.jp/01/index.php?action_kouhyou_detail_004_kani=true&JigyosyoCd=0190100040-00&ServiceCd=720&Type=search", "url2": "http://www.hokubu-g.co.jp/" }, "geometry": { "type": "Point", "coordinates": [ 141.34385850000001, 43.049947 ] } },
{ "type": "Feature", "properties": { "内容": "デイサービスももいろはーと【認知症対応型通所介護】札幌市中央区北4条西14丁目1-57ステラガーデン1階", "url": "https://www.kaigokensaku.mhlw.go.jp/01/index.php?action_kouhyou_detail_004_kani=true&JigyosyoCd=0190100990-00&ServiceCd=720&Type=search", "url2": "http://hp.kaipoke.biz/341/" }, "geometry": { "type": "Point", "coordinates": [ 141.334926700000011, 43.0637749 ] } },
{ "type": "Feature", "properties": { "内容": "デイサービスセンターもえんち篠路【認知症対応型通所介護】北海道札幌市北区篠路10条1丁目1番1号ウェルフェアMOE", "url": "https://www.kaigokensaku.mhlw.go.jp/01/index.php?action_kouhyou_detail_004_kani=true&JigyosyoCd=0190200998-00&ServiceCd=720&Type=search", "url2": "http://www.moe-fukushi.com/" }, "geometry": { "type": "Point", "coordinates": [ 141.35342890000004, 43.1579055 ] } },
{ "type": "Feature", "properties": { "内容": "デイサービスセンター昔茶屋【認知症対応型通所介護】北海道札幌市北区屯田７条５丁目２－２０", "url": "https://www.kaigokensaku.mhlw.go.jp/01/index.php?action_kouhyou_detail_004_kani=true&JigyosyoCd=0190200626-00&ServiceCd=720&Type=search", "url2": "http://www.sansoukai-welfare.jp/spr_mukashichaya.html" }, "geometry": { "type": "Point", "coordinates": [ 141.334159199999931, 43.1365214 ] } },
{ "type": "Feature", "properties": { "内容": "デイサービスセンター　こころ【認知症対応型通所介護】札幌市北区屯田6条6丁目4番45号　グループホーム丸心　内", "url": "https://www.kaigokensaku.mhlw.go.jp/01/index.php?action_kouhyou_detail_004_kani=true&JigyosyoCd=0190200337-00&ServiceCd=720&Type=search", "url2": "https://marushin.care" }, "geometry": { "type": "Point", "coordinates": [ 141.333009299999958, 43.1353909 ] } },
{ "type": "Feature", "properties": { "内容": "デイサービス　かえで【認知症対応型通所介護】北海道札幌市北区屯田9条9丁目6番6号", "url": "https://www.kaigokensaku.mhlw.go.jp/01/index.php?action_kouhyou_detail_004_kani=true&JigyosyoCd=0190201269-00&ServiceCd=720&Type=search", "url2": "http://www.tonden-furusato.com/" }, "geometry": { "type": "Point", "coordinates": [ 141.324666699999966, 43.1448315 ] } },
{ "type": "Feature", "properties": { "内容": "デイサービスもみじ【認知症対応型通所介護】北海道札幌市北区屯田6条10丁目6番23号", "url": "https://www.kaigokensaku.mhlw.go.jp/01/index.php?action_kouhyou_detail_004_kani=true&JigyosyoCd=0190201277-00&ServiceCd=720&Type=search", "url2": "https://www.tonden-furusato.com" }, "geometry": { "type": "Point", "coordinates": [ 141.319935100000066, 43.1369543 ] } },
{ "type": "Feature", "properties": { "内容": "ニチイケアセンター元町【認知症対応型通所介護】北海道札幌市東区北25条東20丁目5-15", "url": "https://www.kaigokensaku.mhlw.go.jp/01/index.php?action_kouhyou_detail_004_kani=true&JigyosyoCd=0190200204-00&ServiceCd=720&Type=search", "url2": "http://www.nichiigakkan.co.jp" }, "geometry": { "type": "Point", "coordinates": [ 141.383091299999933, 43.0963953 ] } },
{ "type": "Feature", "properties": { "内容": "デイサービスセンターいきいき栄【認知症対応型通所介護】北海道札幌市東区北42条東5丁目3番1号", "url": "https://www.kaigokensaku.mhlw.go.jp/01/index.php?action_kouhyou_detail_004_kani=true&JigyosyoCd=0190200816-00&ServiceCd=720&Type=search", "url2": "http://www.ost-japan.com" }, "geometry": { "type": "Point", "coordinates": [ 141.352459058366435, 43.111107828014227 ] } },
{ "type": "Feature", "properties": { "内容": "共用デイいきいき栄【認知症対応型通所介護】北海道札幌市東区北42条東5丁目3番1号", "url": "https://www.kaigokensaku.mhlw.go.jp/01/index.php?action_kouhyou_detail_004_kani=true&JigyosyoCd=0190201467-00&ServiceCd=720&Type=search", "url2": "http://www.ost-japan.com" }, "geometry": { "type": "Point", "coordinates": [ 141.3524828, 43.1110701 ] } },
{ "type": "Feature", "properties": { "内容": "大友恵愛園　デイサービスセンター【認知症対応型通所介護】北海道札幌市東区北17条東5丁目2-5", "url": "https://www.kaigokensaku.mhlw.go.jp/01/index.php?action_kouhyou_detail_004_kani=true&JigyosyoCd=0170200141-00&ServiceCd=720&Type=search", "url2": "http://www.ootomokeiaien.or.jp" }, "geometry": { "type": "Point", "coordinates": [ 141.359266400000024, 43.0829268 ] } },
{ "type": "Feature", "properties": { "内容": "デイサービスセンター　きずな【認知症対応型通所介護】北海道札幌市東区北35条東28丁目9－11", "url": "https://www.kaigokensaku.mhlw.go.jp/01/index.php?action_kouhyou_detail_004_kani=true&JigyosyoCd=0190200634-00&ServiceCd=720&Type=search", "url2": "http://www.sansoukai-welfare.jp/spr_kizuna.html" }, "geometry": { "type": "Point", "coordinates": [ 141.393328632227735, 43.099686010731439 ] } },
{ "type": "Feature", "properties": { "内容": "ごう内科デイサービスセンター【認知症対応型通所介護】札幌市白石区栄通21丁目１番16号", "url": "https://www.kaigokensaku.mhlw.go.jp/01/index.php?action_kouhyou_detail_004_kani=true&JigyosyoCd=0190500611-00&ServiceCd=720&Type=search", "url2": "http://gonaika.com/" }, "geometry": { "type": "Point", "coordinates": [ 141.440490299999965, 43.0236996 ] } },
{ "type": "Feature", "properties": { "内容": "ごう内科デイサービスセンター【認知症対応型通所介護】北海道札幌市白石区栄通21丁目1番16号", "url": "https://www.kaigokensaku.mhlw.go.jp/01/index.php?action_kouhyou_detail_004_kani=true&JigyosyoCd=0190501627-00&ServiceCd=720&Type=search", "url2": "http://gonaika.com/" }, "geometry": { "type": "Point", "coordinates": [ 141.440490299999936, 43.023715287091441 ] } },
{ "type": "Feature", "properties": { "内容": "デイサービスいきいき【認知症対応型通所介護】北海道札幌市白石区北郷9条3丁目3番1号", "url": "https://www.kaigokensaku.mhlw.go.jp/01/index.php?action_kouhyou_detail_004_kani=true&JigyosyoCd=0190501296-00&ServiceCd=720&Type=search", "url2": null }, "geometry": { "type": "Point", "coordinates": [ 141.42140310000002, 43.0701274 ] } },
{ "type": "Feature", "properties": { "内容": "ドリームハウス認知症対応型通所介護事業所【認知症対応型通所介護】北海道札幌市南区北ノ沢1819-9", "url": "https://www.kaigokensaku.mhlw.go.jp/01/index.php?action_kouhyou_detail_004_kani=true&JigyosyoCd=0170500177-00&ServiceCd=720&Type=search", "url2": "http://maedakinen.org/" }, "geometry": { "type": "Point", "coordinates": [ 141.3233573, 43.008681 ] } },
{ "type": "Feature", "properties": { "内容": "和幸園芸術の森デイサービスセンターのえるの森【認知症対応型通所介護】札幌市南区石山東7丁目1-55", "url": "https://www.kaigokensaku.mhlw.go.jp/01/index.php?action_kouhyou_detail_004_kani=true&JigyosyoCd=0190500033-00&ServiceCd=720&Type=search", "url2": "http://hapinisu.com" }, "geometry": { "type": "Point", "coordinates": [ 141.344327099999987, 42.9521855 ] } },
{ "type": "Feature", "properties": { "内容": "デイサービスふるさと【認知症対応型通所介護】北海道札幌市南区石山東7丁目11番7号", "url": "https://www.kaigokensaku.mhlw.go.jp/01/index.php?action_kouhyou_detail_004_kani=true&JigyosyoCd=0170502934-00&ServiceCd=720&Type=search", "url2": "https://yuuwa-kaigo.com/" }, "geometry": { "type": "Point", "coordinates": [ 141.344940799999989, 42.9532431 ] } },
{ "type": "Feature", "properties": { "内容": "サテラホーム　デイサービス【認知症対応型通所介護】北海道札幌市西区発寒１１条４丁目５番１号", "url": "https://www.kaigokensaku.mhlw.go.jp/01/index.php?action_kouhyou_detail_004_kani=true&JigyosyoCd=0170401095-00&ServiceCd=720&Type=search", "url2": null }, "geometry": { "type": "Point", "coordinates": [ 141.290649600000052, 43.0939781 ] } },
{ "type": "Feature", "properties": { "内容": "デイサービス喜望蓬【認知症対応型通所介護】北海道札幌市西区発寒10条2丁目4番10号", "url": "https://www.kaigokensaku.mhlw.go.jp/01/index.php?action_kouhyou_detail_004_kani=true&JigyosyoCd=0170401707-00&ServiceCd=720&Type=search", "url2": "http://kibouhou8.jp" }, "geometry": { "type": "Point", "coordinates": [ 141.296596499999964, 43.089154 ] } },
{ "type": "Feature", "properties": { "内容": "デイサービスせーじゅ【認知症対応型通所介護】北海道札幌市西区山の手４条５丁目３－２２複合施設せーじゅ１F", "url": "https://www.kaigokensaku.mhlw.go.jp/01/index.php?action_kouhyou_detail_004_kani=true&JigyosyoCd=0190400572-00&ServiceCd=720&Type=search", "url2": "https://www.sapporo-ohta.or.jp/DS" }, "geometry": { "type": "Point", "coordinates": [ 141.293024142852801, 43.070528044741955 ] } },
{ "type": "Feature", "properties": { "内容": "デイサービスそらいろ【認知症対応型通所介護】北海道札幌市西区西野７条３丁目１番２０号ケアタウン徳洲会札幌西", "url": "https://www.kaigokensaku.mhlw.go.jp/01/index.php?action_kouhyou_detail_004_kani=true&JigyosyoCd=0190400440-00&ServiceCd=720&Type=search", "url2": "http://care-net.co.jp/" }, "geometry": { "type": "Point", "coordinates": [ 141.272819, 43.0664003 ] } },
{ "type": "Feature", "properties": { "内容": "ＳＯＭＰＯケア　札幌青葉　デイサービス【認知症対応型通所介護】北海道札幌市厚別区青葉町13丁目5番5号", "url": "https://www.kaigokensaku.mhlw.go.jp/01/index.php?action_kouhyou_detail_004_kani=true&JigyosyoCd=0190502252-00&ServiceCd=720&Type=search", "url2": "http://www.sompocare.com" }, "geometry": { "type": "Point", "coordinates": [ 141.4802085, 43.0327079 ] } },
{ "type": "Feature", "properties": { "内容": "デイサービス　くらしさ厚別【認知症対応型通所介護】札幌市厚別区厚別西4条4丁目5-2", "url": "https://www.kaigokensaku.mhlw.go.jp/01/index.php?action_kouhyou_detail_004_kani=true&JigyosyoCd=0190501478-00&ServiceCd=720&Type=search", "url2": "http://genkinakaigo.co.jp" }, "geometry": { "type": "Point", "coordinates": [ 141.464119899999986, 43.052839 ] } },
{ "type": "Feature", "properties": { "内容": "厚別栄和荘デイサービスセンター【認知症対応型通所介護】北海道札幌市厚別区厚別町山本750番地6号", "url": "https://www.kaigokensaku.mhlw.go.jp/01/index.php?action_kouhyou_detail_004_kani=true&JigyosyoCd=0170500268-00&ServiceCd=720&Type=search", "url2": "https://www.eiwakai.or.jp" }, "geometry": { "type": "Point", "coordinates": [ 141.462566899999956, 43.0585439 ] } },
{ "type": "Feature", "properties": { "内容": "デイサービスもみじの家【認知症対応型通所介護】北海道札幌市厚別区もみじ台西３丁目１－８", "url": "https://www.kaigokensaku.mhlw.go.jp/01/index.php?action_kouhyou_detail_004_kani=true&JigyosyoCd=0170503619-00&ServiceCd=720&Type=search", "url2": "http://www.karipu.jp/" }, "geometry": { "type": "Point", "coordinates": [ 141.486066199999982, 43.0336633 ] } },
{ "type": "Feature", "properties": { "内容": "デイサービスすずらん荘【認知症対応型通所介護】北海道札幌市厚別区厚別西3条5丁目5番25号", "url": "https://www.kaigokensaku.mhlw.go.jp/01/index.php?action_kouhyou_detail_004_kani=true&JigyosyoCd=0190502591-00&ServiceCd=720&Type=search", "url2": null }, "geometry": { "type": "Point", "coordinates": [ 141.4693586, 43.052211 ] } },
{ "type": "Feature", "properties": { "内容": "デイサービスいろはな【認知症対応型通所介護】札幌市手稲区曙8条1丁目1－16", "url": "https://www.kaigokensaku.mhlw.go.jp/01/index.php?action_kouhyou_detail_004_kani=true&JigyosyoCd=0190400291-00&ServiceCd=720&Type=search", "url2": "http://irohana.co.jp/" }, "geometry": { "type": "Point", "coordinates": [ 141.240112, 43.140171899999984 ] } },
{ "type": "Feature", "properties": { "内容": "認知症対応型デイサービスセンターもえんち手稲【認知症対応型通所介護】北海道札幌市手稲区明日風３丁目11-1認知症対応型デイサービスセンターもえんち手稲", "url": "https://www.kaigokensaku.mhlw.go.jp/01/index.php?action_kouhyou_detail_004_kani=true&JigyosyoCd=0190400556-00&ServiceCd=720&Type=search", "url2": "http://moe-hukushi.com/" }, "geometry": { "type": "Point", "coordinates": [ 141.223701900000037, 43.1386716 ] } },
{ "type": "Feature", "properties": { "内容": "手稲渓仁会デイサービス織彩【認知症対応型通所介護】北海道札幌市手稲区前田2条10丁目1番7号", "url": "https://www.kaigokensaku.mhlw.go.jp/01/index.php?action_kouhyou_detail_004_kani=true&JigyosyoCd=0190400473-00&ServiceCd=720&Type=search", "url2": "http://www.keijinkai.com/tsumugi/" }, "geometry": { "type": "Point", "coordinates": [ 141.24925989999997, 43.1208301 ] } },
{ "type": "Feature", "properties": { "内容": "デイサービスつつじ【認知症対応型通所介護】札幌市手稲区金山1条2丁目1番39号", "url": "https://www.kaigokensaku.mhlw.go.jp/01/index.php?action_kouhyou_detail_004_kani=true&JigyosyoCd=0170401442-00&ServiceCd=720&Type=search", "url2": "http://douou-care.co.jp/" }, "geometry": { "type": "Point", "coordinates": [ 141.206773399999946, 43.1294055 ] } },
{ "type": "Feature", "properties": { "内容": "鈴木内科デイサービスセンターきよた【認知症対応型通所介護】北海道札幌市清田4条2丁目10-25鈴木内科デイサービスセンターきよた", "url": "https://www.kaigokensaku.mhlw.go.jp/01/index.php?action_kouhyou_detail_004_kani=true&JigyosyoCd=0110317328-00&ServiceCd=720&Type=search", "url2": "http://www.suzukinaika.or.jp" }, "geometry": { "type": "Point", "coordinates": [ 141.43079, 42.9976271 ] } },
{ "type": "Feature", "properties": { "内容": "鈴木内科デイサービスセンターきよたⅡ【認知症対応型通所介護】北海道札幌市清田区清田4条2丁目10-27鈴木内科デイサービスセンターきよたⅡ", "url": "https://www.kaigokensaku.mhlw.go.jp/01/index.php?action_kouhyou_detail_004_kani=true&JigyosyoCd=0170503916-00&ServiceCd=720&Type=search", "url2": "http//www.suzukinaika.or.jp" }, "geometry": { "type": "Point", "coordinates": [ 141.43049, 42.9977826 ] } },
{ "type": "Feature", "properties": { "内容": "デイサービスゆめいろ【認知症対応型通所介護】北海道札幌市清田区里塚２条２丁目４番２１号ケアタウン徳洲会札幌南", "url": "https://www.kaigokensaku.mhlw.go.jp/01/index.php?action_kouhyou_detail_004_kani=true&JigyosyoCd=0190501080-00&ServiceCd=720&Type=search", "url2": "https://care-net.co.jp/" }, "geometry": { "type": "Point", "coordinates": [ 141.461529400000018, 42.989262299999965 ] } },
{ "type": "Feature", "properties": { "内容": "デイサービスセンター　ノテふるさと【認知症対応型通所介護】札幌市清田区真栄４３４番地６", "url": "https://www.kaigokensaku.mhlw.go.jp/01/index.php?action_kouhyou_detail_004_kani=true&JigyosyoCd=0170500284-00&ServiceCd=720&Type=search", "url2": "http://www.note.or.jp/facilities/details/28/" }, "geometry": { "type": "Point", "coordinates": [ 141.432388599999967, 42.9721996 ] } },
{ "type": "Feature", "properties": { "内容": "パストラルデイサービス【認知症対応型通所介護】札幌市清田区平岡４条３丁目２３－２７グループホームパストラル", "url": "https://www.kaigokensaku.mhlw.go.jp/01/index.php?action_kouhyou_detail_004_kani=true&JigyosyoCd=0170501233-00&ServiceCd=720&Type=search", "url2": "http://www.hts-grouphome.com/" }, "geometry": { "type": "Point", "coordinates": [ 141.45684, 43.0044493 ] } },
{ "type": "Feature", "properties": { "内容": "シャイニングの森のデイサービス【認知症対応型通所介護】札幌市清田区美しが丘４条７丁目７－１２", "url": "https://www.kaigokensaku.mhlw.go.jp/01/index.php?action_kouhyou_detail_004_kani=true&JigyosyoCd=0190500132-00&ServiceCd=720&Type=search", "url2": "http://www.totorono-mori.com/" }, "geometry": { "type": "Point", "coordinates": [ 141.460094300000037, 42.9761 ] } },
{ "type": "Feature", "properties": { "内容": "ニチイケアセンター函館桔梗【認知症対応型通所介護】北海道函館市桔梗3丁目22番10号", "url": "https://www.kaigokensaku.mhlw.go.jp/01/index.php?action_kouhyou_detail_004_kani=true&JigyosyoCd=0191400118-00&ServiceCd=720&Type=search", "url2": null }, "geometry": { "type": "Point", "coordinates": [ 140.729437500000017, 41.8478543 ] } },
{ "type": "Feature", "properties": { "内容": "認知症対応型デイサービス秋桜【認知症対応型通所介護】北海道函館市宝来町14-25", "url": "https://www.kaigokensaku.mhlw.go.jp/01/index.php?action_kouhyou_detail_004_kani=true&JigyosyoCd=0171401052-00&ServiceCd=720&Type=search", "url2": "http://takahashi-group.jp/" }, "geometry": { "type": "Point", "coordinates": [ 140.721675299999987, 41.7580166 ] } },
{ "type": "Feature", "properties": { "内容": "認知症対応型デイサービスまつかわ【認知症対応型通所介護】北海道函館市松川町41番17号", "url": "https://www.kaigokensaku.mhlw.go.jp/01/index.php?action_kouhyou_detail_004_kani=true&JigyosyoCd=0191400282-00&ServiceCd=720&Type=search", "url2": "http://www.fukase.or.jp" }, "geometry": { "type": "Point", "coordinates": [ 140.737195473680117, 41.787007482917552 ] } },
{ "type": "Feature", "properties": { "内容": "デイサービスセンター函館あいの里【認知症対応型通所介護】北海道函館市亀田中野町277番地12", "url": "https://www.kaigokensaku.mhlw.go.jp/01/index.php?action_kouhyou_detail_004_kani=true&JigyosyoCd=0191400738-00&ServiceCd=720&Type=search", "url2": "http://aino-sato.net" }, "geometry": { "type": "Point", "coordinates": [ 140.7754592, 41.8529888 ] } },
{ "type": "Feature", "properties": { "内容": "認知症対応型デイサービスこうじゅ【認知症対応型通所介護】北海道函館市亀田町７番１号", "url": "https://www.kaigokensaku.mhlw.go.jp/01/index.php?action_kouhyou_detail_004_kani=true&JigyosyoCd=0191400399-00&ServiceCd=720&Type=search", "url2": "http://www5.ncv.ne.jp/~cs-kouju/day.html" }, "geometry": { "type": "Point", "coordinates": [ 140.734324500000014, 41.7922173 ] } },
{ "type": "Feature", "properties": { "内容": "認知症対応型デイサービスセンターはる【認知症対応型通所介護】小樽市赤岩２丁目１８番２２号", "url": "https://www.kaigokensaku.mhlw.go.jp/01/index.php?action_kouhyou_detail_004_kani=true&JigyosyoCd=0172000051-00&ServiceCd=720&Type=search", "url2": "https://nomad-haru.com/" }, "geometry": { "type": "Point", "coordinates": [ 140.993756800000028, 43.2251025 ] } },
{ "type": "Feature", "properties": { "内容": "デイサービス　朝里山荘【認知症対応型通所介護】小樽市朝里川温泉2丁目694番63号", "url": "https://www.kaigokensaku.mhlw.go.jp/01/index.php?action_kouhyou_detail_004_kani=true&JigyosyoCd=0192000032-00&ServiceCd=720&Type=search", "url2": "https://www.douou-care.co.jp" }, "geometry": { "type": "Point", "coordinates": [ 141.041618100000051, 43.1485594 ] } },
{ "type": "Feature", "properties": { "内容": "デイサービスおたる【認知症対応型通所介護】北海道小樽市稲穂2丁目13番1号道央ケアセンタービル3階", "url": "https://www.kaigokensaku.mhlw.go.jp/01/index.php?action_kouhyou_detail_004_kani=true&JigyosyoCd=0192000180-00&ServiceCd=720&Type=search", "url2": "http://www.douou-care.co.jp" }, "geometry": { "type": "Point", "coordinates": [ 140.997444800000039, 43.1967723 ] } },
{ "type": "Feature", "properties": { "内容": "グループホーム　ひまわり【認知症対応型通所介護】北海道旭川市錦町18丁目2150番地", "url": "https://www.kaigokensaku.mhlw.go.jp/01/index.php?action_kouhyou_detail_004_kani=true&JigyosyoCd=0192900157-00&ServiceCd=720&Type=search", "url2": "http://www.gunseikai.jp/" }, "geometry": { "type": "Point", "coordinates": [ 142.332359799999949, 43.7916903 ] } },
{ "type": "Feature", "properties": { "内容": "デイサービス　サンシャイン【認知症対応型通所介護】北海道旭川市北門町21丁目2172-111", "url": "https://www.kaigokensaku.mhlw.go.jp/01/index.php?action_kouhyou_detail_004_kani=true&JigyosyoCd=0172901738-00&ServiceCd=720&Type=search", "url2": null }, "geometry": { "type": "Point", "coordinates": [ 142.3335816, 43.7967036 ] } },
{ "type": "Feature", "properties": { "内容": "グループホーム　愛あい【認知症対応型通所介護】旭川市川端町２条５丁目２番３号", "url": "https://www.kaigokensaku.mhlw.go.jp/01/index.php?action_kouhyou_detail_004_kani=true&JigyosyoCd=0192900207-00&ServiceCd=720&Type=search", "url2": null }, "geometry": { "type": "Point", "coordinates": [ 142.352336400000013, 43.7816615 ] } },
{ "type": "Feature", "properties": { "内容": "グループホームぞう【認知症対応型通所介護】北海道旭川市末広１条１３丁目２番１０号", "url": "https://www.kaigokensaku.mhlw.go.jp/01/index.php?action_kouhyou_detail_004_kani=true&JigyosyoCd=0192902245-00&ServiceCd=720&Type=search", "url2": null }, "geometry": { "type": "Point", "coordinates": [ 142.40042649999998, 43.8167736 ] } },
{ "type": "Feature", "properties": { "内容": "グループホーム　和が家【認知症対応型通所介護】北海道旭川市春光台5条3丁目7-24", "url": "https://www.kaigokensaku.mhlw.go.jp/01/index.php?action_kouhyou_detail_004_kani=true&JigyosyoCd=0192902229-00&ServiceCd=720&Type=search", "url2": "http://www.wagaya-gh.com/" }, "geometry": { "type": "Point", "coordinates": [ 142.347771688360581, 43.822057625218406 ] } },
{ "type": "Feature", "properties": { "内容": "認知症対応型通所介護グループホームひだまりの家【認知症対応型通所介護】旭川市神楽4条1丁目2番4号", "url": "https://www.kaigokensaku.mhlw.go.jp/01/index.php?action_kouhyou_detail_004_kani=true&JigyosyoCd=0192902591-00&ServiceCd=720&Type=search", "url2": "https://life-stage.info" }, "geometry": { "type": "Point", "coordinates": [ 142.34415, 43.7647499 ] } },
{ "type": "Feature", "properties": { "内容": "デイサービス　ひぐらし【認知症対応型通所介護】北海道旭川市神居1条15丁目2-19", "url": "https://www.kaigokensaku.mhlw.go.jp/01/index.php?action_kouhyou_detail_004_kani=true&JigyosyoCd=0192900108-00&ServiceCd=720&Type=search", "url2": "http://www.day-higurashi.com" }, "geometry": { "type": "Point", "coordinates": [ 142.3409666, 43.7551253 ] } },
{ "type": "Feature", "properties": { "内容": "りんどうの里通所介護事業所【認知症対応型通所介護】北海道旭川市神居町雨紛１７２－２", "url": "https://www.kaigokensaku.mhlw.go.jp/01/index.php?action_kouhyou_detail_004_kani=true&JigyosyoCd=0172900318-00&ServiceCd=720&Type=search", "url2": null }, "geometry": { "type": "Point", "coordinates": [ 142.341514632655276, 43.735812390626727 ] } },
{ "type": "Feature", "properties": { "内容": "グループホームひかり【認知症対応型通所介護】旭川市春光台2条6丁目1番11号", "url": "https://www.kaigokensaku.mhlw.go.jp/01/index.php?action_kouhyou_detail_004_kani=true&JigyosyoCd=0172902421-00&ServiceCd=720&Type=search", "url2": "https://hikari-g.jp/" }, "geometry": { "type": "Point", "coordinates": [ 142.3656172, 43.820848 ] } },
{ "type": "Feature", "properties": { "内容": "デイサービスにわとこ【認知症対応型通所介護】旭川市東光４条１丁目２番７号", "url": "https://www.kaigokensaku.mhlw.go.jp/01/index.php?action_kouhyou_detail_004_kani=true&JigyosyoCd=0192902070-00&ServiceCd=720&Type=search", "url2": null }, "geometry": { "type": "Point", "coordinates": [ 142.389594799999941, 43.7527051 ] } },
{ "type": "Feature", "properties": { "内容": "デイサービスにわとこの花【認知症対応型通所介護】北海道旭川市東光３条２丁目１番６号", "url": "https://www.kaigokensaku.mhlw.go.jp/01/index.php?action_kouhyou_detail_004_kani=true&JigyosyoCd=0192902609-00&ServiceCd=720&Type=search", "url2": null }, "geometry": { "type": "Point", "coordinates": [ 142.3868508, 43.7538992 ] } },
{ "type": "Feature", "properties": { "内容": "スロウラウンジこば【認知症対応型通所介護】旭川市忠和2条4丁目1－12", "url": "https://www.kaigokensaku.mhlw.go.jp/01/index.php?action_kouhyou_detail_004_kani=true&JigyosyoCd=0192902120-00&ServiceCd=720&Type=search", "url2": "http://slow-lounge.net" }, "geometry": { "type": "Point", "coordinates": [ 142.3190922, 43.7814078 ] } },
{ "type": "Feature", "properties": { "内容": "デイサービスセンターけあさぽ【認知症対応型通所介護】旭川市東光４条２丁目２番２１号", "url": "https://www.kaigokensaku.mhlw.go.jp/01/index.php?action_kouhyou_detail_004_kani=true&JigyosyoCd=0192900298-00&ServiceCd=720&Type=search", "url2": null }, "geometry": { "type": "Point", "coordinates": [ 142.39343329999997, 43.7523359 ] } },
{ "type": "Feature", "properties": { "内容": "デイサービスあき【認知症対応型通所介護】北海道旭川市秋月３条２丁目２８－２６", "url": "https://www.kaigokensaku.mhlw.go.jp/01/index.php?action_kouhyou_detail_004_kani=true&JigyosyoCd=0192902203-00&ServiceCd=720&Type=search", "url2": "https://ikiiki-aki.com/" }, "geometry": { "type": "Point", "coordinates": [ 142.393482706607074, 43.789146124422686 ] } },
{ "type": "Feature", "properties": { "内容": "有限会社オフィスモリヤマ【認知症対応型通所介護】北海道旭川市春光台２条６丁目１番１１", "url": "https://www.kaigokensaku.mhlw.go.jp/01/index.php?action_kouhyou_detail_004_kani=true&JigyosyoCd=0192900256-00&ServiceCd=720&Type=search", "url2": "http://gh-hana.com" }, "geometry": { "type": "Point", "coordinates": [ 142.365927141803013, 43.820409143647353 ] } },
{ "type": "Feature", "properties": { "内容": "認知症対応型通所介護ひだまり【認知症対応型通所介護】北海道旭川市神楽4条1丁目3番5号グループホームひだまり", "url": "https://www.kaigokensaku.mhlw.go.jp/01/index.php?action_kouhyou_detail_004_kani=true&JigyosyoCd=0192902484-00&ServiceCd=720&Type=search", "url2": "http://www.life-stage.info" }, "geometry": { "type": "Point", "coordinates": [ 142.343849299999988, 43.7646133 ] } },
{ "type": "Feature", "properties": { "内容": "グループホームゆうあい【認知症対応型通所介護】北海道旭川市神居９条８丁目1－11", "url": "https://www.kaigokensaku.mhlw.go.jp/01/index.php?action_kouhyou_detail_004_kani=true&JigyosyoCd=0192903052-00&ServiceCd=720&Type=search", "url2": "http://www.n-g-yuai.com/" }, "geometry": { "type": "Point", "coordinates": [ 142.3253814, 43.7587885 ] } },
{ "type": "Feature", "properties": { "内容": "認知症対応型デイサービスセンターみたらの杜【認知症対応型通所介護】室蘭市絵鞆町２丁目２２番３号", "url": "https://www.kaigokensaku.mhlw.go.jp/01/index.php?action_kouhyou_detail_004_kani=true&JigyosyoCd=0193500030-00&ServiceCd=720&Type=search", "url2": "http://www.koseikai-wel.or.jp" }, "geometry": { "type": "Point", "coordinates": [ 140.936958600000025, 42.3342714 ] } },
{ "type": "Feature", "properties": { "内容": "デイサービスセンターかがやき【認知症対応型通所介護】北海道室蘭市東町４丁目２０番８号", "url": "https://www.kaigokensaku.mhlw.go.jp/01/index.php?action_kouhyou_detail_004_kani=true&JigyosyoCd=0173500216-00&ServiceCd=720&Type=search", "url2": "http://muroran-fukushi.com" }, "geometry": { "type": "Point", "coordinates": [ 141.025758339950585, 42.341869502280566 ] } },
{ "type": "Feature", "properties": { "内容": "デイサービスくらしさ室蘭【認知症対応型通所介護】北海道室蘭市幸町12－10くらしさ室蘭", "url": "https://www.kaigokensaku.mhlw.go.jp/01/index.php?action_kouhyou_detail_004_kani=true&JigyosyoCd=0193500345-00&ServiceCd=720&Type=search", "url2": "https://genkinakaigo.co.jp" }, "geometry": { "type": "Point", "coordinates": [ 140.9687353, 42.3146899 ] } },
{ "type": "Feature", "properties": { "内容": "ニチイケアセンター釧路昭和【認知症対応型通所介護】北海道釧路市昭和中央６丁目３１番１８号", "url": "https://www.kaigokensaku.mhlw.go.jp/01/index.php?action_kouhyou_detail_004_kani=true&JigyosyoCd=0194100194-00&ServiceCd=720&Type=search", "url2": "http://www.nichiigakkan.co.jp/" }, "geometry": { "type": "Point", "coordinates": [ 144.3550649, 43.0303905 ] } },
{ "type": "Feature", "properties": { "内容": "デイサービスふれ愛【認知症対応型通所介護】釧路市若竹町18-15", "url": "https://www.kaigokensaku.mhlw.go.jp/01/index.php?action_kouhyou_detail_004_kani=true&JigyosyoCd=0174100594-00&ServiceCd=720&Type=search", "url2": "http://www7b.biglobe.ne.jp/~fureai/" }, "geometry": { "type": "Point", "coordinates": [ 144.37484459999996, 43.0010301 ] } },
{ "type": "Feature", "properties": { "内容": "道東勤医協ひまわりいきいきデイサービスセンター【認知症対応型通所介護】北海道釧路市堀川町8番43号", "url": "https://www.kaigokensaku.mhlw.go.jp/01/index.php?action_kouhyou_detail_004_kani=true&JigyosyoCd=0194100046-00&ServiceCd=720&Type=search", "url2": "https://dotokin-kaigo.com/" }, "geometry": { "type": "Point", "coordinates": [ 144.3928568, 42.9980947 ] } },
{ "type": "Feature", "properties": { "内容": "道東勤医協さくらいきいきデイサービスセンター【認知症対応型通所介護】北海道釧路市桜ヶ岡2丁目18番7号", "url": "https://www.kaigokensaku.mhlw.go.jp/01/index.php?action_kouhyou_detail_004_kani=true&JigyosyoCd=0194100053-00&ServiceCd=720&Type=search", "url2": "http://dotokin-kaigo.com/pdf/office08.pdf" }, "geometry": { "type": "Point", "coordinates": [ 144.4224848, 42.9665029 ] } },
{ "type": "Feature", "properties": { "内容": "株式会社　育成【認知症対応型通所介護】北海道釧路市大楽毛南４丁目６番８号", "url": "https://www.kaigokensaku.mhlw.go.jp/01/index.php?action_kouhyou_detail_004_kani=true&JigyosyoCd=0194200085-00&ServiceCd=720&Type=search", "url2": "http//www.ikuseikai-k.jp" }, "geometry": { "type": "Point", "coordinates": [ 144.2770109, 43.0073797 ] } },
{ "type": "Feature", "properties": { "内容": "愛の家グループホーム　帯広共栄【認知症対応型通所介護】北海道帯広市西12条南4丁目1-3", "url": "https://www.kaigokensaku.mhlw.go.jp/01/index.php?action_kouhyou_detail_004_kani=true&JigyosyoCd=0194600144-00&ServiceCd=720&Type=search", "url2": "http://www.mcsg.co.jp/" }, "geometry": { "type": "Point", "coordinates": [ 143.18609570000001, 42.9269674 ] } },
{ "type": "Feature", "properties": { "内容": "愛の家デイサービス帯広西11条【認知症対応型通所介護】北海道帯広市西１１条南15丁目2-1", "url": "https://www.kaigokensaku.mhlw.go.jp/01/index.php?action_kouhyou_detail_004_kani=true&JigyosyoCd=0194600060-00&ServiceCd=720&Type=search", "url2": "http://mcs-ainoie.com/ins13.html" }, "geometry": { "type": "Point", "coordinates": [ 143.188934600000039, 42.9143496 ] } },
{ "type": "Feature", "properties": { "内容": "愛の家ディサービス帯広東12条【認知症対応型通所介護】北海道帯広市東12条南4丁目1-75", "url": "https://www.kaigokensaku.mhlw.go.jp/01/index.php?action_kouhyou_detail_004_kani=true&JigyosyoCd=0194600078-00&ServiceCd=720&Type=search", "url2": null }, "geometry": { "type": "Point", "coordinates": [ 143.2266717, 42.9292638 ] } },
{ "type": "Feature", "properties": { "内容": "愛の家デイサービス帯広若葉【認知症対応型通所介護】北海道帯広市西16条南6丁目27－16", "url": "https://www.kaigokensaku.mhlw.go.jp/01/index.php?action_kouhyou_detail_004_kani=true&JigyosyoCd=0194600516-00&ServiceCd=720&Type=search", "url2": null }, "geometry": { "type": "Point", "coordinates": [ 143.1763161, 42.9029942 ] } },
{ "type": "Feature", "properties": { "内容": "デイサービススローライフおびこ【認知症対応型通所介護】北海道帯広市東四条南20丁目6-4", "url": "https://www.kaigokensaku.mhlw.go.jp/01/index.php?action_kouhyou_detail_004_kani=true&JigyosyoCd=0194600540-00&ServiceCd=720&Type=search", "url2": "https://obihiro.keiwakai.jp/obiko" }, "geometry": { "type": "Point", "coordinates": [ 143.213951899999984, 42.9100794 ] } },
{ "type": "Feature", "properties": { "内容": "WOODGARDEN【認知症対応型通所介護】帯広市西１６条南６丁目３０－２３", "url": "https://www.kaigokensaku.mhlw.go.jp/01/index.php?action_kouhyou_detail_004_kani=true&JigyosyoCd=0194600748-00&ServiceCd=720&Type=search", "url2": "https://3eee.co.jp/" }, "geometry": { "type": "Point", "coordinates": [ 143.176294287255672, 42.904820476382319 ] } },
{ "type": "Feature", "properties": { "内容": "デイサービス　フルーツ【認知症対応型通所介護】北海道北見市北進町７丁目６-11", "url": "https://www.kaigokensaku.mhlw.go.jp/01/index.php?action_kouhyou_detail_004_kani=true&JigyosyoCd=0195003272-00&ServiceCd=720&Type=search", "url2": "http://www.keiwafukushi.jp/" }, "geometry": { "type": "Point", "coordinates": [ 143.8683505, 43.8043861 ] } },
{ "type": "Feature", "properties": { "内容": "デイサービスオンネナイ原野【認知症対応型通所介護】北見市留辺蘂町上町119番地10", "url": "https://www.kaigokensaku.mhlw.go.jp/01/index.php?action_kouhyou_detail_004_kani=true&JigyosyoCd=0195000138-00&ServiceCd=720&Type=search", "url2": "http://edelwaice.com" }, "geometry": { "type": "Point", "coordinates": [ 143.612496417844341, 43.787480547411946 ] } },
{ "type": "Feature", "properties": { "内容": "共用型デイサービスほんのりしあわせ館【認知症対応型通所介護】北海道北見市東相内町143-32", "url": "https://www.kaigokensaku.mhlw.go.jp/01/index.php?action_kouhyou_detail_004_kani=true&JigyosyoCd=0195003256-00&ServiceCd=720&Type=search", "url2": "http//www.kitami294.com/" }, "geometry": { "type": "Point", "coordinates": [ 143.8170515, 43.8045903 ] } },
{ "type": "Feature", "properties": { "内容": "デイサービス夢ふうせんこぶし【認知症対応型通所介護】北海道北見市西三輪４丁目７２０番地１", "url": "https://www.kaigokensaku.mhlw.go.jp/01/index.php?action_kouhyou_detail_004_kani=true&JigyosyoCd=0195000070-00&ServiceCd=720&Type=search", "url2": null }, "geometry": { "type": "Point", "coordinates": [ 143.831631099999981, 43.7999333 ] } },
{ "type": "Feature", "properties": { "内容": "デイサービスほのぼの館【認知症対応型通所介護】北海道北見市東相内町１４３－３２", "url": "https://www.kaigokensaku.mhlw.go.jp/01/index.php?action_kouhyou_detail_004_kani=true&JigyosyoCd=0195000120-00&ServiceCd=720&Type=search", "url2": "http://www.kitami294.com/" }, "geometry": { "type": "Point", "coordinates": [ 143.817343, 43.804555 ] } },
{ "type": "Feature", "properties": { "内容": "認知症対応型デイサービス華蓮【認知症対応型通所介護】北海道北見市無加川町619-7", "url": "https://www.kaigokensaku.mhlw.go.jp/01/index.php?action_kouhyou_detail_004_kani=true&JigyosyoCd=0195003322-00&ServiceCd=720&Type=search", "url2": "https://edelwaice.com/" }, "geometry": { "type": "Point", "coordinates": [ 143.865226039848523, 43.787096697329197 ] } },
{ "type": "Feature", "properties": { "内容": "共用型デイサービスまどか【認知症対応型通所介護】北海道夕張市清水沢宮前町２２番地グループホームまどか", "url": "https://www.kaigokensaku.mhlw.go.jp/01/index.php?action_kouhyou_detail_004_kani=true&JigyosyoCd=0175900083-00&ServiceCd=720&Type=search", "url2": "http://yubari-seikouen.jp" }, "geometry": { "type": "Point", "coordinates": [ 142.0090198, 42.9939239 ] } },
{ "type": "Feature", "properties": { "内容": "グループホームわかな【認知症対応型通所介護】夕張市若菜８番地２５グループホームわかな", "url": "https://www.kaigokensaku.mhlw.go.jp/01/index.php?action_kouhyou_detail_004_kani=true&JigyosyoCd=0195900048-00&ServiceCd=720&Type=search", "url2": null }, "geometry": { "type": "Point", "coordinates": [ 141.972637, 43.0243294 ] } },
{ "type": "Feature", "properties": { "内容": "認知症対応型通所介護事業所　野菊【認知症対応型通所介護】岩見沢市2条東15丁目2番地2", "url": "https://www.kaigokensaku.mhlw.go.jp/01/index.php?action_kouhyou_detail_004_kani=true&JigyosyoCd=0195700018-00&ServiceCd=720&Type=search", "url2": "http://www.nogiku.org/" }, "geometry": { "type": "Point", "coordinates": [ 141.782459400000022, 43.2139758 ] } },
{ "type": "Feature", "properties": { "内容": "いせの里指定通所介護事業所【認知症対応型通所介護】北海道網走市字潮見１９２番地", "url": "https://www.kaigokensaku.mhlw.go.jp/01/index.php?action_kouhyou_detail_004_kani=true&JigyosyoCd=0155380017-00&ServiceCd=720&Type=search", "url2": "http://www.isenosato.sakura.ne.jp/" }, "geometry": { "type": "Point", "coordinates": [ 144.2691188, 43.9980867 ] } },
{ "type": "Feature", "properties": { "内容": "社会福祉法人緑明会　グループホーム森の灯りはまなす【認知症対応型通所介護】北海道網走市つくしヶ丘3丁目9-1", "url": "https://www.kaigokensaku.mhlw.go.jp/01/index.php?action_kouhyou_detail_004_kani=true&JigyosyoCd=0195300090-00&ServiceCd=720&Type=search", "url2": "http://http://ryokumekaihamanasu.web.fc2.com/" }, "geometry": { "type": "Point", "coordinates": [ 144.279964899999982, 43.9929976 ] } },
{ "type": "Feature", "properties": { "内容": "社会医療法人明生会　すろー・らいふ台町通所介護【認知症対応型通所介護】網走市台町２丁目7番4号", "url": "https://www.kaigokensaku.mhlw.go.jp/01/index.php?action_kouhyou_detail_004_kani=true&JigyosyoCd=0175300391-00&ServiceCd=720&Type=search", "url2": "http://fenneurosurgery.jimdo.com/" }, "geometry": { "type": "Point", "coordinates": [ 144.280858800000033, 44.0168464 ] } },
{ "type": "Feature", "properties": { "内容": "有限会社　ケアサポートますむら【認知症対応型通所介護】北海道網走市緑町1番１０－６ファミールみどり", "url": "https://www.kaigokensaku.mhlw.go.jp/01/index.php?action_kouhyou_detail_004_kani=true&JigyosyoCd=0175300250-00&ServiceCd=720&Type=search", "url2": "http://www.famille-midori.com/" }, "geometry": { "type": "Point", "coordinates": [ 144.2548971, 44.0238447 ] } },
{ "type": "Feature", "properties": { "内容": "社会福祉法人　緑明会　よってけ家はまなす駒場【認知症対応型通所介護】網走市駒場北６丁目１－２４", "url": "https://www.kaigokensaku.mhlw.go.jp/01/index.php?action_kouhyou_detail_004_kani=true&JigyosyoCd=0195300025-00&ServiceCd=720&Type=search", "url2": "http://morinoakarihamanasu.com/" }, "geometry": { "type": "Point", "coordinates": [ 144.284717399999977, 44.0001619 ] } },
{ "type": "Feature", "properties": { "内容": "デイサービスセンターもえんち留萌【認知症対応型通所介護】留萌市開運町1丁目2番1号", "url": "https://www.kaigokensaku.mhlw.go.jp/01/index.php?action_kouhyou_detail_004_kani=true&JigyosyoCd=0176400018-00&ServiceCd=720&Type=search", "url2": "http://www.moe-fukusi.com" }, "geometry": { "type": "Point", "coordinates": [ 141.650036300000011, 43.9391457 ] } },
{ "type": "Feature", "properties": { "内容": "グループホーム花縁ときわ館【認知症対応型通所介護】苫小牧市ときわ町3丁目4-14", "url": "https://www.kaigokensaku.mhlw.go.jp/01/index.php?action_kouhyou_detail_004_kani=true&JigyosyoCd=0193600137-00&ServiceCd=720&Type=search", "url2": "http://gh-kaen.com" }, "geometry": { "type": "Point", "coordinates": [ 141.511257199999989, 42.6119437 ] } },
{ "type": "Feature", "properties": { "内容": "グループホーム花縁【認知症対応型通所介護】苫小牧市澄川町4丁目3－5", "url": "https://www.kaigokensaku.mhlw.go.jp/01/index.php?action_kouhyou_detail_004_kani=true&JigyosyoCd=0193600822-00&ServiceCd=720&Type=search", "url2": "http://gh-kaen.com" }, "geometry": { "type": "Point", "coordinates": [ 141.5045721, 42.6163231 ] } },
{ "type": "Feature", "properties": { "内容": "デイサービスくらしさ沼ノ端【認知症対応型通所介護】北海道苫小牧市沼ノ端中央2丁目1番42号", "url": "https://www.kaigokensaku.mhlw.go.jp/01/index.php?action_kouhyou_detail_004_kani=true&JigyosyoCd=0193600038-00&ServiceCd=720&Type=search", "url2": "http://genkinakaigo.co.jp" }, "geometry": { "type": "Point", "coordinates": [ 141.701964800000013, 42.6715746 ] } },
{ "type": "Feature", "properties": { "内容": "デイサービスセンターあったか大黒Ⅰ号館【認知症対応型通所介護】北海道稚内市大黒５丁目１０番２３号", "url": "https://www.kaigokensaku.mhlw.go.jp/01/index.php?action_kouhyou_detail_004_kani=true&JigyosyoCd=0196700108-00&ServiceCd=720&Type=search", "url2": "http://www.attaka-s.jp/" }, "geometry": { "type": "Point", "coordinates": [ 141.6952413, 45.3944905 ] } },
{ "type": "Feature", "properties": { "内容": "デイサービスセンターあったか大黒館【認知症対応型通所介護】北海道稚内市大黒５丁目１０番２３号", "url": "https://www.kaigokensaku.mhlw.go.jp/01/index.php?action_kouhyou_detail_004_kani=true&JigyosyoCd=0176700615-00&ServiceCd=720&Type=search", "url2": "http://www.attaka-s.jp" }, "geometry": { "type": "Point", "coordinates": [ 141.6952413, 45.3944905 ] } },
{ "type": "Feature", "properties": { "内容": "びばい社協ふれあいデイサービスセンター【認知症対応型通所介護】北海道美唄市西3条南3丁目6-2美唄市総合福祉センターぽぷら", "url": "https://www.kaigokensaku.mhlw.go.jp/01/index.php?action_kouhyou_detail_004_kani=true&JigyosyoCd=0176100022-00&ServiceCd=720&Type=search", "url2": "http://www.bibai.com/shakyo/" }, "geometry": { "type": "Point", "coordinates": [ 141.854287600000021, 43.3312398 ] } },
{ "type": "Feature", "properties": { "内容": "芦別慈恵園もみじの家【認知症対応型通所介護】北海道芦別市旭町28番地", "url": "https://www.kaigokensaku.mhlw.go.jp/01/index.php?action_kouhyou_detail_004_kani=true&JigyosyoCd=0197300023-00&ServiceCd=720&Type=search", "url2": "http://www.ashibetsu.or.jp" }, "geometry": { "type": "Point", "coordinates": [ 142.197282399999949, 43.5257846 ] } },
{ "type": "Feature", "properties": { "内容": "認知症対応型デイサービスなないろ【認知症対応型通所介護】江別市上江別西町３６番地の２", "url": "https://www.kaigokensaku.mhlw.go.jp/01/index.php?action_kouhyou_detail_004_kani=true&JigyosyoCd=0191000694-00&ServiceCd=720&Type=search", "url2": "https://www.harerulife.com/" }, "geometry": { "type": "Point", "coordinates": [ 141.546316600000011, 43.1032023 ] } },
{ "type": "Feature", "properties": { "内容": "認知症デイサービスセンター夢ふうせんみどり【認知症対応型通所介護】北海道江別市緑町東３丁目１１１－３２", "url": "https://www.kaigokensaku.mhlw.go.jp/01/index.php?action_kouhyou_detail_004_kani=true&JigyosyoCd=0191000298-00&ServiceCd=720&Type=search", "url2": "http://www.e-mlink.co.jp" }, "geometry": { "type": "Point", "coordinates": [ 141.542123299999957, 43.1187179 ] } },
{ "type": "Feature", "properties": { "内容": "BRICKSGARDEN【認知症対応型通所介護】江別市野幌寿町24-6", "url": "https://www.kaigokensaku.mhlw.go.jp/01/index.php?action_kouhyou_detail_004_kani=true&JigyosyoCd=0191000660-00&ServiceCd=720&Type=search", "url2": "https://3eee.co.jp/" }, "geometry": { "type": "Point", "coordinates": [ 141.519234808598327, 43.102408224887881 ] } },
{ "type": "Feature", "properties": { "内容": "デイサービスセンターのぞみ【認知症対応型通所介護】北海道赤平市宮下町３丁目１番地", "url": "https://www.kaigokensaku.mhlw.go.jp/01/index.php?action_kouhyou_detail_004_kani=true&JigyosyoCd=0197200025-00&ServiceCd=720&Type=search", "url2": "http://www.24de.jp/nozomi/index.html" }, "geometry": { "type": "Point", "coordinates": [ 142.034317399999964, 43.5588846 ] } },
{ "type": "Feature", "properties": { "内容": "デイサービスセンター夢ふうせんラポール【認知症対応型通所介護】北海道紋別市落石町5丁目４－１３", "url": "https://www.kaigokensaku.mhlw.go.jp/01/index.php?action_kouhyou_detail_004_kani=true&JigyosyoCd=0195100102-00&ServiceCd=720&Type=search", "url2": "http://www.e-mlink.co.jp" }, "geometry": { "type": "Point", "coordinates": [ 143.335837500000025, 44.3580696 ] } },
{ "type": "Feature", "properties": { "内容": "ミニデイサービス陽だまり【認知症対応型通所介護】北海道紋別市大山町１丁目３４番１７号", "url": "https://www.kaigokensaku.mhlw.go.jp/01/index.php?action_kouhyou_detail_004_kani=true&JigyosyoCd=0195100078-00&ServiceCd=720&Type=search", "url2": "http://www4.plala.or.jp/community2004/" }, "geometry": { "type": "Point", "coordinates": [ 143.344183525547777, 44.339016684461491 ] } },
{ "type": "Feature", "properties": { "内容": "デイサービスホーム陽だまり【認知症対応型通所介護】北海道士別市東５条１１丁目８８３番地７", "url": "https://www.kaigokensaku.mhlw.go.jp/01/index.php?action_kouhyou_detail_004_kani=true&JigyosyoCd=0193200045-00&ServiceCd=720&Type=search", "url2": null }, "geometry": { "type": "Point", "coordinates": [ 142.401378799999947, 44.1714901 ] } },
{ "type": "Feature", "properties": { "内容": "デイサービスほほえみ【認知症対応型通所介護】北海道士別市東５条１１丁目８８３－１１", "url": "https://www.kaigokensaku.mhlw.go.jp/01/index.php?action_kouhyou_detail_004_kani=true&JigyosyoCd=0193200185-00&ServiceCd=720&Type=search", "url2": null }, "geometry": { "type": "Point", "coordinates": [ 142.4010872, 44.1716762 ] } },
{ "type": "Feature", "properties": { "内容": "医療法人社団　三愛会　　グループホーム「里の家」【認知症対応型通所介護】北海道名寄市西1条南4丁目17番地", "url": "https://www.kaigokensaku.mhlw.go.jp/01/index.php?action_kouhyou_detail_004_kani=true&JigyosyoCd=0173200510-00&ServiceCd=720&Type=search", "url2": "http://www.sanai-kai.or.jp" }, "geometry": { "type": "Point", "coordinates": [ 142.461742700000059, 44.3523801 ] } },
{ "type": "Feature", "properties": { "内容": "グループホーム「里の家」2号館デイサービス【認知症対応型通所介護】北海道名寄市大通北5丁目4番地", "url": "https://www.kaigokensaku.mhlw.go.jp/01/index.php?action_kouhyou_detail_004_kani=true&JigyosyoCd=0193200094-00&ServiceCd=720&Type=search", "url2": "http://www.sanai-kai.or.jp/" }, "geometry": { "type": "Point", "coordinates": [ 142.463366800000017, 44.361829 ] } },
{ "type": "Feature", "properties": { "内容": "株式会社ＦＯＬＬＯＷ　デイサービスセンターあうん【認知症対応型通所介護】名寄市西１０条北１丁目７４番地７８", "url": "https://www.kaigokensaku.mhlw.go.jp/01/index.php?action_kouhyou_detail_004_kani=true&JigyosyoCd=0193200052-00&ServiceCd=720&Type=search", "url2": null }, "geometry": { "type": "Point", "coordinates": [ 142.448485, 44.3575457 ] } },
{ "type": "Feature", "properties": { "内容": "株式会社ＦＯＬＬＯＷ　デイサービスセンターあうん２号館【認知症対応型通所介護】北海道名寄市西３条北７丁目１番地２", "url": "https://www.kaigokensaku.mhlw.go.jp/01/index.php?action_kouhyou_detail_004_kani=true&JigyosyoCd=0193200151-00&ServiceCd=720&Type=search", "url2": null }, "geometry": { "type": "Point", "coordinates": [ 142.459419700000012, 44.3635926 ] } },
{ "type": "Feature", "properties": { "内容": "認知症対応型デイサービスセンターつどい【認知症対応型通所介護】北海道三笠市幌内新栄町352番地", "url": "https://www.kaigokensaku.mhlw.go.jp/01/index.php?action_kouhyou_detail_004_kani=true&JigyosyoCd=0196000038-00&ServiceCd=720&Type=search", "url2": "http://ikuseikai-hp.jp/" }, "geometry": { "type": "Point", "coordinates": [ 141.885934899999938, 43.232783 ] } },
{ "type": "Feature", "properties": { "内容": "ねむろ医院いきいきデイサービスセンター【認知症対応型通所介護】北海道根室市曙町３丁目３番地", "url": "https://www.kaigokensaku.mhlw.go.jp/01/index.php?action_kouhyou_detail_004_kani=true&JigyosyoCd=0194200051-00&ServiceCd=720&Type=search", "url2": "http://www.dotokin-medwel.jp/" }, "geometry": { "type": "Point", "coordinates": [ 145.596397300000035, 43.3317926 ] } },
{ "type": "Feature", "properties": { "内容": "デイサービスいころ【認知症対応型通所介護】北海道根室市宝林町4-255-13", "url": "https://www.kaigokensaku.mhlw.go.jp/01/index.php?action_kouhyou_detail_004_kani=true&JigyosyoCd=0194200184-00&ServiceCd=720&Type=search", "url2": null }, "geometry": { "type": "Point", "coordinates": [ 145.594848899999988, 43.314254 ] } },
{ "type": "Feature", "properties": { "内容": "デイサービスセンターオリオン【認知症対応型通所介護】北海道根室市友知２９９番地4", "url": "https://www.kaigokensaku.mhlw.go.jp/01/index.php?action_kouhyou_detail_004_kani=true&JigyosyoCd=0194200200-00&ServiceCd=720&Type=search", "url2": "http://hp.kaipoke.biz/ytt/" }, "geometry": { "type": "Point", "coordinates": [ 145.6600142, 43.3301337 ] } },
{ "type": "Feature", "properties": { "内容": "デイサービス陽だまり【認知症対応型通所介護】北海道千歳市桂木1丁目", "url": "https://www.kaigokensaku.mhlw.go.jp/01/index.php?action_kouhyou_detail_004_kani=true&JigyosyoCd=0191100098-00&ServiceCd=720&Type=search", "url2": "http://www.siseikai.or.jp/" }, "geometry": { "type": "Point", "coordinates": [ 141.624268205668841, 42.819478603056794 ] } },
{ "type": "Feature", "properties": { "内容": "デイサービス花園【認知症対応型通所介護】北海道千歳市花園3丁目8番7号", "url": "https://www.kaigokensaku.mhlw.go.jp/01/index.php?action_kouhyou_detail_004_kani=true&JigyosyoCd=0191100171-00&ServiceCd=720&Type=search", "url2": "http://www.kouyukai-aoba.or.jp" }, "geometry": { "type": "Point", "coordinates": [ 141.657455199999958, 42.8353311 ] } },
{ "type": "Feature", "properties": { "内容": "認知症対応型デイサービスセンタープラスワン【認知症対応型通所介護】北海道砂川市東1条北12丁目1番3号", "url": "https://www.kaigokensaku.mhlw.go.jp/01/index.php?action_kouhyou_detail_004_kani=true&JigyosyoCd=0197100100-00&ServiceCd=720&Type=search", "url2": "https://plusone-group.jp/" }, "geometry": { "type": "Point", "coordinates": [ 141.9119119, 43.5046153 ] } },
{ "type": "Feature", "properties": { "内容": "デイサービス福寿草【認知症対応型通所介護】北海道深川市4条12番６号", "url": "https://www.kaigokensaku.mhlw.go.jp/01/index.php?action_kouhyou_detail_004_kani=true&JigyosyoCd=0197400088-00&ServiceCd=720&Type=search", "url2": "http://www.henry-dunant.or.jp" }, "geometry": { "type": "Point", "coordinates": [ 142.047908199999938, 43.7202689 ] } },
{ "type": "Feature", "properties": { "内容": "ふらっくす【認知症対応型通所介護】北海道富良野市西麻町１番３号", "url": "https://www.kaigokensaku.mhlw.go.jp/01/index.php?action_kouhyou_detail_004_kani=true&JigyosyoCd=0193000106-00&ServiceCd=720&Type=search", "url2": "https://www.furanoasahigou.or.jp" }, "geometry": { "type": "Point", "coordinates": [ 142.3980469, 43.3442448 ] } },
{ "type": "Feature", "properties": { "内容": "デイサービスわくわくサロン【認知症対応型通所介護】北海道恵庭市本町146番地", "url": "https://www.kaigokensaku.mhlw.go.jp/01/index.php?action_kouhyou_detail_004_kani=true&JigyosyoCd=0191200245-00&ServiceCd=720&Type=search", "url2": "https://osyaberi-salon.org" }, "geometry": { "type": "Point", "coordinates": [ 141.5717247, 42.8826584 ] } },
{ "type": "Feature", "properties": { "内容": "デイサービスセンターアウル【認知症対応型通所介護】北海道伊達市弄月町233-4", "url": "https://www.kaigokensaku.mhlw.go.jp/01/index.php?action_kouhyou_detail_004_kani=true&JigyosyoCd=0173700303-00&ServiceCd=720&Type=search", "url2": "https://gh-owl.jp/" }, "geometry": { "type": "Point", "coordinates": [ 140.8840816, 42.4570517 ] } },
{ "type": "Feature", "properties": { "内容": "デイサービストトロの森Ⅱ【認知症対応型通所介護】北広島市大曲緑ヶ丘１丁目１４番地２７", "url": "https://www.kaigokensaku.mhlw.go.jp/01/index.php?action_kouhyou_detail_004_kani=true&JigyosyoCd=0191300045-00&ServiceCd=720&Type=search", "url2": "http://www.totorono-mori.com/" }, "geometry": { "type": "Point", "coordinates": [ 141.483684199999971, 42.9789837 ] } },
{ "type": "Feature", "properties": { "内容": "グループホームくらしさ北広島【認知症対応型通所介護】北海道北広島市大曲南ヶ丘1丁目12-2", "url": "https://www.kaigokensaku.mhlw.go.jp/01/index.php?action_kouhyou_detail_004_kani=true&JigyosyoCd=0191300169-00&ServiceCd=720&Type=search", "url2": null }, "geometry": { "type": "Point", "coordinates": [ 141.475110199999989, 42.9692691 ] } },
{ "type": "Feature", "properties": { "内容": "医療法人やわらぎデイサービスセンターはなみずき【認知症対応型通所介護】北海道北広島市共栄町4丁目11番地1", "url": "https://www.kaigokensaku.mhlw.go.jp/01/index.php?action_kouhyou_detail_004_kani=true&JigyosyoCd=0191300144-00&ServiceCd=720&Type=search", "url2": "http://yawaragi-info.or.jp/" }, "geometry": { "type": "Point", "coordinates": [ 141.56232, 42.9941453 ] } },
{ "type": "Feature", "properties": { "内容": "デイサービス雪ぼうし【認知症対応型通所介護】北広島市輪厚704番地31", "url": "https://www.kaigokensaku.mhlw.go.jp/01/index.php?action_kouhyou_detail_004_kani=true&JigyosyoCd=0171300171-00&ServiceCd=720&Type=search", "url2": "http://www.shojinkai.or.jp" }, "geometry": { "type": "Point", "coordinates": [ 141.5087677, 42.9443382 ] } },
{ "type": "Feature", "properties": { "内容": "デイホームさとみ【認知症対応型通所介護】北海道北広島市里見町６丁目５番地１", "url": "https://www.kaigokensaku.mhlw.go.jp/01/index.php?action_kouhyou_detail_004_kani=true&JigyosyoCd=0171300189-00&ServiceCd=720&Type=search", "url2": "http://www.shionen.or.jp" }, "geometry": { "type": "Point", "coordinates": [ 141.5479785, 42.9584878 ] } },
{ "type": "Feature", "properties": { "内容": "有限会社　幸慈愛福祉事業振興会【認知症対応型通所介護】北海道石狩市花川北６条１丁目６８番地", "url": "https://www.kaigokensaku.mhlw.go.jp/01/index.php?action_kouhyou_detail_004_kani=true&JigyosyoCd=0177600202-00&ServiceCd=720&Type=search", "url2": null }, "geometry": { "type": "Point", "coordinates": [ 141.317452900000035, 43.1699679 ] } },
{ "type": "Feature", "properties": { "内容": "デイサービスひなた【認知症対応型通所介護】北海道石狩市花川南2条6丁目118番地", "url": "https://www.kaigokensaku.mhlw.go.jp/01/index.php?action_kouhyou_detail_004_kani=true&JigyosyoCd=0177600293-00&ServiceCd=720&Type=search", "url2": null }, "geometry": { "type": "Point", "coordinates": [ 141.307991500000071, 43.1467811 ] } },
{ "type": "Feature", "properties": { "内容": "愛の家グループホーム石狩花川【認知症対応型通所介護】北海道石狩市花川４０４－１２", "url": "https://www.kaigokensaku.mhlw.go.jp/01/index.php?action_kouhyou_detail_004_kani=true&JigyosyoCd=0177600319-00&ServiceCd=720&Type=search", "url2": "http://www.mcsg.co.jp" }, "geometry": { "type": "Point", "coordinates": [ 141.310382900000036, 43.1461923 ] } },
{ "type": "Feature", "properties": { "内容": "デイサービスセンターはまなすの里・清川【認知症対応型通所介護】北斗市野崎１９９－１", "url": "https://www.kaigokensaku.mhlw.go.jp/01/index.php?action_kouhyou_detail_004_kani=true&JigyosyoCd=0171500564-00&ServiceCd=720&Type=search", "url2": "http://www.hamanasunosato.com" }, "geometry": { "type": "Point", "coordinates": [ 140.612747399999989, 41.8550189 ] } },
{ "type": "Feature", "properties": { "内容": "共用型デイサービスらくらの家・ふとみ【認知症対応型通所介護】北海道石狩郡当別町太美南818番地62", "url": "https://www.kaigokensaku.mhlw.go.jp/01/index.php?action_kouhyou_detail_004_kani=true&JigyosyoCd=0191000561-00&ServiceCd=720&Type=search", "url2": "http://www.lacura-g.com" }, "geometry": { "type": "Point", "coordinates": [ 141.4423189, 43.1873284 ] } },
{ "type": "Feature", "properties": { "内容": "道南森ロイヤルあじさい【認知症対応型通所介護】北海道茅部郡森町字上台町326-118", "url": "https://www.kaigokensaku.mhlw.go.jp/01/index.php?action_kouhyou_detail_004_kani=true&JigyosyoCd=0191513779-00&ServiceCd=720&Type=search", "url2": null }, "geometry": { "type": "Point", "coordinates": [ 140.5684784, 42.1037315 ] } },
{ "type": "Feature", "properties": { "内容": "グループホーム・なごみ【認知症対応型通所介護】北海道桧山郡江差町字田沢町492番地3", "url": "https://www.kaigokensaku.mhlw.go.jp/01/index.php?action_kouhyou_detail_004_kani=true&JigyosyoCd=0171600265-00&ServiceCd=720&Type=search", "url2": null }, "geometry": { "type": "Point", "coordinates": [ 140.145633, 41.8988808 ] } },
{ "type": "Feature", "properties": { "内容": "デイサービスセンターかもめ荘【認知症対応型通所介護】北海道桧山郡江差町字桧岱２１７番３", "url": "https://www.kaigokensaku.mhlw.go.jp/01/index.php?action_kouhyou_detail_004_kani=true&JigyosyoCd=0191600022-00&ServiceCd=720&Type=search", "url2": "http://www.hinokikai.or.jp" }, "geometry": { "type": "Point", "coordinates": [ 140.146356100000048, 41.8690509 ] } },
{ "type": "Feature", "properties": { "内容": "グループホーム・あかり【認知症対応型通所介護】北海道檜山郡江差町字田沢町４９２番地８", "url": "https://www.kaigokensaku.mhlw.go.jp/01/index.php?action_kouhyou_detail_004_kani=true&JigyosyoCd=0191600014-00&ServiceCd=720&Type=search", "url2": null }, "geometry": { "type": "Point", "coordinates": [ 140.14556349999998, 41.8988281 ] } },
{ "type": "Feature", "properties": { "内容": "デイサービスセンター風花【認知症対応型通所介護】北海道古平郡古平町浜町６４５番地いきいき生活支援センター風花", "url": "https://www.kaigokensaku.mhlw.go.jp/01/index.php?action_kouhyou_detail_004_kani=true&JigyosyoCd=0192500056-00&ServiceCd=720&Type=search", "url2": "http://www.reimeinosato.jp/" }, "geometry": { "type": "Point", "coordinates": [ 140.635095299999989, 43.2583218 ] } },
{ "type": "Feature", "properties": { "内容": "デイサービス仁木やすらぎの里【認知症対応型通所介護】北海道余市郡仁木町北町８丁目４０番地５", "url": "https://www.kaigokensaku.mhlw.go.jp/01/index.php?action_kouhyou_detail_004_kani=true&JigyosyoCd=0192500049-00&ServiceCd=720&Type=search", "url2": null }, "geometry": { "type": "Point", "coordinates": [ 140.77177145225366, 43.163895503239367 ] } },
{ "type": "Feature", "properties": { "内容": "グループホームなかじま【認知症対応型通所介護】北海道余市郡余市町大川町4丁目23番地1", "url": "https://www.kaigokensaku.mhlw.go.jp/01/index.php?action_kouhyou_detail_004_kani=true&JigyosyoCd=0172500266-00&ServiceCd=720&Type=search", "url2": "http://www15.plala.or.jp/nakajima/" }, "geometry": { "type": "Point", "coordinates": [ 140.7938001, 43.1920966 ] } },
{ "type": "Feature", "properties": { "内容": "デイサービスセンター　フルーツ・シャトーよいち【認知症対応型通所介護】北海道余市郡余市町黒川町１９丁目１番地２", "url": "https://www.kaigokensaku.mhlw.go.jp/01/index.php?action_kouhyou_detail_004_kani=true&JigyosyoCd=0172500068-00&ServiceCd=720&Type=search", "url2": "http://www.fruit.or.jp" }, "geometry": { "type": "Point", "coordinates": [ 140.814256900000032, 43.187276 ] } },
{ "type": "Feature", "properties": { "内容": "共用型指定認知症対応型通所介護事業所フルーツ・シャトーよいち【認知症対応型通所介護】北海道余市郡余市町黒川町１９丁目１－２", "url": "https://www.kaigokensaku.mhlw.go.jp/01/index.php?action_kouhyou_detail_004_kani=true&JigyosyoCd=0192500031-00&ServiceCd=720&Type=search", "url2": "https://www.fruit.or.jp" }, "geometry": { "type": "Point", "coordinates": [ 140.814256900000032, 43.187276 ] } },
{ "type": "Feature", "properties": { "内容": "デイサービスセンターみどり野【認知症対応型通所介護】北海道空知郡南幌町中央2丁目2番1号", "url": "https://www.kaigokensaku.mhlw.go.jp/01/index.php?action_kouhyou_detail_004_kani=true&JigyosyoCd=0175800374-00&ServiceCd=720&Type=search", "url2": "http://yawaragi-info.or.jp/" }, "geometry": { "type": "Point", "coordinates": [ 141.652508, 43.0580636 ] } },
{ "type": "Feature", "properties": { "内容": "デイサービスかわせみ【認知症対応型通所介護】北海道空知郡奈井江町字奈井江町161番地", "url": "https://www.kaigokensaku.mhlw.go.jp/01/index.php?action_kouhyou_detail_004_kani=true&JigyosyoCd=0177100328-00&ServiceCd=720&Type=search", "url2": null }, "geometry": { "type": "Point", "coordinates": [ 141.885239890737921, 43.421751551563958 ] } },
{ "type": "Feature", "properties": { "内容": "デイサービス　おおむらさき【認知症対応型通所介護】夕張郡栗山町朝日4丁目9番42号", "url": "https://www.kaigokensaku.mhlw.go.jp/01/index.php?action_kouhyou_detail_004_kani=true&JigyosyoCd=0155880016-00&ServiceCd=720&Type=search", "url2": "http://www.aizenkai.or.jp/" }, "geometry": { "type": "Point", "coordinates": [ 141.7957874, 43.055246 ] } },
{ "type": "Feature", "properties": { "内容": "共用型指定認知症対応型通所介護事業所べにばら【認知症対応型通所介護】北海道雨竜郡秩父別町1542番地33", "url": "https://www.kaigokensaku.mhlw.go.jp/01/index.php?action_kouhyou_detail_004_kani=true&JigyosyoCd=0197400013-00&ServiceCd=720&Type=search", "url2": null }, "geometry": { "type": "Point", "coordinates": [ 141.955924699999969, 43.767591 ] } },
{ "type": "Feature", "properties": { "内容": "沼田町認知症高齢者グループホームなごみ【認知症対応型通所介護】雨竜郡沼田町旭町３丁目５番２９号", "url": "https://www.kaigokensaku.mhlw.go.jp/01/index.php?action_kouhyou_detail_004_kani=true&JigyosyoCd=0177400231-00&ServiceCd=720&Type=search", "url2": null }, "geometry": { "type": "Point", "coordinates": [ 141.944653900000048, 43.8064193 ] } },
{ "type": "Feature", "properties": { "内容": "デイサービス菜の花【認知症対応型通所介護】北海道上川郡当麻町４条西３丁目１７番１２号", "url": "https://www.kaigokensaku.mhlw.go.jp/01/index.php?action_kouhyou_detail_004_kani=true&JigyosyoCd=0193100385-00&ServiceCd=720&Type=search", "url2": "http://mintara.org/nanohana/" }, "geometry": { "type": "Point", "coordinates": [ 142.51412890000006, 43.8286072 ] } },
{ "type": "Feature", "properties": { "内容": "グループホームふるさと【認知症対応型通所介護】北海道上川郡下川町錦町３０５番地", "url": "https://www.kaigokensaku.mhlw.go.jp/01/index.php?action_kouhyou_detail_004_kani=true&JigyosyoCd=0193200078-00&ServiceCd=720&Type=search", "url2": null }, "geometry": { "type": "Point", "coordinates": [ 142.6370183, 44.3054758 ] } },
{ "type": "Feature", "properties": { "内容": "グループホーム　びふか【認知症対応型通所介護】中川郡美深町字南町２５番地", "url": "https://www.kaigokensaku.mhlw.go.jp/01/index.php?action_kouhyou_detail_004_kani=true&JigyosyoCd=0173200585-00&ServiceCd=720&Type=search", "url2": null }, "geometry": { "type": "Point", "coordinates": [ 142.355960900000014, 44.4763936 ] } },
{ "type": "Feature", "properties": { "内容": "美深町老人デイサービスセンターやすらぎ【認知症対応型通所介護】北海道中川郡美深町字東1条南3丁目3番地", "url": "https://www.kaigokensaku.mhlw.go.jp/01/index.php?action_kouhyou_detail_004_kani=true&JigyosyoCd=0113210660-00&ServiceCd=720&Type=search", "url2": "http://www.dou-kouseiren.com/index.html" }, "geometry": { "type": "Point", "coordinates": [ 142.3484972, 44.4800068 ] } },
{ "type": "Feature", "properties": { "内容": "社会福祉法人恵和福祉会　すろー・らいふ美幌通所介護【認知症対応型通所介護】北海道網走郡美幌町字野崎11番地1すろー・らいふ美幌　通所介護サービス", "url": "https://www.kaigokensaku.mhlw.go.jp/01/index.php?action_kouhyou_detail_004_kani=true&JigyosyoCd=0195200027-00&ServiceCd=720&Type=search", "url2": "http://www.keiwafukushi.jp/" }, "geometry": { "type": "Point", "coordinates": [ 144.094269500000024, 43.8172398 ] } },
{ "type": "Feature", "properties": { "内容": "ともにデイサービス青葉【認知症対応型通所介護】北海道斜里郡斜里町青葉町28番地グループホームともに", "url": "https://www.kaigokensaku.mhlw.go.jp/01/index.php?action_kouhyou_detail_004_kani=true&JigyosyoCd=0195300124-00&ServiceCd=720&Type=search", "url2": null }, "geometry": { "type": "Point", "coordinates": [ 144.659388256483453, 43.905088181708763 ] } },
{ "type": "Feature", "properties": { "内容": "共用型デイサービスはなおけと【認知症対応型通所介護】北海道常呂郡置戸町字置戸22番地の1", "url": "https://www.kaigokensaku.mhlw.go.jp/01/index.php?action_kouhyou_detail_004_kani=true&JigyosyoCd=0195000096-00&ServiceCd=720&Type=search", "url2": null }, "geometry": { "type": "Point", "coordinates": [ 143.59196270000001, 43.6796634 ] } },
{ "type": "Feature", "properties": { "内容": "興部町認知症対応型デイサービスセンター【認知症対応型通所介護】北海道紋別郡興部町字興部230番地の11興部町老人福祉センター", "url": "https://www.kaigokensaku.mhlw.go.jp/01/index.php?action_kouhyou_detail_004_kani=true&JigyosyoCd=0195100094-00&ServiceCd=720&Type=search", "url2": null }, "geometry": { "type": "Point", "coordinates": [ 143.11618569999996, 44.4719886 ] } },
{ "type": "Feature", "properties": { "内容": "グループホームどんぐりの里【認知症対応型通所介護】北海道白老郡白老町字萩野310－112", "url": "https://www.kaigokensaku.mhlw.go.jp/01/index.php?action_kouhyou_detail_004_kani=true&JigyosyoCd=0173600354-00&ServiceCd=720&Type=search", "url2": null }, "geometry": { "type": "Point", "coordinates": [ 141.310012699999987, 42.5258361 ] } },
{ "type": "Feature", "properties": { "内容": "グループホームかしわ【認知症対応型通所介護】北海道白老郡白老町字萩野310-111どんぐりの森", "url": "https://www.kaigokensaku.mhlw.go.jp/01/index.php?action_kouhyou_detail_004_kani=true&JigyosyoCd=0193600525-00&ServiceCd=720&Type=search", "url2": "https://www.yuwakai2019.com/pc/" }, "geometry": { "type": "Point", "coordinates": [ 141.310451127016222, 42.526015735343883 ] } },
{ "type": "Feature", "properties": { "内容": "デイサービス　くぬぎ【認知症対応型通所介護】北海道白老郡白老町字萩野３１０－１１１", "url": "https://www.kaigokensaku.mhlw.go.jp/01/index.php?action_kouhyou_detail_004_kani=true&JigyosyoCd=0193600103-00&ServiceCd=720&Type=search", "url2": null }, "geometry": { "type": "Point", "coordinates": [ 141.310379399999988, 42.5260083 ] } },
{ "type": "Feature", "properties": { "内容": "グループホームどんぐりの里【認知症対応型通所介護】北海道白老郡白老町字萩野310-112", "url": "https://www.kaigokensaku.mhlw.go.jp/01/index.php?action_kouhyou_detail_004_kani=true&JigyosyoCd=0193600533-00&ServiceCd=720&Type=search", "url2": "https://www.yuwakai2019.com/" }, "geometry": { "type": "Point", "coordinates": [ 141.310035699999958, 42.5258488 ] } },
{ "type": "Feature", "properties": { "内容": "デイサービスくぬぎ【認知症対応型通所介護】北海道白老町字萩野３１０－１１２どんぐりの森", "url": "https://www.kaigokensaku.mhlw.go.jp/01/index.php?action_kouhyou_detail_004_kani=true&JigyosyoCd=0193600541-00&ServiceCd=720&Type=search", "url2": "https://www.yuwakai2019.com/" }, "geometry": { "type": "Point", "coordinates": [ 141.310035699999958, 42.5258488 ] } },
{ "type": "Feature", "properties": { "内容": "特定非営利活動法人富川ヒカルホーム　デイサービスさくら【認知症対応型通所介護】北海道沙流郡日高町富川西2丁目9番13号", "url": "https://www.kaigokensaku.mhlw.go.jp/01/index.php?action_kouhyou_detail_004_kani=true&JigyosyoCd=0193800257-00&ServiceCd=720&Type=search", "url2": null }, "geometry": { "type": "Point", "coordinates": [ 142.0186541, 42.5259228 ] } },
{ "type": "Feature", "properties": { "内容": "認知症対応グループホーム　こころのホームふれない【認知症対応型通所介護】北海道平取町振内町31番地17", "url": "https://www.kaigokensaku.mhlw.go.jp/01/index.php?action_kouhyou_detail_004_kani=true&JigyosyoCd=0193800265-00&ServiceCd=720&Type=search", "url2": null }, "geometry": { "type": "Point", "coordinates": [ 142.3047109, 42.7251839 ] } },
{ "type": "Feature", "properties": { "内容": "認知症高齢者グループホーム「ほほ笑みハウス」【認知症対応型通所介護】北海道日高郡新ひだか町静内中野町２丁目12番６号", "url": "https://www.kaigokensaku.mhlw.go.jp/01/index.php?action_kouhyou_detail_004_kani=true&JigyosyoCd=0173800491-00&ServiceCd=720&Type=search", "url2": null }, "geometry": { "type": "Point", "coordinates": [ 142.3699593, 42.352994 ] } },
{ "type": "Feature", "properties": { "内容": "認知症高齢者グループホーム「栗ちゃんの家」【認知症対応型通所介護】北海道日高郡新ひだか町静内ときわ町３丁目12番25号", "url": "https://www.kaigokensaku.mhlw.go.jp/01/index.php?action_kouhyou_detail_004_kani=true&JigyosyoCd=0173800350-00&ServiceCd=720&Type=search", "url2": null }, "geometry": { "type": "Point", "coordinates": [ 142.366251499999947, 42.3465223 ] } },
{ "type": "Feature", "properties": { "内容": "認知症対応型通所介護事業所「あすなろ」【認知症対応型通所介護】北海道日高郡新ひだか町静内ときわ町3丁目12番23号", "url": "https://www.kaigokensaku.mhlw.go.jp/01/index.php?action_kouhyou_detail_004_kani=true&JigyosyoCd=0193800018-00&ServiceCd=720&Type=search", "url2": null }, "geometry": { "type": "Point", "coordinates": [ 142.366515400000026, 42.3467806 ] } },
{ "type": "Feature", "properties": { "内容": "認知症対応型通所介護「なかの」【認知症対応型通所介護】北海道日高郡新ひだか町静内中野町２丁目12-36", "url": "https://www.kaigokensaku.mhlw.go.jp/01/index.php?action_kouhyou_detail_004_kani=true&JigyosyoCd=0193800059-00&ServiceCd=720&Type=search", "url2": null }, "geometry": { "type": "Point", "coordinates": [ 142.3701648, 42.3532218 ] } },
{ "type": "Feature", "properties": { "内容": "ロータス音更認知症対応型通所介護事業所【認知症対応型通所介護】河東郡音更町中鈴蘭元町２番地９", "url": "https://www.kaigokensaku.mhlw.go.jp/01/index.php?action_kouhyou_detail_004_kani=true&JigyosyoCd=0194700084-00&ServiceCd=720&Type=search", "url2": "http://teinelotuskai.com/" }, "geometry": { "type": "Point", "coordinates": [ 143.190677100000016, 42.9555115 ] } },
{ "type": "Feature", "properties": { "内容": "れんがの家　デイサービス【認知症対応型通所介護】北海道河東郡鹿追町鹿追北3線8番地25れんがの家", "url": "https://www.kaigokensaku.mhlw.go.jp/01/index.php?action_kouhyou_detail_004_kani=true&JigyosyoCd=0194700795-00&ServiceCd=720&Type=search", "url2": "https://kashiwanomori.jp/" }, "geometry": { "type": "Point", "coordinates": [ 142.995848200000012, 43.0999694 ] } },
{ "type": "Feature", "properties": { "内容": "さくらさくら認知症対応型通所介護事業所【認知症対応型通所介護】北海道上川郡清水町北１条西５丁目１－２", "url": "https://www.kaigokensaku.mhlw.go.jp/01/index.php?action_kouhyou_detail_004_kani=true&JigyosyoCd=0194700530-00&ServiceCd=720&Type=search", "url2": null }, "geometry": { "type": "Point", "coordinates": [ 142.873305, 43.0108085 ] } },
{ "type": "Feature", "properties": { "内容": "さくらさくらデイサービス【認知症対応型通所介護】北海道上川郡清水町宇下佐幌基線98番地", "url": "https://www.kaigokensaku.mhlw.go.jp/01/index.php?action_kouhyou_detail_004_kani=true&JigyosyoCd=0194700787-00&ServiceCd=720&Type=search", "url2": null }, "geometry": { "type": "Point", "coordinates": [ 142.8982165, 43.0428103 ] } },
{ "type": "Feature", "properties": { "内容": "通いの家あづまし家【認知症対応型通所介護】中川郡幕別町札内暁町２５９番地８４", "url": "https://www.kaigokensaku.mhlw.go.jp/01/index.php?action_kouhyou_detail_004_kani=true&JigyosyoCd=0194700142-00&ServiceCd=720&Type=search", "url2": null }, "geometry": { "type": "Point", "coordinates": [ 143.265902200000028, 42.9192218 ] } },
{ "type": "Feature", "properties": { "内容": "認知症対応型通所介護Ｓｔｏｒｙ【認知症対応型通所介護】北海道中川郡幕別町札内共栄町175番地の8", "url": "https://www.kaigokensaku.mhlw.go.jp/01/index.php?action_kouhyou_detail_004_kani=true&JigyosyoCd=0194700712-00&ServiceCd=720&Type=search", "url2": null }, "geometry": { "type": "Point", "coordinates": [ 143.2456999, 42.9168915 ] } },
{ "type": "Feature", "properties": { "内容": "宅老所　和【認知症対応型通所介護】中川郡幕別町緑町１番地の１３", "url": "https://www.kaigokensaku.mhlw.go.jp/01/index.php?action_kouhyou_detail_004_kani=true&JigyosyoCd=0194700159-00&ServiceCd=720&Type=search", "url2": null }, "geometry": { "type": "Point", "coordinates": [ 143.370982995909145, 42.904050826063695 ] } },
{ "type": "Feature", "properties": { "内容": "デイホームひなたぼっこ【認知症対応型通所介護】北海道足寄郡足寄町旭町１丁目３８番地", "url": "https://www.kaigokensaku.mhlw.go.jp/01/index.php?action_kouhyou_detail_004_kani=true&JigyosyoCd=0194700019-00&ServiceCd=720&Type=search", "url2": "https://mamasapo1020.jp/mamasapo/" }, "geometry": { "type": "Point", "coordinates": [ 143.558296700000028, 43.2416457 ] } },
{ "type": "Feature", "properties": { "内容": "通所介護センターうらほろ【認知症対応型通所介護】北海道十勝郡浦幌町字北町８番地１浦幌町保健福祉センター内", "url": "https://www.kaigokensaku.mhlw.go.jp/01/index.php?action_kouhyou_detail_004_kani=true&JigyosyoCd=0174700310-00&ServiceCd=720&Type=search", "url2": "https://urahoro-shakyou.jimdofree.com/" }, "geometry": { "type": "Point", "coordinates": [ 143.6622059, 42.8153656 ] } },
{ "type": "Feature", "properties": { "内容": "グループホームあいりす・かとれあ【認知症対応型通所介護】北海道釧路郡釧路町桂２丁目１番２号", "url": "https://www.kaigokensaku.mhlw.go.jp/01/index.php?action_kouhyou_detail_004_kani=true&JigyosyoCd=0194300091-00&ServiceCd=720&Type=search", "url2": null }, "geometry": { "type": "Point", "coordinates": [ 144.400257, 43.0048622 ] } },
{ "type": "Feature", "properties": { "内容": "株式会社グッドウィル　グループホーム　はなしのぶ【認知症対応型通所介護】北海道釧路郡釧路町別保９丁目２８番地", "url": "https://www.kaigokensaku.mhlw.go.jp/01/index.php?action_kouhyou_detail_004_kani=true&JigyosyoCd=0194300026-00&ServiceCd=720&Type=search", "url2": null }, "geometry": { "type": "Point", "coordinates": [ 144.4784685, 42.9888047 ] } },
{ "type": "Feature", "properties": { "内容": "医療法人社団　田中医院　グループホームすずらん・らいらっく【認知症対応型通所介護】厚岸郡厚岸町門静１丁目69番地", "url": "https://www.kaigokensaku.mhlw.go.jp/01/index.php?action_kouhyou_detail_004_kani=true&JigyosyoCd=0174300350-00&ServiceCd=720&Type=search", "url2": null }, "geometry": { "type": "Point", "coordinates": [ 144.799241700000039, 43.0625982 ] } },
{ "type": "Feature", "properties": { "内容": "医療法人社団田中医院　グループホームらべんだあ・なでしこ【認知症対応型通所介護】北海道厚岸郡厚岸町門静1丁目７６番地", "url": "https://www.kaigokensaku.mhlw.go.jp/01/index.php?action_kouhyou_detail_004_kani=true&JigyosyoCd=0174300517-00&ServiceCd=720&Type=search", "url2": null }, "geometry": { "type": "Point", "coordinates": [ 144.799652230163559, 43.062743749653123 ] } },
{ "type": "Feature", "properties": { "内容": "白糠町社会福祉協議会　通所介護事業所　ケアホーム春風【認知症対応型通所介護】北海道白糠郡白糠町庶路宮下５丁目３番地２３", "url": "https://www.kaigokensaku.mhlw.go.jp/01/index.php?action_kouhyou_detail_004_kani=true&JigyosyoCd=0194300083-00&ServiceCd=720&Type=search", "url2": "https://shiranuka-shakyo.jp" }, "geometry": { "type": "Point", "coordinates": [ 144.149538799999988, 42.9887872 ] } },
{ "type": "Feature", "properties": { "内容": "デイサービス萩の里【認知症対応型通所介護】北海道標津郡中標津町川西7-20", "url": "https://www.kaigokensaku.mhlw.go.jp/01/index.php?action_kouhyou_detail_004_kani=true&JigyosyoCd=0194200150-00&ServiceCd=720&Type=search", "url2": null }, "geometry": { "type": "Point", "coordinates": [ 144.9376183, 43.5483266 ] } },
{ "type": "Feature", "properties": { "内容": "愛の家デイサービスなかしべつ【認知症対応型通所介護】北海道標津郡中標津町東21条南7丁目6番地", "url": "https://www.kaigokensaku.mhlw.go.jp/01/index.php?action_kouhyou_detail_004_kani=true&JigyosyoCd=0194200028-00&ServiceCd=720&Type=search", "url2": "https://mcs-ainoie.com/ins35.html" }, "geometry": { "type": "Point", "coordinates": [ 144.995403399999987, 43.5546903 ] } }
]
}
